id,place_name,category_name,category_group_code,category_group_name,phone,address_name,road_address_name,x,y,place_url,distance,wheelchair,animal,keyword,evalnum,rate
12783363,라마다호텔앤스위트 서울남대문,여행 > 숙박 > 호텔 > 특급호텔 > 라마다호텔,AD5,숙박,02-775-7177,서울 중구 순화동 151,서울 중구 칠패로 27,126.97188584385984,37.56048878084385,http://place.map.kakao.com/12783363,,unknown,unknown,,28,3.2
1015118150,남대문호텔 앤 스위트,여행 > 숙박 > 호텔,AD5,숙박,,서울 중구 순화동 151,서울 중구 칠패로 27,126.972067049122,37.5601788809302,http://place.map.kakao.com/1015118150,,unknown,unknown,,0,0
8218660,뉴오리엔탈호텔,여행 > 숙박 > 호텔,AD5,숙박,02-753-0701,서울 중구 회현동3가 10,서울 중구 퇴계로14길 1,126.983701976339,37.5603144078375,http://place.map.kakao.com/8218660,,unknown,unknown,,0,0
26644790,88게스트하우스,여행 > 숙박 > 게스트하우스,AD5,숙박,02-771-8788,서울 중구 회현동3가 4-3,서울 중구 퇴계로16길 14-10,126.984041550771,37.5601630867444,http://place.map.kakao.com/26644790,,unknown,unknown,,0,0
27456267,필스테이명동부티크,여행 > 숙박 > 게스트하우스,AD5,숙박,02-755-8882,서울 중구 남산동1가 7-4,서울 중구 퇴계로16길 11,126.984666283426,37.5602784971369,http://place.map.kakao.com/27456267,,unknown,unknown,,0,0
23882774,계림장,여행 > 숙박 > 게스트하우스,AD5,숙박,02-778-4294,서울 중구 남산동2가 11-1,서울 중구 퇴계로20길 5-4,126.98592945959,37.55985338388,http://place.map.kakao.com/23882774,,unknown,unknown,,0,0
26820491,호텔프린스 별관,여행 > 숙박 > 호텔,AD5,숙박,02-752-7111,서울 중구 남산동3가 19-3,서울 중구 퇴계로22길 11-8,126.987002324165,37.5603256292533,http://place.map.kakao.com/26820491,,unknown,unknown,,1,5.0
26815652,명동게스트하우스꼬모,여행 > 숙박 > 게스트하우스,AD5,숙박,02-755-5437,서울 중구 남산동3가 17,서울 중구 퇴계로24길 12,126.987206033464,37.5604193551795,http://place.map.kakao.com/26815652,,unknown,unknown,#제로페이 ,2,5.0
25691768,명동맘하우스,여행 > 숙박 > 게스트하우스,AD5,숙박,02-779-0000,서울 중구 남산동3가 13-21,서울 중구 퇴계로22길 11,126.986653702432,37.5604661458734,http://place.map.kakao.com/25691768,,unknown,unknown,,1,5.0
18272452,명동아리하우스,여행 > 숙박 > 게스트하우스,AD5,숙박,070-8225-8089,서울 중구 남산동3가 20-6,서울 중구 퇴계로22길 11-4,126.986816698236,37.5603796684857,http://place.map.kakao.com/18272452,,unknown,unknown,#제로페이 ,1,5.0
17382184,명동에코하우스,여행 > 숙박 > 게스트하우스,AD5,숙박,02-757-3646,서울 중구 남산동3가 20-9,서울 중구 퇴계로22길 13,126.986617507735,37.5603363982256,http://place.map.kakao.com/17382184,,unknown,unknown,#온돌룸 #조식서비스 #패밀리룸 ,0,0
23881507,경도장여관,"여행 > 숙박 > 여관,모텔",AD5,숙박,,서울 중구 남산동3가 17,서울 중구 퇴계로24길 12,126.987206033464,37.5604193551795,http://place.map.kakao.com/23881507,,unknown,unknown,,0,0
459320502,명동게스트하우스,여행 > 숙박 > 게스트하우스,AD5,숙박,,서울 중구 남산동3가 13-19,서울 중구 퇴계로24길 2-7,126.98672611586,37.5605922935975,http://place.map.kakao.com/459320502,,unknown,unknown,,0,0
377681500,명동스테이레지던스,"여행 > 숙박 > 여관,모텔",AD5,숙박,,서울 중구 남산동3가 31-1,서울 중구 퇴계로24길 13-8,126.987667819756,37.5603689484909,http://place.map.kakao.com/377681500,,unknown,unknown,,0,0
23106008,사자나미 게스트하우스,여행 > 숙박 > 게스트하우스,AD5,숙박,02-755-0114,서울 중구 남산동3가 31-1,서울 중구 퇴계로24길 13-8,126.987663293118,37.5603653440305,http://place.map.kakao.com/23106008,,unknown,unknown,,0,0
991465838,DH명동게스트하우스,여행 > 숙박 > 게스트하우스,AD5,숙박,02-2277-8088,서울 중구 남학동 24-1,서울 중구 퇴계로26길 9,126.99046562779871,37.56053679299293,http://place.map.kakao.com/991465838,,unknown,unknown,,0,0
26553457,오리엔스호텔앤레지던스,여행 > 숙박 > 호텔,AD5,숙박,02-2280-8000,서울 중구 예장동 2-19,서울 중구 삼일대로2길 50,126.991149302122,37.560023277988,http://place.map.kakao.com/26553457,,unknown,unknown,#레지던스호텔 #어메니티제공 #조식서비스 #호캉스 ,7,3.4
7814628,알바호텔,여행 > 숙박 > 호텔,AD5,숙박,02-363-1751,서울 서대문구 합동 28-5,,126.966226424631,37.5613090066375,http://place.map.kakao.com/7814628,,unknown,unknown,,0,0
27179684,브라운스위트레지던스,여행 > 숙박 > 호텔,AD5,숙박,02-777-5621,서울 중구 중림동 355,서울 중구 청파로 464,126.968232189307,37.5608951048594,http://place.map.kakao.com/27179684,,unknown,unknown,#레지던스호텔 #어메니티제공 #파우더룸 #파티룸 ,1,1.0
25429712,프레이저플레이스 남대문서울,여행 > 숙박 > 호텔,AD5,숙박,02-2098-0888,서울 중구 남대문로4가 17-7,서울 중구 세종대로 58,126.976426385174,37.5613763555678,http://place.map.kakao.com/25429712,,unknown,unknown,#노천탕 #레지던스호텔 #비즈니스호텔 #사우나 #어메니티제공 #조식서비스 #호캉스 ,5,3.4
821799963,코트야드바이메리어트 서울남대문,여행 > 숙박 > 호텔,AD5,숙박,02-2211-8000,서울 중구 남대문로4가 17-23,서울 중구 남대문로 9,126.976938008129,37.5612503170701,http://place.map.kakao.com/821799963,,unknown,unknown,#메리어트 #서울호텔 #숭례문 #코트야드메리어트 #호텔 #비즈니스룸 #비즈니스호텔 #어메니티제공 #조식서비스 #호캉스 ,37,4.0
1933243863,상상스테이,여행 > 숙박 > 호텔,AD5,숙박,02-2211-7000,서울 중구 남대문로4가 17-23,서울 중구 남대문로 9,126.976883696297,37.5611998506313,http://place.map.kakao.com/1933243863,,unknown,unknown,,0,0
24662056,24게스트하우스 명동에비뉴점,여행 > 숙박 > 게스트하우스,AD5,숙박,02-753-8700,서울 중구 북창동 134-1,서울 중구 남대문로1길 6,126.977635176636,37.561362174785,http://place.map.kakao.com/24662056,,unknown,unknown,,0,0
25048571,호텔코지,여행 > 숙박 > 호텔,AD5,숙박,02-773-8801,서울 중구 회현동1가 199-6,서울 중구 남대문시장길 61,126.979369288435,37.5607858526039,http://place.map.kakao.com/25048571,,unknown,unknown,,2,3.0
12159743,호텔명동,여행 > 숙박 > 호텔,AD5,숙박,02-771-4545,서울 중구 회현동1가 199-6,서울 중구 남대문시장길 61,126.979428159622,37.5607245950926,http://place.map.kakao.com/12159743,,unknown,unknown,,0,0
1546305700,57명동호스텔,"여행 > 숙박 > 여관,모텔",AD5,숙박,02-778-8835,서울 중구 충무로1가 24-28,서울 중구 명동2길 57,126.98339058536516,37.56096308216818,http://place.map.kakao.com/1546305700,,unknown,unknown,#2인실 #조식서비스 #제로페이 ,2,4.0
23700132,데이즈호텔 명동,여행 > 숙박 > 호텔,AD5,숙박,,서울 중구 충무로1가 24-30,서울 중구 퇴계로 107,126.983588657287,37.5609450899306,http://place.map.kakao.com/23700132,,unknown,unknown,,0,0
1130739837,아트래블홈,여행 > 숙박 > 호텔,AD5,숙박,,서울 중구 충무로1가 22-4,서울 중구 명동8나길 18,126.984022022249,37.5615109753335,http://place.map.kakao.com/1130739837,,unknown,unknown,,0,0
26571958,K게스트하우스 명동1호점,여행 > 숙박 > 게스트하우스,AD5,숙박,070-8800-3650,서울 중구 충무로1가 25-50,서울 중구 퇴계로 103,126.983217437579,37.5608729580032,http://place.map.kakao.com/26571958,,unknown,unknown,#조식서비스 ,0,0
330850389,밀리오레호텔 명동,여행 > 숙박 > 호텔,AD5,숙박,02-6936-6000,서울 중구 충무로1가 24-1,서울 중구 퇴계로 115,126.984211134416,37.5610496904418,http://place.map.kakao.com/330850389,,unknown,unknown,,14,2.1
25612226,호텔스카이파크 명동1호점,여행 > 숙박 > 호텔,AD5,숙박,02-6900-9300,서울 중구 충무로1가 24-23,서울 중구 명동8나길 15,126.98420995620218,37.56126953349429,http://place.map.kakao.com/25612226,,unknown,unknown,#2인실 #어메니티제공 #조식서비스 #호캉스 ,4,2.5
25777439,이코노미호텔 명동프리미어점,여행 > 숙박 > 호텔,AD5,숙박,02-3273-6000,서울 중구 충무로1가 24-6,서울 중구 명동8나길 9,126.984430656916,37.5612911867261,http://place.map.kakao.com/25777439,,unknown,unknown,,1,1.0
1280256164,모헤닉호텔서울명동,여행 > 숙박 > 호텔,AD5,숙박,1688-5928,서울 중구 충무로1가 24-1,서울 중구 퇴계로 115,126.98452125188,37.5610533354932,http://place.map.kakao.com/1280256164,,unknown,unknown,,1,5.0
1658021057,명동조은호텔,여행 > 숙박 > 호텔,AD5,숙박,,서울 중구 충무로1가 24-1,서울 중구 퇴계로 115,126.984512197333,37.5610533343058,http://place.map.kakao.com/1658021057,,unknown,unknown,,0,0
26926937,더에이엠씨명동호텔,여행 > 숙박 > 호텔,AD5,숙박,,서울 중구 충무로1가 24-1,서울 중구 퇴계로 115,126.984521247407,37.5610749594153,http://place.map.kakao.com/26926937,,unknown,unknown,,0,0
26806179,L7 명동,여행 > 숙박 > 호텔 > 특급호텔 > 롯데호텔,AD5,숙박,02-6310-1000,서울 중구 충무로2가 62-12,서울 중구 퇴계로 137,126.98698855837377,37.561384298991165,http://place.map.kakao.com/26806179,,unknown,unknown,,30,4.0
17358633,서울프린스호텔,여행 > 숙박 > 호텔,AD5,숙박,02-752-7111,서울 중구 남산동2가 1-1,서울 중구 퇴계로 130,126.986277904015,37.5606715300781,http://place.map.kakao.com/17358633,,unknown,unknown,#2인실 #비즈니스룸 #비즈니스호텔 #어메니티제공 #온돌룸 #조식서비스 #호캉스 #제로페이 ,5,2.8
14539228,호텔스카이파크 명동3호점,여행 > 숙박 > 호텔,AD5,숙박,02-756-9700,서울 중구 충무로2가 62-9,서울 중구 퇴계로 139,126.98726360540698,37.56130233827916,http://place.map.kakao.com/14539228,,unknown,unknown,#비즈니스호텔 #어메니티제공 #조식서비스 #호캉스 ,1,3.0
13323689,세종호텔,여행 > 숙박 > 호텔,AD5,숙박,02-773-6000,서울 중구 충무로2가 61-3,서울 중구 퇴계로 145,126.98794833456952,37.561446569636125,http://place.map.kakao.com/13323689,,unknown,unknown,,23,3.0
37170595,원즈빌,여행 > 숙박 > 호텔,AD5,숙박,,서울 중구 주자동 42-2,서울 중구 퇴계로 162-3,126.98991326271,37.5608448880143,http://place.map.kakao.com/37170595,,unknown,unknown,,1,5.0
154728097,디어스 명동,여행 > 숙박 > 호텔,AD5,숙박,02-2079-8500,서울 중구 남학동 13-2,서울 중구 퇴계로 176,126.991294081463,37.5608089580339,http://place.map.kakao.com/154728097,,y,n,,5,4.4
1599980360,문스호스텔,여행 > 숙박 > 게스트하우스,AD5,숙박,,서울 중구 남학동 14-1,서울 중구 퇴계로28길 6-3,126.991199025564,37.5606683954805,http://place.map.kakao.com/1599980360,,unknown,unknown,,0,0
15658485,대동모텔,"여행 > 숙박 > 여관,모텔",AD5,숙박,,서울 중구 남학동 14-1,서울 중구 퇴계로28길 6-3,126.991180916563,37.5606683941292,http://place.map.kakao.com/15658485,,unknown,unknown,,0,0
1906769625,ENA스위트호텔 남대문,여행 > 숙박 > 호텔,AD5,숙박,02-6020-7000,서울 중구 서소문동 120-13,서울 중구 세종대로11길 36,126.973881722128,37.5623056486019,http://place.map.kakao.com/1906769625,,unknown,unknown,#어메니티제공 #조식서비스 #호캉스 #제로페이 ,24,4.4
1330886736,호텔그레이스리 서울,여행 > 숙박 > 호텔,AD5,숙박,02-6936-0100,서울 중구 남대문로4가 17-19,서울 중구 세종대로12길 12,126.9769107309752,37.56161791839677,http://place.map.kakao.com/1330886736,,unknown,unknown,#그레이스리 #남대문호텔 #명동호텔 #서울역호텔 #비즈니스호텔 #2인실 #어메니티제공 #조식서비스 #호캉스 ,27,4.7
938789617,퍼스트스테이호텔 이글,여행 > 숙박 > 호텔,AD5,숙박,02-318-1502,서울 중구 태평로2가 70-2,서울 중구 세종대로 66,126.97665590745156,37.56213864434695,http://place.map.kakao.com/938789617,,unknown,unknown,,1,3.0
2099935410,K게스트하우스 남대문점,여행 > 숙박 > 게스트하우스,AD5,숙박,070-4189-3650,서울 중구 북창동 20-1,서울 중구 남대문로1길 31,126.977254572959,37.5623856342625,http://place.map.kakao.com/2099935410,,unknown,unknown,,0,0
1277229639,더블유에이치지코리아,여행 > 숙박 > 호텔,AD5,숙박,02-6936-0100,서울 중구 남대문로4가 17-19,서울 중구 세종대로12길 12,126.976969592626,37.5615963059728,http://place.map.kakao.com/1277229639,,unknown,unknown,,0,0
26889256,호텔8아워즈,여행 > 숙박 > 호텔,AD5,숙박,02-3789-8882,서울 중구 북창동 104,서울 중구 남대문로1길 26-10,126.978001677468,37.5620758330026,http://place.map.kakao.com/26889256,,unknown,unknown,,4,3.5
8871739,호텔아이린시티,여행 > 숙박 > 호텔,AD5,숙박,02-773-0550,서울 중구 북창동 104,서울 중구 남대문로1길 26-10,126.977992622798,37.5620758313152,http://place.map.kakao.com/8871739,,unknown,unknown,,2,2.5
1025214126,빨간팬다호텔,"여행 > 숙박 > 여관,모텔",AD5,숙박,02-753-2555,서울 중구 북창동 110-2,서울 중구 남대문로 25-13,126.97822360499944,37.56177313927408,http://place.map.kakao.com/1025214126,,unknown,unknown,,0,0
306360827,호텔피넛,"여행 > 숙박 > 여관,모텔",AD5,숙박,,서울 중구 북창동 95,서울 중구 남대문로1길 26-8,126.9778160155889,37.562214551740375,http://place.map.kakao.com/306360827,,unknown,unknown,,2,5.0
124286732,스타게스트하우스,여행 > 숙박 > 게스트하우스,AD5,숙박,02-318-9900,서울 중구 북창동 104,서울 중구 남대문로1길 26-10,126.97799487984013,37.56209835665116,http://place.map.kakao.com/124286732,,unknown,unknown,#제로페이 ,0,0
15291224,호텔y하우스,"여행 > 숙박 > 여관,모텔",AD5,숙박,,서울 중구 북창동 95,서울 중구 남대문로1길 26-8,126.977806963575,37.5622055400733,http://place.map.kakao.com/15291224,,unknown,unknown,,0,0
2040574326,소테츠호텔즈 더스프라지르 서울명동(휴업중),여행 > 숙박 > 호텔,AD5,숙박,02-772-0900,서울 중구 북창동 93-42,서울 중구 남대문로5길 15,126.978780385233,37.5620543516072,http://place.map.kakao.com/2040574326,,unknown,unknown,#2인실 #비즈니스룸 #어메니티제공 #연회장 #조식서비스 #호캉스 ,9,2.6
416918070,로컬스티치 시청,여행 > 숙박 > 호텔,AD5,숙박,02-2139-1000,서울 중구 북창동 93-43,서울 중구 남대문로5길 17-5,126.978704475713,37.5623237359225,http://place.map.kakao.com/416918070,,unknown,unknown,,1,5.0
396872952,알로프트 서울명동,여행 > 숙박 > 호텔,AD5,숙박,02-2084-1000,서울 중구 명동2가 104,서울 중구 남대문로 56,126.981922286996,37.562335985428,http://place.map.kakao.com/396872952,,unknown,unknown,,15,4.1
2072828770,아트래블홈게스트하우스,여행 > 숙박 > 게스트하우스,AD5,숙박,,서울 중구 충무로1가 22-4,서울 중구 명동8나길 18,126.984005032543,37.5615686368221,http://place.map.kakao.com/2072828770,,unknown,unknown,,0,0
11049685,사보이호텔,여행 > 숙박 > 호텔,AD5,숙박,02-772-7700,서울 중구 충무로1가 23-1,서울 중구 명동8나길 10,126.984186092731,37.561720028656,http://place.map.kakao.com/11049685,,unknown,unknown,#조식서비스 ,3,4.7
619773283,K그랜드호텔 명동,여행 > 숙박 > 호텔,AD5,숙박,070-8880-3650,서울 중구 명동2가 52-7,서울 중구 명동8길 36,126.98472023736,37.562103923564,http://place.map.kakao.com/619773283,,unknown,unknown,,0,0
18645255,나인트리호텔 명동,여행 > 숙박 > 호텔,AD5,숙박,02-750-0999,서울 중구 충무로2가 63-2,서울 중구 명동10길 51,126.986010627113,37.5615760994689,http://place.map.kakao.com/18645255,,unknown,unknown,#2인실 #비즈니스호텔 #어메니티제공 #조식서비스 #호캉스 ,9,3.9
137786269,필스테이 명동스테이션,여행 > 숙박 > 게스트하우스,AD5,숙박,02-775-6200,서울 중구 충무로2가 66-9,서울 중구 명동8가길 7,126.985403932384,37.5617598293481,http://place.map.kakao.com/137786269,,unknown,unknown,,0,0
26794765,미조호텔,"여행 > 숙박 > 여관,모텔",AD5,숙박,02-778-6080,서울 중구 충무로2가 66-9,서울 중구 명동8가길 7,126.98539034480554,37.56178865956094,http://place.map.kakao.com/26794765,,unknown,unknown,,0,0
27318092,더스테이호텔,"여행 > 숙박 > 여관,모텔",AD5,숙박,,서울 중구 충무로2가 12-19,서울 중구 명동8가길 31,126.986748526128,37.561868107519,http://place.map.kakao.com/27318092,,unknown,unknown,,1,1.0
18166543,더그랜드호텔,여행 > 숙박 > 호텔,AD5,숙박,02-777-7900,서울 중구 충무로2가 62-2,서울 중구 명동8가길 38,126.987156019819,37.5616663292976,http://place.map.kakao.com/18166543,,unknown,unknown,,2,2.0
1685853917,헨나호텔 서울명동,여행 > 숙박 > 호텔,AD5,숙박,070-8057-1131,서울 중구 충무로2가 12-5,서울 중구 명동8가길 59,126.988319482918,37.5620232448122,http://place.map.kakao.com/1685853917,,unknown,unknown,,5,4.8
26909004,호텔크레토명동,여행 > 숙박 > 호텔,AD5,숙박,02-740-4500,서울 중구 충무로2가 12-7,서울 중구 명동8가길 53,126.9880772809879,37.5619583488441,http://place.map.kakao.com/26909004,,unknown,unknown,#어메니티제공 #제로페이 ,2,4.0
1980382509,Uh스위트 명동점,여행 > 숙박 > 호텔,AD5,숙박,,서울 중구 충무로2가 12-27,서울 중구 명동8가길 47,126.98767208570958,37.56195470324401,http://place.map.kakao.com/1980382509,,unknown,unknown,,2,3.0
16555850,명동티비에스,"여행 > 숙박 > 여관,모텔",AD5,숙박,,서울 중구 충무로2가 12-5,서울 중구 명동8가길 59,126.988319482918,37.5620232448122,http://place.map.kakao.com/16555850,,unknown,unknown,,0,0
1938999916,영레지던스,여행 > 숙박 > 게스트하우스,AD5,숙박,070-7798-1130,서울 중구 충무로2가 61-2,서울 중구 명동8가길 52,126.987961867752,37.5617493059077,http://place.map.kakao.com/1938999916,,unknown,unknown,,0,0
27469162,까사 명동게스트하우스,여행 > 숙박 > 게스트하우스,AD5,숙박,,서울 중구 충무로2가 12-27,서울 중구 명동8가길 47,126.987587205336,37.561912347508205,http://place.map.kakao.com/27469162,,unknown,unknown,,0,0
855127191,더리프 명동,여행 > 숙박 > 호텔,AD5,숙박,,서울 중구 충무로2가 12-27,서울 중구 명동8가길 47,126.98767208571,37.561954703244,http://place.map.kakao.com/855127191,,unknown,unknown,,0,0
1525548699,호텔도트 명동,여행 > 숙박 > 호텔,AD5,숙박,,서울 중구 충무로2가 12-10,서울 중구 명동8가길 49,126.987821484012,37.5619763426685,http://place.map.kakao.com/1525548699,,unknown,unknown,,0,0
26475078,이비스스타일 앰배서더 명동,여행 > 숙박 > 호텔 > 특급호텔 > 앰배서더호텔,AD5,숙박,02-6020-8888,서울 중구 충무로2가 53-10,서울 중구 삼일대로 302,126.98938797624,37.5617206108089,http://place.map.kakao.com/26475078,,unknown,unknown,#노천탕 #부티크호텔 #비즈니스호텔 #사우나 #전망좋은호텔 #호캉스 ,13,3.0
1963371214,K스테이게스트하우스 명동1호점,여행 > 숙박 > 게스트하우스,AD5,숙박,,서울 중구 충무로2가 12-4,서울 중구 명동8가길 61,126.988459831882,37.5620124466543,http://place.map.kakao.com/1963371214,,unknown,unknown,,0,0
26993101,유아이 호스텔,여행 > 숙박 > 유스호스텔,AD5,숙박,02-2269-5588,서울 중구 충무로2가 51-17,서울 중구 퇴계로 159-8,126.989899560269,37.5617386756165,http://place.map.kakao.com/26993101,,unknown,unknown,,0,0
1755084518,명동타임호스텔,여행 > 숙박 > 유스호스텔,AD5,숙박,,서울 중구 충무로2가 50-7,서울 중구 삼일대로4길 9,126.989591640685,37.5621855432085,http://place.map.kakao.com/1755084518,,unknown,unknown,,1,5.0
1838775659,탕파스호스텔,여행 > 숙박 > 게스트하우스,AD5,숙박,,서울 중구 충무로2가 51-17,서울 중구 퇴계로 159-8,126.98991366545113,37.561750301108496,http://place.map.kakao.com/1838775659,,unknown,unknown,,0,0
836329797,뉴스테이인 명동점,"여행 > 숙박 > 여관,모텔",AD5,숙박,070-4543-0840,서울 중구 충무로3가 59-22,서울 중구 수표로 14,126.990610266846,37.5623910558378,http://place.map.kakao.com/836329797,,unknown,unknown,,6,1.3
16821296,영빈장여관,"여행 > 숙박 > 여관,모텔",AD5,숙박,02-362-2160,서울 서대문구 미근동 81,서울 서대문구 충정로6길 49-4,126.96736674323,37.5625887425162,http://place.map.kakao.com/16821296,,unknown,unknown,,0,0
10879960,프레이저플레이스 센트럴서울,여행 > 숙박 > 호텔,AD5,숙박,02-2220-8888,서울 중구 의주로1가 202,서울 중구 통일로 78,126.96980700974122,37.56254884694658,http://place.map.kakao.com/10879960,,unknown,unknown,#레지던스호텔 #사우나 #실외수영장 #애견동반호텔 #조식서비스 #파티룸 #호캉스 ,17,3.7
14561751,브이티엔에어,여행 > 숙박 > 호텔,AD5,숙박,,서울 중구 서소문동 57-9,서울 중구 서소문로 99,126.97217922322,37.5628855014629,http://place.map.kakao.com/14561751,,unknown,unknown,,0,0
1525465914,호텔 모던서울,여행 > 숙박 > 호텔,AD5,숙박,02-755-1248,서울 중구 북창동 19-3,서울 중구 남대문로1길 37,126.977221654183,37.5626991747125,http://place.map.kakao.com/1525465914,,unknown,unknown,,1,5.0
1549352295,호텔토마스 명동,여행 > 숙박 > 호텔,AD5,숙박,02-777-9500,서울 중구 북창동 12-1,서울 중구 세종대로16길 26,126.978377137967,37.5631426822577,http://place.map.kakao.com/1549352295,,unknown,unknown,#2인실 #비즈니스룸 #연회장 #호캉스 ,9,3.7
24065729,트레블로지 명동시티홀,여행 > 숙박 > 호텔,AD5,숙박,02-6362-6000,서울 중구 북창동 17-1,서울 중구 세종대로16길 22,126.978078349656,37.5630741514274,http://place.map.kakao.com/24065729,,unknown,unknown,#1인실 #사우나 ,1,1.0
16556621,호텔대우인,"여행 > 숙박 > 여관,모텔",AD5,숙박,02-755-8067,서울 중구 북창동 65-1,서울 중구 세종대로14길 22-2,126.977870180077,37.5627677737871,http://place.map.kakao.com/16556621,,unknown,unknown,#조식서비스 ,1,5.0
27140898,솔라리아니시테츠호텔 서울명동,여행 > 숙박 > 호텔,AD5,숙박,02-773-1555,서울 중구 명동2가 31-1,서울 중구 명동8길 27,126.984960078632,37.5626391463274,http://place.map.kakao.com/27140898,,unknown,unknown,#2인실 #비즈니스호텔 #어메니티제공 #호캉스 ,20,4.5
1529524241,메이원호텔,"여행 > 숙박 > 여관,모텔",AD5,숙박,02-778-1008,서울 중구 명동2가 22,서울 중구 명동10길 35-12,126.985965155301,37.5626356660969,http://place.map.kakao.com/1529524241,,unknown,unknown,,4,3.8
1047323943,에어호스텔 명동,여행 > 숙박 > 게스트하우스,AD5,숙박,,서울 중구 명동2가 4-2,서울 중구 명동10길 35-20,126.985811167337,37.5629383825205,http://place.map.kakao.com/1047323943,,unknown,unknown,,1,5.0
833647384,스테이7 명동,여행 > 숙박 > 호텔,AD5,숙박,070-4150-3650,서울 중구 명동2가 25-26,서울 중구 명동10길 35-9,126.98581692188,37.5624356271478,http://place.map.kakao.com/833647384,,y,n,#조식서비스 ,3,3.7
1405645867,오요호스텔명동,여행 > 숙박 > 게스트하우스,AD5,숙박,,서울 중구 명동2가 32-2,서울 중구 명동8길 21-7,126.98517280999326,37.56291668016189,http://place.map.kakao.com/1405645867,,unknown,unknown,,0,0
1037678785,K그랜드호스텔 명동점,여행 > 숙박 > 게스트하우스,AD5,숙박,070-8838-3650,서울 중구 명동2가 32-2,서울 중구 명동8길 21-7,126.985172809993,37.5629166801619,http://place.map.kakao.com/1037678785,,unknown,unknown,#패밀리룸 ,0,0
1902591208,필스테이 명동메트로점,여행 > 숙박 > 게스트하우스,AD5,숙박,,서울 중구 명동2가 3-3,서울 중구 명동10길 19-3,126.985611824153,37.5630681018888,http://place.map.kakao.com/1902591208,,unknown,unknown,,1,5.0
26437686,스타즈호텔 명동2호점,여행 > 숙박 > 호텔,AD5,숙박,02-2260-8000,서울 중구 충무로3가 58-8,서울 중구 수표로 16,126.990641938041,37.5625532377345,http://place.map.kakao.com/26437686,,unknown,unknown,#2인실 #패밀리룸 #호캉스 ,2,3.5
24892287,블루보트호스텔 명동점,여행 > 숙박 > 게스트하우스,AD5,숙박,010-5500-9049,서울 중구 충무로3가 24-13,서울 중구 수표로 22-4,126.990619232985,37.5630974378268,http://place.map.kakao.com/24892287,,unknown,unknown,,0,0
14561162,발리사랑,여행 > 숙박 > 호텔,AD5,숙박,,서울 중구 태평로2가 340-6,서울 중구 서소문로 138,126.976298882304,37.5637081090864,http://place.map.kakao.com/14561162,,unknown,unknown,,0,0
12727949,알프스모텔,"여행 > 숙박 > 여관,모텔",AD5,숙박,02-778-1669,서울 중구 태평로2가 58-5,서울 중구 세종대로16길 3,126.977240642258,37.5635316990976,http://place.map.kakao.com/12727949,,unknown,unknown,,1,1.0
1680077232,르서울호텔,여행 > 숙박 > 호텔,AD5,숙박,,서울 중구 북창동 13-2,서울 중구 남대문로1길 56,126.977747742057,37.5634362901449,http://place.map.kakao.com/1680077232,,unknown,unknown,,0,0
1300555248,크라운파크호텔서울,여행 > 숙박 > 호텔,AD5,숙박,02-750-5900,서울 중구 소공동 70,서울 중구 남대문로7길 19,126.980776499589,37.5637665868218,http://place.map.kakao.com/1300555248,,unknown,unknown,#2인실 #어메니티제공 #조식서비스 #호캉스 ,8,4.1
977716552,소테츠프레사 인서울명동,여행 > 숙박 > 호텔,AD5,숙박,02-6377-0203,서울 중구 명동2가 33-1,서울 중구 명동길 48,126.985014198436,37.5636807051139,http://place.map.kakao.com/977716552,,unknown,unknown,,0,0
19554747,케이팝레지던스,"여행 > 숙박 > 여관,모텔",AD5,숙박,,서울 중구 명동2가 2-7,서울 중구 명동10길 7-7,126.98562769771624,37.56351319606255,http://place.map.kakao.com/19554747,,unknown,unknown,,0,0
1948496391,필스데이 명동호텔,여행 > 숙박 > 호텔,AD5,숙박,,서울 중구 명동1가 7-2,서울 중구 명동길 55,126.985387621855,37.5641402600568,http://place.map.kakao.com/1948496391,,unknown,unknown,,1,5.0
26103441,이코노미호텔 명동센트럴점,여행 > 숙박 > 호텔,AD5,숙박,,서울 중구 명동1가 7-1,서울 중구 명동길 55,126.985412520427,37.5641528770841,http://place.map.kakao.com/26103441,,unknown,unknown,,0,0
152895416,이화호텔,여행 > 숙박 > 호텔,AD5,숙박,,서울 중구 저동1가 28-3,서울 중구 삼일대로9길 2-1,126.987789504493,37.5637422925173,http://place.map.kakao.com/152895416,,unknown,unknown,,1,5.0
463461417,이화인명동 게스트하우스,여행 > 숙박 > 게스트하우스,AD5,숙박,02-774-0700,서울 중구 저동1가 28-3,서울 중구 삼일대로9길 2-1,126.987766864955,37.5637567061156,http://place.map.kakao.com/463461417,,unknown,unknown,#제로페이 ,2,5.0
1420845534,G2호텔,여행 > 숙박 > 호텔,AD5,숙박,02-2277-9700,서울 중구 저동2가 48-27,서울 중구 수표로 24,126.990419995206,37.563349700835,http://place.map.kakao.com/1420845534,,unknown,unknown,,6,4.7
15214837,바비엥스위트,여행 > 숙박 > 호텔,AD5,숙박,02-2076-9000,서울 중구 의주로1가 32-2,서울 중구 통일로 102,126.968488793719,37.5643369803049,http://place.map.kakao.com/15214837,,unknown,unknown,#레지던스호텔 #조식서비스 #파티룸 ,2,5.0
27336166,24게스트하우스 서울시청점,여행 > 숙박 > 게스트하우스,AD5,숙박,070-7779-3327,서울 중구 태평로2가 366-1,서울 중구 덕수궁길 7,126.976348366187,37.5647136308635,http://place.map.kakao.com/27336166,,unknown,y,,3,4.3
7943752,더플라자,여행 > 숙박 > 호텔,AD5,숙박,02-771-2200,서울 중구 태평로2가 23,서울 중구 소공로 119,126.97811069981492,37.56469234685201,http://place.map.kakao.com/7943752,,unknown,unknown,#부티크호텔 #비즈니스호텔 #사우나 #실외수영장 #어메니티제공 #조식서비스 #호캉스 #카카오페이 ,37,3.9
12945150,호텔버디,여행 > 숙박 > 호텔,AD5,숙박,,서울 중구 소공동 110,서울 중구 소공로 109,126.978548876378,37.5641986813324,http://place.map.kakao.com/12945150,,unknown,unknown,,0,0
26788920,더플라자 별관,여행 > 숙박 > 호텔,AD5,숙박,,서울 중구 소공동 110,서울 중구 소공로 109,126.978671120976,37.5641878915245,http://place.map.kakao.com/26788920,,unknown,unknown,,0,0
10686757,웨스틴조선 서울지점,여행 > 숙박 > 호텔 > 특급호텔 > 조선호텔,AD5,숙박,02-771-0500,서울 중구 소공동 87-1,서울 중구 소공로 106,126.980056449689,37.5644692445028,http://place.map.kakao.com/10686757,,unknown,unknown,#부티크호텔 #비즈니스호텔 #사우나 #실외수영장 #어메니티제공 #조식서비스 #호캉스 #카카오페이 ,69,3.8
1877073295,스탠포드호텔 명동,여행 > 숙박 > 호텔,AD5,숙박,02-6260-2000,서울 중구 남대문로2가 9,서울 중구 남대문로 84,126.982697060931,37.5646489592852,http://place.map.kakao.com/1877073295,,unknown,n,#2인실 #비즈니스호텔 #어메니티제공 #연회장 #조식서비스 #패밀리룸 #호캉스 ,1,5.0
17361103,이비스앰배서더 서울명동,여행 > 숙박 > 호텔 > 특급호텔 > 앰배서더호텔,AD5,숙박,02-6361-8888,서울 중구 명동1가 59-5,서울 중구 남대문로 78,126.983062760059,37.5641886032246,http://place.map.kakao.com/17361103,,unknown,unknown,#2인실 #사우나 #어메니티제공 #조식서비스 #호캉스 ,11,3.5
1502358106,칼리스타호텔,"여행 > 숙박 > 여관,모텔",AD5,숙박,02-778-9888,서울 중구 을지로2가 199-40,서울 중구 명동7길 21,126.983842506987,37.5646914684248,http://place.map.kakao.com/1502358106,,unknown,unknown,,3,3.0
1455421251,호텔28 명동,여행 > 숙박 > 호텔,AD5,숙박,02-774-2828,서울 중구 명동1가 59-1,서울 중구 명동7길 13,126.9842013656465,37.56443203007341,http://place.map.kakao.com/1455421251,,unknown,unknown,,0,0
25620335,호텔스카이파크 명동2호점,여행 > 숙박 > 호텔,AD5,숙박,02-755-0091,서울 중구 을지로2가 195-8,서울 중구 명동9길 22,126.98506827946,37.5649240868361,http://place.map.kakao.com/25620335,,unknown,unknown,,2,5.0
2075680619,필스테이 명동센트럴호텔,여행 > 숙박 > 호텔,AD5,숙박,,서울 중구 명동1가 38-1,서울 중구 명동9길 21,126.984529538849,37.5647654421396,http://place.map.kakao.com/2075680619,,unknown,unknown,,3,4.7
24633671,로얄호텔서울,여행 > 숙박 > 호텔 > 특급호텔,AD5,숙박,02-756-1112,서울 중구 명동1가 6-3,서울 중구 명동길 61,126.98560265367244,37.56425741599385,http://place.map.kakao.com/24633671,,unknown,unknown,,12,3.9
26338181,스텝인명동1,여행 > 숙박 > 게스트하우스,AD5,숙박,010-2684-1888,서울 중구 명동1가 7-1,서울 중구 명동길 55,126.985349125387,37.5642069290123,http://place.map.kakao.com/26338181,,unknown,unknown,#1인실 #2인실 #조식서비스 #제로페이 ,9,4.6
1312422513,필스테이게스트하우스 명동점,여행 > 숙박 > 게스트하우스,AD5,숙박,02-319-8899,서울 중구 명동1가 7-1,서울 중구 명동길 55,126.98536837010528,37.56419161446185,http://place.map.kakao.com/1312422513,,unknown,unknown,#조식서비스 ,7,3.9
2029809639,나인트리프리미어호텔 명동2,여행 > 숙박 > 호텔,AD5,숙박,02-6967-0999,서울 중구 초동 72-10,서울 중구 마른내로 28,126.990831861214,37.5643984932914,http://place.map.kakao.com/2029809639,,unknown,unknown,#2인실 #어메니티제공 #조식서비스 #호캉스 ,55,4.1
26431813,신라스테이 서대문,여행 > 숙박 > 호텔 > 신라스테이,AD5,숙박,02-6388-9000,서울 서대문구 미근동 333,서울 서대문구 충정로 76,126.966804196914,37.5651870590594,http://place.map.kakao.com/26431813,,unknown,unknown,#2인실 #비즈니스룸 #비즈니스호텔 #어메니티제공 #온돌룸 #조식서비스 #호캉스 ,46,3.0
27507399,호텔아트리움바비엥2,여행 > 숙박 > 호텔,AD5,숙박,02-6399-0006,서울 중구 의주로1가 25-10,서울 중구 통일로 114,126.96788852899044,37.56520988386736,http://place.map.kakao.com/27507399,,unknown,unknown,#조식서비스 #패밀리룸 #호캉스 ,4,3.3
8641502,프레지던트호텔,여행 > 숙박 > 호텔,AD5,숙박,02-753-3131,서울 중구 을지로1가 188-3,서울 중구 을지로 16,126.979386068845,37.5656079885064,http://place.map.kakao.com/8641502,,unknown,unknown,#2인실 #어메니티제공 #조식서비스 #호캉스 ,17,3.6
7855876,롯데호텔 서울,여행 > 숙박 > 호텔 > 특급호텔 > 롯데호텔,AD5,숙박,02-771-1000,서울 중구 소공동 1,서울 중구 을지로 30,126.98101264795298,37.56538301228365,http://place.map.kakao.com/7855876,,unknown,unknown,#럭셔리호텔 #사우나 #어메니티제공 #조식서비스 #호캉스 #제로페이 ,60,4.0
1550004210,롯데호텔서울 이그제큐티브타워,여행 > 숙박 > 호텔 > 특급호텔 > 롯데호텔,AD5,숙박,02-771-1000,서울 중구 을지로1가 180-6,서울 중구 을지로 30,126.980992840284,37.5653818378015,http://place.map.kakao.com/1550004210,,unknown,unknown,#2인실 #사우나 #실외수영장 #어메니티제공 #조식서비스 #파우더룸 #호캉스 ,6,5.0
8350578,메트로호텔,여행 > 숙박 > 호텔,AD5,숙박,02-752-1112,서울 중구 을지로2가 199-33,서울 중구 명동9가길 14,126.98371450604982,37.56514735490825,http://place.map.kakao.com/8350578,,unknown,unknown,#조식서비스 ,1,5.0
182126048,라인호텔명동,여행 > 숙박 > 호텔,AD5,숙박,02-3789-8111,서울 중구 을지로2가 199-13,서울 중구 명동3길 36,126.98373710193508,37.5653392702002,http://place.map.kakao.com/182126048,,unknown,unknown,,4,4.0
579976895,포포인츠 바이 쉐라톤 조선 서울명동,여행 > 숙박 > 호텔 > 특급호텔,AD5,숙박,02-6466-6000,서울 중구 저동2가 89,서울 중구 삼일대로10길 36,126.98932405192402,37.56551830483404,http://place.map.kakao.com/579976895,,unknown,unknown,#2인실 #어메니티제공 #조식서비스 #호캉스 #카카오페이 ,57,4.5
1324617595,미오디자인 레지던스호텔,여행 > 숙박 > 호텔,AD5,숙박,02-2266-1553,서울 중구 을지로3가 335-2,서울 중구 충무로5길 22,126.99161952170878,37.56547253928949,http://place.map.kakao.com/1324617595,,unknown,unknown,#야외테라스 ,16,1.6
21360777,시어소호텔,"여행 > 숙박 > 여관,모텔",AD5,숙박,,서울 중구 을지로3가 320,서울 중구 을지로12길 11,126.991243713034,37.5656671271713,http://place.map.kakao.com/21360777,,unknown,unknown,,0,0
408079183,요기는무인호텔,"여행 > 숙박 > 여관,모텔",AD5,숙박,02-3789-4512,서울 중구 다동 114,서울 중구 남대문로9길 8,126.982034396731,37.5668085478651,http://place.map.kakao.com/408079183,,unknown,unknown,#1인실 #무인모텔 #무인호텔 #호캉스 ,2,3.0
26600515,트레블로지 명동을지로점,여행 > 숙박 > 호텔,AD5,숙박,02-6240-5000,서울 중구 을지로2가 101-1,서울 중구 수표로 61,126.989369170511,37.5666220290251,http://place.map.kakao.com/26600515,,unknown,unknown,#2인실 #비즈니스호텔 #어메니티제공 #조식서비스 #호캉스 ,7,1.4
1225725140,써니게스트하우스 서울시티,여행 > 숙박 > 게스트하우스,AD5,숙박,070-8802-3650,서울 중구 을지로3가 5-14,서울 중구 충무로9길 41,126.990116216236,37.5666977775876,http://place.map.kakao.com/1225725140,,unknown,unknown,,0,0
16041720,테마모텔,"여행 > 숙박 > 여관,모텔",AD5,숙박,02-363-3259,서울 서대문구 냉천동 164,서울 서대문구 통일로 143-1,126.964919905766,37.5669812981921,http://place.map.kakao.com/16041720,,unknown,unknown,,2,1.0
16443406,그린파크모텔,"여행 > 숙박 > 여관,모텔",AD5,숙박,02-363-3092,서울 서대문구 냉천동 15,서울 서대문구 통일로9길 6-8,126.96449859829674,37.56748212591745,http://place.map.kakao.com/16443406,,unknown,unknown,,0,0
9001389,모텔B,"여행 > 숙박 > 여관,모텔",AD5,숙박,02-734-7725,서울 중구 정동 25-4,서울 중구 새문안로 28-1,126.968976363197,37.5677068344461,http://place.map.kakao.com/9001389,,unknown,unknown,,0,0
241952011,제이파크아일랜드,"여행 > 숙박 > 콘도,리조트",AD5,숙박,02-6925-2901,서울 중구 정동 17-4,서울 중구 정동길 17,126.970642761383,37.5671630591305,http://place.map.kakao.com/241952011,,unknown,unknown,,0,0
14559698,스카이114,여행 > 숙박 > 호텔,AD5,숙박,,서울 중구 무교동 24-2,서울 중구 무교로 13,126.97901890476,37.5671504289061,http://place.map.kakao.com/14559698,,unknown,unknown,,0,0
750620291,호텔 미드시티 명동,여행 > 숙박 > 호텔,AD5,숙박,02-3788-5888,서울 중구 다동 131,서울 중구 다동길 30,126.98101547127872,37.567638205575264,http://place.map.kakao.com/750620291,,unknown,unknown,#2인실 #비즈니스룸 #비즈니스호텔 #어메니티제공 #호캉스 ,17,4.9
26784273,롯데시티호텔 명동,여행 > 숙박 > 호텔 > 특급호텔,AD5,숙박,02-6112-1000,서울 중구 장교동 74,서울 중구 삼일대로 362,126.988033472394,37.5669534676886,http://place.map.kakao.com/26784273,,unknown,unknown,,40,3.9
1073119819,레몬게스트하우스,여행 > 숙박 > 게스트하우스,AD5,숙박,,서울 중구 수표동 35-16,서울 중구 수표로 68,126.98977883726532,37.56722212846313,http://place.map.kakao.com/1073119819,,n,n,,0,0
1081710585,솔게스트하우스 서울명동점,여행 > 숙박 > 게스트하우스,AD5,숙박,02-1811-9660,서울 중구 을지로3가 95-13,서울 중구 을지로11길 14,126.990944729216,37.5670330145151,http://place.map.kakao.com/1081710585,,unknown,unknown,,1,5.0
9001389,모텔B,"여행 > 숙박 > 여관,모텔",AD5,숙박,02-734-7725,서울 중구 정동 25-4,서울 중구 새문안로 28-1,126.968976363197,37.5677068344461,http://place.map.kakao.com/9001389,,unknown,unknown,,0,0
23121414,코리아나호텔,여행 > 숙박 > 호텔,AD5,숙박,02-2171-7000,서울 중구 태평로1가 61-7,서울 중구 세종대로 135,126.97666876369108,37.56809513241336,http://place.map.kakao.com/23121414,,unknown,unknown,#2인실 #어메니티제공 #조식서비스 #파티룸 #호캉스 #제로페이 ,68,2.5
8194086,뉴국제호텔,여행 > 숙박 > 호텔,AD5,숙박,02-732-0161,서울 중구 태평로1가 25-3,서울 중구 세종대로22길 12,126.97795921348836,37.56790707228143,http://place.map.kakao.com/8194086,,unknown,unknown,#2인실 #사우나 #세미나실 #어메니티제공 #조식서비스 #호캉스 #제로페이 ,4,5.0
276569511,호텔프렌즈,"여행 > 숙박 > 여관,모텔",AD5,숙박,,서울 종로구 관철동 37,서울 종로구 청계천로 97-6,126.988425998144,37.5685446653318,http://place.map.kakao.com/276569511,,unknown,unknown,,0,0
25540202,서울게스트하우스,여행 > 숙박 > 게스트하우스,AD5,숙박,,서울 종로구 관수동 161-6,서울 종로구 종로16길 31-8,126.98909949461871,37.568564551341765,http://place.map.kakao.com/25540202,,unknown,unknown,,0,0
25042788,그린텔,"여행 > 숙박 > 여관,모텔",AD5,숙박,,서울 종로구 관철동 37-1,서울 종로구 청계천로 97-6,126.988427129797,37.568546467434,http://place.map.kakao.com/25042788,,unknown,unknown,,0,0
27600427,호스텔하루,여행 > 숙박 > 게스트하우스,AD5,숙박,02-732-1101,서울 종로구 관철동 43-8,서울 종로구 청계천로 61,126.984333962059,37.5690361368415,http://place.map.kakao.com/27600427,,unknown,unknown,#조식서비스 #패밀리룸 #제로페이 ,4,4.0
727821236,엠지호텔,여행 > 숙박 > 호텔,AD5,숙박,02-732-6687,서울 종로구 관철동 177,서울 종로구 청계천로 63-3,126.984800340018,37.5689424942689,http://place.map.kakao.com/727821236,,unknown,unknown,#2인실 ,11,4.0
1713702358,핑크빌,"여행 > 숙박 > 여관,모텔",AD5,숙박,,서울 종로구 관철동 175,서울 종로구 삼일대로17길 47-1,126.984947468167,37.5690605435385,http://place.map.kakao.com/1713702358,,unknown,unknown,,1,1.0
1741941456,MJ스테이,여행 > 숙박 > 게스트하우스,AD5,숙박,,서울 종로구 관철동 19-23,서울 종로구 우정국로2길 34,126.984945124315,37.5694578822658,http://place.map.kakao.com/1741941456,,unknown,unknown,,0,0
1278536434,종로엠제이스테이 1호점,여행 > 숙박 > 게스트하우스,AD5,숙박,,서울 종로구 관철동 180,서울 종로구 삼일대로17길 51,126.98463278288,37.5690902358495,http://place.map.kakao.com/1278536434,,unknown,unknown,,0,0
1798227222,UH스위트에비뉴,여행 > 숙박 > 호텔,AD5,숙박,02-720-3897,서울 종로구 관철동 12-15,서울 종로구 종로12길 21,126.98599790481396,37.569077791712914,http://place.map.kakao.com/1798227222,,unknown,unknown,#호캉스 #제로페이 ,2,5.0
4618427,유에이치스위트 더 에비뉴,여행 > 숙박 > 호텔,AD5,숙박,0507-1379-5957,서울 종로구 관철동 12-15,서울 종로구 종로12길 21,126.986000167682,37.5690831979546,http://place.map.kakao.com/4618427,,unknown,unknown,,0,0
14559735,Gtn 서울지점,여행 > 숙박 > 호텔,AD5,숙박,,서울 종로구 관철동 32-7,서울 종로구 청계천로 71,126.985484063964,37.5687695891642,http://place.map.kakao.com/14559735,,unknown,unknown,,0,0
596185099,헤리티지31호텔,"여행 > 숙박 > 여관,모텔",AD5,숙박,,서울 종로구 관철동 13-11,서울 종로구 삼일대로17길 20-3,126.98632158455328,37.56937876216593,http://place.map.kakao.com/596185099,,unknown,unknown,#호캉스 ,2,5.0
25667304,24게스트하우스 인사동점,여행 > 숙박 > 게스트하우스,AD5,숙박,02-734-0024,서울 종로구 관철동 7-5,서울 종로구 삼일대로17길 8,126.987209046154,37.5692779501559,http://place.map.kakao.com/25667304,,unknown,unknown,,0,0
27494882,부티크호텔K 종로점,"여행 > 숙박 > 여관,모텔",AD5,숙박,02-2268-2959,서울 종로구 관철동 21,서울 종로구 삼일대로 388-7,126.988259487937,37.569285267257,http://place.map.kakao.com/27494882,,unknown,unknown,#부티크호텔 #제로페이 ,7,4.1
7962826,스카이호텔,"여행 > 숙박 > 여관,모텔",AD5,숙박,02-2275-7127,서울 종로구 관철동 28-1,서울 종로구 삼일대로 388-5,126.98813724810566,37.56922218535036,http://place.map.kakao.com/7962826,,unknown,unknown,,6,4.5
22249076,호텔더디자이너스 종로점,여행 > 숙박 > 호텔,AD5,숙박,02-2267-7474,서울 종로구 관수동 14-1,서울 종로구 수표로 89-8,126.98906089205312,37.569363730844536,http://place.map.kakao.com/22249076,,unknown,unknown,#부티크호텔 #비즈니스호텔 #어메니티제공 #파티룸 #호캉스 ,12,2.0
8164491,몽호텔,"여행 > 숙박 > 여관,모텔",AD5,숙박,02-2267-4190,서울 종로구 관철동 34-1,서울 종로구 종로16길 28,126.98848141257152,37.56887083116287,http://place.map.kakao.com/8164491,,unknown,unknown,#부티크호텔 #어메니티제공 #조식서비스 #패밀리룸 #호캉스 ,17,3.1
24962469,호스텔클로이,여행 > 숙박 > 유스호스텔,AD5,숙박,,서울 종로구 관철동 35-1,서울 종로구 종로16길 32-4,126.98860255436624,37.56870956470789,http://place.map.kakao.com/24962469,,unknown,unknown,,0,0
14562582,산호모텔,"여행 > 숙박 > 여관,모텔",AD5,숙박,,서울 종로구 관수동 14-1,서울 종로구 수표로 89-8,126.989060892976,37.569357423876,http://place.map.kakao.com/14562582,,unknown,unknown,,0,0
541084582,다나호텔,"여행 > 숙박 > 여관,모텔",AD5,숙박,02-2278-9993,서울 종로구 관수동 143-5,서울 종로구 수표로18길 10,126.99006834898108,37.56916289789328,http://place.map.kakao.com/541084582,,unknown,unknown,,10,4.2
885498048,IMT모텔,"여행 > 숙박 > 여관,모텔",AD5,숙박,02-2266-9700,서울 종로구 관수동 140,서울 종로구 수표로18가길 8,126.99030041138688,37.569051193739085,http://place.map.kakao.com/885498048,,unknown,unknown,,3,4.7
23882592,보보스호텔,여행 > 숙박 > 호텔,AD5,숙박,,서울 종로구 관수동 137,서울 종로구 수표로18길 10,126.990102302444,37.5691989405664,http://place.map.kakao.com/23882592,,unknown,unknown,,1,1.0
27367234,호텔베뉴지,여행 > 숙박 > 호텔,AD5,숙박,02-2223-6500,서울 종로구 관수동 124,서울 종로구 청계천로 117,126.990745317962,37.568611543604,http://place.map.kakao.com/27367234,,unknown,unknown,#비즈니스호텔 #어메니티제공 #조식서비스 #호캉스 ,7,1.9
26102099,나포레호텔,여행 > 숙박 > 호텔,AD5,숙박,02-2277-6511,서울 종로구 관수동 113-1,서울 종로구 수표로18가길 17,126.990745275155,37.5689575259117,http://place.map.kakao.com/26102099,,unknown,unknown,#비즈니스호텔 #조식서비스 ,6,4.0
23279473,호텔리안,여행 > 숙박 > 호텔,AD5,숙박,,서울 종로구 관수동 107,서울 종로구 수표로18길 26,126.991021442492,37.5691701821898,http://place.map.kakao.com/23279473,,unknown,unknown,,2,3.5
1579817158,케이월드호텔 종로,여행 > 숙박 > 호텔,AD5,숙박,02-2279-9370,서울 종로구 관수동 104-2,서울 종로구 수표로18길 28,126.991265936316,37.569217052299,http://place.map.kakao.com/1579817158,,unknown,unknown,#어메니티제공 #카카오페이 #제로페이 ,4,4.0
965870211,UH 스위트 코너스톤,여행 > 숙박 > 호텔,AD5,숙박,0507-1391-0136,서울 종로구 관철동 18-11,서울 종로구 우정국로2길 29,126.984628137356,37.5696632683864,http://place.map.kakao.com/965870211,,unknown,y,,0,0
8600835,한평여관,"여행 > 숙박 > 여관,모텔",AD5,숙박,02-734-6949,서울 종로구 관철동 18-6,서울 종로구 종로12길 6-11,126.985017517572,37.5697137741899,http://place.map.kakao.com/8600835,,unknown,unknown,,0,0
1145222865,어배러플레이스,여행 > 숙박 > 게스트하우스,AD5,숙박,,서울 종로구 관철동 14-6,서울 종로구 삼일대로19길 22,126.986348700898,37.5696544699233,http://place.map.kakao.com/1145222865,,unknown,unknown,,0,0
1639028260,더포스트호텔,"여행 > 숙박 > 여관,모텔",AD5,숙박,0507-1358-1511,서울 종로구 관수동 24,서울 종로구 수표로18길 15-1,126.9905890001531,37.56949450689597,http://place.map.kakao.com/1639028260,,unknown,unknown,#부티크호텔 #호캉스 #제로페이 ,5,3.0
729014702,그리드인,여행 > 숙박 > 호텔,AD5,숙박,,서울 종로구 관수동 54-2,서울 종로구 종로18길 9-6,126.991338327593,37.5696747633469,http://place.map.kakao.com/729014702,,unknown,unknown,,10,4.7
10928594,풀리미니호텔,여행 > 숙박 > 호텔,AD5,숙박,02-2261-2558,서울 종로구 관수동 57,서울 종로구 종로18길 5,126.99131565838464,37.56993514936538,http://place.map.kakao.com/10928594,,unknown,unknown,#제로페이 ,0,0
12969058,백패커 미스터씨,여행 > 숙박 > 게스트하우스,AD5,숙박,02-745-3930,서울 종로구 관수동 56,서울 종로구 종로18길 7,126.991302085534,37.5698441478274,http://place.map.kakao.com/12969058,,unknown,unknown,,0,0
23883288,성도여관,"여행 > 숙박 > 여관,모텔",AD5,숙박,,서울 종로구 관수동 39-1,서울 종로구 수표로20길 20,126.99060026752908,37.56990896570583,http://place.map.kakao.com/23883288,,unknown,unknown,,0,0
326563792,포시즌호텔 서울 이그제큐티브 클럽라운지,여행 > 숙박 > 호텔,AD5,숙박,02-6388-5000,서울 종로구 당주동 30,서울 종로구 새문안로 97,126.975259796015,37.5706743956516,http://place.map.kakao.com/326563792,,unknown,unknown,,0,0
8772105,광화모텔,"여행 > 숙박 > 여관,모텔",AD5,숙박,,서울 종로구 당주동 170-1,서울 종로구 새문안로5길 5-3,126.974530757301,37.5708328157903,http://place.map.kakao.com/8772105,,unknown,unknown,,1,1.0
15711015,덕수모텔,"여행 > 숙박 > 여관,모텔",AD5,숙박,,서울 종로구 당주동 167-3,서울 종로구 새문안로5길 11-9,126.974367655353,37.5711210989689,http://place.map.kakao.com/15711015,,unknown,unknown,,0,0
22959013,포시즌스호텔 서울,여행 > 숙박 > 호텔,AD5,숙박,02-6388-5000,서울 종로구 당주동 30,서울 종로구 새문안로 97,126.975404685018,37.5706816338885,http://place.map.kakao.com/22959013,,unknown,unknown,,65,4.0
984543152,빙고호스텔,여행 > 숙박 > 게스트하우스,AD5,숙박,,서울 종로구 인사동 258,서울 종로구 종로 63-13,126.98462336432,37.5708561856356,http://place.map.kakao.com/984543152,,unknown,unknown,,3,5.0
20060058,남산게스트하우스 인사동점,여행 > 숙박 > 게스트하우스,AD5,숙박,,서울 종로구 인사동 258,서울 종로구 종로 63-13,126.984627889224,37.5708706021493,http://place.map.kakao.com/20060058,,unknown,unknown,,0,0
7946095,서울YMCA관광호텔,여행 > 숙박 > 호텔,AD5,숙박,02-734-6884,서울 종로구 종로2가 9,서울 종로구 종로 69,126.985307144401,37.5704886666311,http://place.map.kakao.com/7946095,,unknown,unknown,#관광호텔 ,0,0
2124928965,인서울게스트하우스,여행 > 숙박 > 게스트하우스,AD5,숙박,02-730-7776,서울 종로구 인사동 75-1,서울 종로구 삼일대로 405,126.987403487825,37.5707772274231,http://place.map.kakao.com/2124928965,,unknown,unknown,#패밀리룸 ,0,0
8683039,누누호텔,"여행 > 숙박 > 여관,모텔",AD5,숙박,02-766-2121,서울 종로구 낙원동 180,서울 종로구 수표로22길 6,126.98965720457603,37.570969358376544,http://place.map.kakao.com/8683039,,unknown,unknown,,13,1.7
12701856,호텔팝리즈프리미어,"여행 > 숙박 > 여관,모텔",AD5,숙박,02-764-1004,서울 종로구 낙원동 186,서울 종로구 수표로22길 16,126.990165440973,37.5711018481116,http://place.map.kakao.com/12701856,,unknown,unknown,#야외테라스 #온천호텔 #조식서비스 #호캉스 ,7,1.7
1073329836,호텔팝3,"여행 > 숙박 > 여관,모텔",AD5,숙박,02-744-7744,서울 종로구 낙원동 184,서울 종로구 수표로22길 10,126.98990622291126,37.57107840035654,http://place.map.kakao.com/1073329836,,unknown,unknown,,0,0
467832356,호텔에비뉴162,"여행 > 숙박 > 여관,모텔",AD5,숙박,02-765-3187,서울 종로구 낙원동 162,서울 종로구 수표로22길 9,126.98983036107144,37.57122435507468,http://place.map.kakao.com/467832356,,unknown,unknown,,5,1.8
25815268,호텔팝2,"여행 > 숙박 > 여관,모텔",AD5,숙박,02-744-7070,서울 종로구 낙원동 185-1,서울 종로구 수표로22길 14,126.99008960086574,37.57108742584547,http://place.map.kakao.com/25815268,,unknown,unknown,,1,1.0
16377508,테크노모텔,"여행 > 숙박 > 여관,모텔",AD5,숙박,02-765-1341,서울 종로구 낙원동 190,서울 종로구 돈화문로5길 28-3,126.99033752422,37.5709180592883,http://place.map.kakao.com/16377508,,unknown,unknown,,0,0
17485027,아이모텔,"여행 > 숙박 > 여관,모텔",AD5,숙박,,서울 종로구 낙원동 162,서울 종로구 수표로22길 9,126.989834887491,37.5712351674072,http://place.map.kakao.com/17485027,,unknown,unknown,,0,0
9772213,미정여관,"여행 > 숙박 > 여관,모텔",AD5,숙박,02-765-3927,서울 종로구 낙원동 195-4,서울 종로구 돈화문로5길 36,126.990020598771,37.5707270219222,http://place.map.kakao.com/9772213,,unknown,unknown,,0,0
16414445,테마파크,"여행 > 숙박 > 여관,모텔",AD5,숙박,,서울 종로구 낙원동 162,서울 종로구 수표로22길 9,126.989830361071,37.5712243550747,http://place.map.kakao.com/16414445,,unknown,unknown,,0,0
23886512,유화장모텔,"여행 > 숙박 > 여관,모텔",AD5,숙박,,서울 종로구 낙원동 181,서울 종로구 수표로22길 8,126.989848505891,37.5709792859293,http://place.map.kakao.com/23886512,,unknown,unknown,,0,0
20536948,T모텔,"여행 > 숙박 > 여관,모텔",AD5,숙박,02-743-4845,서울 종로구 돈의동 163,서울 종로구 수표로22길 20-3,126.99067256967082,37.57105413652017,http://place.map.kakao.com/20536948,,unknown,unknown,,4,1.3
8118365,파라다이스모텔,"여행 > 숙박 > 여관,모텔",AD5,숙박,,서울 종로구 인사동 226,서울 종로구 종로11길 17-16,126.985270766923,37.571274329979,http://place.map.kakao.com/8118365,,unknown,unknown,,0,0
19657350,호텔컬리넌 종로,여행 > 숙박 > 호텔,AD5,숙박,02-744-8441,서울 종로구 낙원동 142,서울 종로구 수표로26길 6,126.98939557846,37.5719667368413,http://place.map.kakao.com/19657350,,unknown,unknown,#부티크호텔 #파티룸 #제로페이 ,4,2.0
290994616,브라운도트호텔 종로점,"여행 > 숙박 > 여관,모텔",AD5,숙박,02-765-1700,서울 종로구 낙원동 169-1,서울 종로구 수표로22길 5,126.989631123961,37.5712964173615,http://place.map.kakao.com/290994616,,y,n,#야외테라스 #호캉스 ,4,4.3
1562701298,아마레호텔,"여행 > 숙박 > 여관,모텔",AD5,숙박,0507-1383-0566,서울 종로구 낙원동 165,서울 종로구 수표로22길 7,126.98977033782847,37.57143428177319,http://place.map.kakao.com/1562701298,,unknown,unknown,,8,3.5
785327967,호텔더메이,"여행 > 숙박 > 여관,모텔",AD5,숙박,02-766-8690,서울 종로구 돈의동 76-2,서울 종로구 수표로26길 10,126.989576693308,37.5719847728735,http://place.map.kakao.com/785327967,,unknown,unknown,#2인실 ,4,3.0
18780023,호텔스타,"여행 > 숙박 > 여관,모텔",AD5,숙박,02-743-2266,서울 종로구 낙원동 153-2,서울 종로구 돈화문로9길 29,126.990074825949,37.5715343182307,http://place.map.kakao.com/18780023,,unknown,unknown,,4,2.5
25504168,헬로인호텔,"여행 > 숙박 > 여관,모텔",AD5,숙박,,서울 종로구 낙원동 149,서울 종로구 돈화문로9길 38,126.989617469739,37.5718045774417,http://place.map.kakao.com/25504168,,unknown,unknown,,2,3.0
164633495,호텔라붐,"여행 > 숙박 > 여관,모텔",AD5,숙박,,서울 종로구 낙원동 166,서울 종로구 돈화문로9길 37,126.98959713731564,37.571493732320654,http://place.map.kakao.com/164633495,,unknown,unknown,,2,1.0
17736494,피카소모텔,"여행 > 숙박 > 여관,모텔",AD5,숙박,02-741-6389,서울 종로구 낙원동 161,서울 종로구 수표로22길 11,126.989979774167,37.5712784275644,http://place.map.kakao.com/17736494,,unknown,unknown,,1,1.0
9657416,국일장여관,"여행 > 숙박 > 여관,모텔",AD5,숙박,02-762-0429,서울 종로구 돈의동 75-1,서울 종로구 수표로26길 18,126.990038529725,37.572082120218,http://place.map.kakao.com/9657416,,unknown,unknown,,0,0
20744390,모텔 피아노,"여행 > 숙박 > 여관,모텔",AD5,숙박,02-745-4585,서울 종로구 낙원동 153-2,서울 종로구 돈화문로9길 29,126.990070295649,37.5715523377534,http://place.map.kakao.com/20744390,,unknown,unknown,,0,0
10584530,알리앙스모텔,"여행 > 숙박 > 여관,모텔",AD5,숙박,02-742-2211,서울 종로구 낙원동 160-1,서울 종로구 수표로22길 15,126.99017899859,37.5713000681912,http://place.map.kakao.com/10584530,,unknown,unknown,,2,2.5
10087433,꾸띠호텔,"여행 > 숙박 > 여관,모텔",AD5,숙박,02-742-8241(팩스),서울 종로구 돈의동 76-2,서울 종로구 수표로26길 10,126.989572168388,37.5719631485912,http://place.map.kakao.com/10087433,,unknown,unknown,,0,0
582635184,엠앤럭키호텔,"여행 > 숙박 > 여관,모텔",AD5,숙박,0503-5058-8096,서울 종로구 돈의동 155,서울 종로구 수표로22길 38,126.990898928415,37.5713433736571,http://place.map.kakao.com/582635184,,unknown,unknown,,4,3.8
527936427,제트호텔,"여행 > 숙박 > 여관,모텔",AD5,숙박,,서울 종로구 돈의동 92,서울 종로구 수표로22길 23,126.99063630953,37.571350561081,http://place.map.kakao.com/527936427,,unknown,unknown,,0,0
14714393,모텔라휘느,"여행 > 숙박 > 여관,모텔",AD5,숙박,02-3675-2910,서울 종로구 돈의동 161-3,서울 종로구 수표로22길 24,126.990731405632,37.5712676770255,http://place.map.kakao.com/14714393,,unknown,unknown,,1,3.0
10835439,수모텔,"여행 > 숙박 > 여관,모텔",AD5,숙박,02-765-3049,서울 종로구 돈의동 134,서울 종로구 수표로22길 50-4,126.991320031969,37.5712641177905,http://place.map.kakao.com/10835439,,unknown,unknown,,0,0
8164830,호텔프라이,여행 > 숙박 > 호텔,AD5,숙박,02-739-3009,서울 종로구 당주동 2-2,서울 종로구 새문안로5가길 3-1,126.974267573234,37.5724833818173,http://place.map.kakao.com/8164830,,unknown,unknown,,0,0
26993676,신라스테이 광화문,여행 > 숙박 > 호텔 > 신라스테이,AD5,숙박,02-6060-9000,서울 종로구 수송동 156,서울 종로구 삼봉로 71,126.981150062819,37.5725531570025,http://place.map.kakao.com/26993676,,unknown,unknown,#2인실 #비즈니스룸 #비즈니스호텔 #어메니티제공 #조식서비스 #호캉스 ,71,3.0
18315940,서울호스텔,여행 > 숙박 > 유스호스텔,AD5,숙박,,서울 종로구 청진동 6,서울 종로구 삼봉로 68,126.980887544672,37.5721458650328,http://place.map.kakao.com/18315940,,unknown,unknown,,0,0
18782055,센터마크호텔,여행 > 숙박 > 호텔,AD5,숙박,02-731-1000,서울 종로구 관훈동 198-42,서울 종로구 인사동5길 38,126.984265303467,37.5725644252569,http://place.map.kakao.com/18782055,,unknown,unknown,#비즈니스룸 #비즈니스호텔 #어메니티제공 #연회장 #조식서비스 #호캉스 ,9,4.2
328271369,호텔쿠레타케소 인사동,여행 > 숙박 > 호텔,AD5,숙박,02-738-6100,서울 종로구 인사동 34-2,서울 종로구 인사동길 20-9,126.98717228933047,37.5723953898538,http://place.map.kakao.com/328271369,,unknown,unknown,#비즈니스호텔 #사우나 #조식서비스 #제로페이 ,5,1.8
510708179,호텔팩토리,여행 > 숙박 > 게스트하우스,AD5,숙박,02-766-1974,서울 종로구 낙원동 233,서울 종로구 종로17길 46,126.98833714467106,37.57215404400183,http://place.map.kakao.com/510708179,,unknown,unknown,,0,0
1390107137,목시서울인사동,여행 > 숙박 > 호텔,AD5,숙박,02-758-1700,서울 종로구 낙원동 134-2,서울 종로구 돈화문로11길 37,126.989349111578,37.5723568635296,http://place.map.kakao.com/1390107137,,unknown,unknown,#어메니티제공 #조식서비스 #패밀리룸 #호캉스 #제로페이 ,22,3.8
509500959,호텔라와,여행 > 숙박 > 호텔,AD5,숙박,02-741-4455,서울 종로구 낙원동 135-1,서울 종로구 수표로26길 3,126.989178192782,37.5722766594252,http://place.map.kakao.com/509500959,,unknown,unknown,,5,5.0
27405806,헤르츠호텔,"여행 > 숙박 > 여관,모텔",AD5,숙박,,서울 종로구 낙원동 108-1,서울 종로구 돈화문로11길 44,126.98894040298296,37.57276542719106,http://place.map.kakao.com/27405806,,unknown,unknown,#가성비좋은 #야외테라스 #어메니티제공 #제로페이 ,1,4.0
1159164030,호텔노바,"여행 > 숙박 > 여관,모텔",AD5,숙박,02-3675-2112,서울 종로구 낙원동 132-6,서울 종로구 수표로26길 7,126.989454404505,37.5722298326782,http://place.map.kakao.com/1159164030,,unknown,unknown,,2,3.0
18636212,엠모텔,"여행 > 숙박 > 여관,모텔",AD5,숙박,,서울 종로구 낙원동 230,서울 종로구 수표로 123-4,126.98855787208,37.5722189372473,http://place.map.kakao.com/18636212,,unknown,unknown,,0,0
27479761,메이커스X이쁘다,여행 > 숙박 > 호텔,AD5,숙박,02-747-5000,서울 종로구 낙원동 132-2,서울 종로구 돈화문로11길 33,126.9895404174086,37.572359583619416,http://place.map.kakao.com/27479761,,unknown,n,,9,4.7
14703698,호텔투헤븐,"여행 > 숙박 > 여관,모텔",AD5,숙박,02-744-2766,서울 종로구 낙원동 133,서울 종로구 수표로26길 11,126.989694383864,37.5722442697924,http://place.map.kakao.com/14703698,,unknown,unknown,,0,0
660497731,호텔그림,"여행 > 숙박 > 여관,모텔",AD5,숙박,02-741-1701,서울 종로구 낙원동 132-5,서울 종로구 수표로26길 9,126.98956533726675,37.57224425845665,http://place.map.kakao.com/660497731,,unknown,unknown,,1,1.0
10478529,쎄느장,"여행 > 숙박 > 여관,모텔",AD5,숙박,02-745-4665,서울 종로구 낙원동 121-1,서울 종로구 돈화문로11길 30,126.989739596129,37.5727344150291,http://place.map.kakao.com/10478529,,unknown,unknown,,2,1.5
27133239,스타호스텔 인사동점,여행 > 숙박 > 유스호스텔,AD5,숙박,070-8668-5727,서울 종로구 돈의동 19,서울 종로구 돈화문로11다길 9,126.990541030439,37.5728786411616,http://place.map.kakao.com/27133239,,unknown,unknown,#가성비좋은 #조식서비스 ,0,0
16683857,레몬트리호텔,"여행 > 숙박 > 여관,모텔",AD5,숙박,02-762-5722,서울 종로구 돈의동 59,서울 종로구 돈화문로5가길 39,126.99108445144,37.5723561063431,http://place.map.kakao.com/16683857,,unknown,unknown,,8,4.5
12673397,송원텔게스트하우스,여행 > 숙박 > 게스트하우스,AD5,숙박,02-765-4469,서울 종로구 돈의동 103-62,서울 종로구 돈화문로9가길 19,126.990944096102,37.5722623921734,http://place.map.kakao.com/12673397,,unknown,unknown,,0,0
1125097695,수송게스트하우스,여행 > 숙박 > 게스트하우스,AD5,숙박,02-738-7251,서울 종로구 수송동 48,서울 종로구 율곡로4길 59,126.9811272920112,37.57307212647052,http://place.map.kakao.com/1125097695,,unknown,unknown,#2인실 #야외테라스 #온돌룸 #제로페이 ,3,2.7
25612419,호텔아벤트리 종로,여행 > 숙박 > 호텔,AD5,숙박,02-736-1234,서울 종로구 견지동 65-1,서울 종로구 우정국로 46,126.98333694916006,37.5731048948572,http://place.map.kakao.com/25612419,,unknown,unknown,#1인실 #2인실 #비즈니스룸 #비즈니스호텔 #조식서비스 #호캉스 ,16,3.5
14808423,썬비호텔,여행 > 숙박 > 호텔,AD5,숙박,02-730-3451,서울 종로구 관훈동 198-11,서울 종로구 인사동7길 26,126.984763274445,37.5730834636857,http://place.map.kakao.com/14808423,,unknown,unknown,#가족호텔 #물놀이 #조식서비스 #제로페이 ,5,4.6
12567938,세림호텔,여행 > 숙박 > 호텔,AD5,숙박,02-739-3377,서울 종로구 관훈동 192-17,서울 종로구 인사동길 37-11,126.984731520308,37.5733681739768,http://place.map.kakao.com/12567938,,unknown,unknown,,1,5.0
875470599,하이게스트하우스,여행 > 숙박 > 게스트하우스,AD5,숙박,02-732-4731,서울 종로구 관훈동 13-2,서울 종로구 인사동길 30-9,126.986135154676,37.5736458535939,http://place.map.kakao.com/875470599,,unknown,unknown,,0,0
80747663,시은재,여행 > 숙박 > 게스트하우스,AD5,숙박,,서울 종로구 경운동 47-4,서울 종로구 삼일대로 439,126.98713017793902,37.57371894684494,http://place.map.kakao.com/80747663,,unknown,unknown,,2,4.5
1330378467,오라카이 인사동 스위츠,여행 > 숙박 > 호텔,AD5,숙박,02-6262-8888,서울 종로구 낙원동 272,서울 종로구 인사동4길 18,126.987353288888,37.5730981854768,http://place.map.kakao.com/1330378467,,unknown,unknown,#레지던스호텔 #사우나 #실외수영장 #어메니티제공 #조식서비스 #호캉스 ,19,3.7
420513825,호텔야자 종로점,"여행 > 숙박 > 여관,모텔",AD5,숙박,02-763-8333,서울 종로구 낙원동 86,서울 종로구 수표로28길 9-1,126.9889199798759,37.57308392699683,http://place.map.kakao.com/420513825,,unknown,unknown,,6,4.3
10571157,비즈,"여행 > 숙박 > 여관,모텔",AD5,숙박,,서울 종로구 낙원동 75,서울 종로구 삼일대로26길 7,126.9885588476267,37.57324156666285,http://place.map.kakao.com/10571157,,unknown,unknown,,2,3.0
7973008,모텔시네마,"여행 > 숙박 > 여관,모텔",AD5,숙박,02-3676-9664,서울 종로구 낙원동 84,서울 종로구 수표로28길 12-5,126.989205228372,37.5731920728166,http://place.map.kakao.com/7973008,,unknown,unknown,,2,1.0
26880930,탑호텔 레지던스,여행 > 숙박 > 호텔,AD5,숙박,,서울 종로구 낙원동 59-1,서울 종로구 삼일대로28길 14,126.9887795700564,37.57336232116568,http://place.map.kakao.com/26880930,,unknown,unknown,,1,1.0
1402445430,알게호,여행 > 숙박 > 게스트하우스,AD5,숙박,,서울 종로구 낙원동 111-4,서울 종로구 수표로28길 12-3,126.98921430868651,37.57302358759295,http://place.map.kakao.com/1402445430,,unknown,unknown,,0,0
20526192,디자인호텔,"여행 > 숙박 > 여관,모텔",AD5,숙박,,서울 종로구 낙원동 86,서울 종로구 수표로28길 9-1,126.988915455079,37.5730623026934,http://place.map.kakao.com/20526192,,unknown,unknown,,0,0
1229659802,나인트리프리미어호텔 인사동,여행 > 숙박 > 호텔,AD5,숙박,02-6917-3099,서울 종로구 관훈동 155-2,서울 종로구 인사동길 49,126.983578894622,37.5744834508474,http://place.map.kakao.com/1229659802,,unknown,unknown,#2인실 #비즈니스룸 #어메니티제공 #조식서비스 #호캉스 ,49,3.8
9281128,예하도예 게스트하우스,여행 > 숙박 > 게스트하우스,AD5,숙박,02-722-3619,서울 종로구 관훈동 55-1,서울 종로구 인사동12길 10,126.985111664379,37.574420584475,http://place.map.kakao.com/9281128,,unknown,unknown,#2인실 #어메니티제공 #조식서비스 #제로페이 ,2,3.0
10817967,크라운호텔,여행 > 숙박 > 호텔,AD5,숙박,,서울 종로구 낙원동 25,서울 종로구 삼일대로30길 9,126.988186289905,37.5740569303127,http://place.map.kakao.com/10817967,,unknown,unknown,,1,5.0
18607843,남현당,여행 > 숙박 > 게스트하우스,AD5,숙박,02-2659-8788,서울 종로구 경운동 23,서울 종로구 삼일대로 446-15,126.988109240674,37.5745110239353,http://place.map.kakao.com/18607843,,unknown,unknown,#조식서비스 #한옥게스트하우스 #제로페이 ,2,4.5
720750849,노탐하우스,여행 > 숙박 > 게스트하우스,AD5,숙박,,서울 종로구 낙원동 6,서울 종로구 삼일대로 440,126.987760666963,37.5739667874727,http://place.map.kakao.com/720750849,,unknown,unknown,,0,0
21582653,이비스앰배서더호텔 인사동,여행 > 숙박 > 호텔 > 특급호텔 > 앰배서더호텔,AD5,숙박,02-6730-1101,서울 종로구 익선동 34-8,서울 종로구 삼일대로30길 31,126.98921863262906,37.5744390508875,http://place.map.kakao.com/21582653,,unknown,unknown,#2인실 #루프탑있는 #비즈니스호텔 #사우나 #조식서비스 #패밀리룸 #호캉스 ,13,2.8
19975394,오케이빌 게스트하우스,여행 > 숙박 > 게스트하우스,AD5,숙박,,서울 종로구 익선동 45,서울 종로구 삼일대로32가길 29-4,126.989472167262,37.5747093721844,http://place.map.kakao.com/19975394,,unknown,unknown,,0,0
1940079552,호텔다다 익선,"여행 > 숙박 > 여관,모텔",AD5,숙박,02-744-4647,서울 종로구 익선동 46,서울 종로구 삼일대로32가길 33,126.9895400985926,37.574639100636354,http://place.map.kakao.com/1940079552,,unknown,unknown,,2,2.5
10559992,세화호스텔,여행 > 숙박 > 게스트하우스,AD5,숙박,02-765-2881,서울 종로구 익선동 79,서울 종로구 삼일대로32가길 50,126.990314390603,37.5747346721407,http://place.map.kakao.com/10559992,,unknown,unknown,,0,0
14736388,세피앙모텔,"여행 > 숙박 > 여관,모텔",AD5,숙박,,서울 종로구 익선동 80,서울 종로구 돈화문로11가길 49,126.990472869107,37.5747743288031,http://place.map.kakao.com/14736388,,unknown,unknown,,0,0
77503819,호스텔토미,여행 > 숙박 > 게스트하우스,AD5,숙박,02-744-6844,서울 종로구 와룡동 68,서울 종로구 돈화문로 66,126.99119740689396,37.57442479910375,http://place.map.kakao.com/77503819,,unknown,unknown,#당구대 #무인모텔 #조식서비스 #제로페이 ,5,5.0
22581773,궁게스트하우스,여행 > 숙박 > 게스트하우스,AD5,숙박,010-9678-5590,서울 종로구 와룡동 60,서울 종로구 율곡로8길 67,126.99142947403,37.57439958832706,http://place.map.kakao.com/22581773,,unknown,unknown,,2,5.0
888292376,집나온거북이,여행 > 숙박 > 게스트하우스,AD5,숙박,,서울 종로구 묘동 141,서울 종로구 돈화문로 61,126.990921256626,37.5739076071867,http://place.map.kakao.com/888292376,,unknown,unknown,,4,5.0
20059998,옐로우브릭2호스텔 2호점,여행 > 숙박 > 유스호스텔,AD5,숙박,,서울 종로구 와룡동 68,서울 종로구 돈화문로 66,126.99117477371,37.5743635297714,http://place.map.kakao.com/20059998,,unknown,unknown,,0,0
25626178,서머셋팰리스 서울,여행 > 숙박 > 호텔,AD5,숙박,02-6730-8888,서울 종로구 수송동 85,서울 종로구 율곡로2길 7,126.981063421818,37.5749606013257,http://place.map.kakao.com/25626178,,unknown,unknown,#가족호텔 #당구대 #레지던스호텔 #루프탑수영장 #물놀이 #사우나 #어메니티제공 #조식서비스 #호캉스 ,19,3.7
1469372024,준오호텔,"여행 > 숙박 > 여관,모텔",AD5,숙박,,서울 종로구 관훈동 106,서울 종로구 인사동16길 6,126.98423648728766,37.57501422635596,http://place.map.kakao.com/1469372024,,unknown,unknown,,3,5.0
23304773,인사호스텔,"여행 > 숙박 > 여관,모텔",AD5,숙박,,서울 종로구 관훈동 95,서울 종로구 인사동14길 48,126.984649692702,37.5749431022313,http://place.map.kakao.com/23304773,,unknown,unknown,,2,5.0
18496571,HH모텔,"여행 > 숙박 > 여관,모텔",AD5,숙박,02-734-4265,서울 종로구 관훈동 99,서울 종로구 인사동14길 7,126.984536506245,37.5748637999292,http://place.map.kakao.com/18496571,,unknown,unknown,,1,5.0
1845660414,인사동미니호텔,여행 > 숙박 > 게스트하우스,AD5,숙박,02-733-1355,서울 종로구 관훈동 84-4,서울 종로구 인사동14길 26,126.985487364438,37.5750945752824,http://place.map.kakao.com/1845660414,,unknown,unknown,,1,1.0
26261813,창덕궁소담,여행 > 숙박 > 게스트하우스,AD5,숙박,,서울 종로구 와룡동 46,서울 종로구 율곡로8길 45,126.991124852351,37.5753113724278,http://place.map.kakao.com/26261813,,unknown,unknown,,1,2.0
23994051,대림장여관,"여행 > 숙박 > 여관,모텔",AD5,숙박,,서울 종로구 와룡동 54,서울 종로구 율곡로8길 57,126.991251695404,37.5748392607047,http://place.map.kakao.com/23994051,,unknown,unknown,,0,0
1844864422,여느날,여행 > 숙박 > 펜션,AD5,숙박,,서울 종로구 필운동 195-2,서울 종로구 자하문로1길 49-9,126.969588544231,37.5765187254408,http://place.map.kakao.com/1844864422,,unknown,unknown,,0,0
209558622,이화한옥 사직루,여행 > 숙박 > 게스트하우스,AD5,숙박,010-2033-1368,서울 종로구 필운동 137-4,서울 종로구 사직로9길 4,126.968859525093,37.5764644757196,http://place.map.kakao.com/209558622,,unknown,unknown,,0,0
7991381,호텔아비숑,여행 > 숙박 > 호텔,AD5,숙박,02-741-9906,서울 종로구 운니동 37-2,서울 종로구 율곡로6길 19,126.989621352476,37.5764537108645,http://place.map.kakao.com/7991381,,unknown,unknown,,5,3.2
20225454,호스텔코리아 창덕궁점,여행 > 숙박 > 게스트하우스,AD5,숙박,070-4705-1900,서울 종로구 와룡동 140,서울 종로구 돈화문로 85,126.990314209489,37.5761330157204,http://place.map.kakao.com/20225454,,unknown,unknown,,4,3.3
11640576,쿠즈호텔,"여행 > 숙박 > 여관,모텔",AD5,숙박,02-764-5778,서울 종로구 운니동 25-1,서울 종로구 돈화문로11가길 83,126.98994173659992,37.57635282722031,http://place.map.kakao.com/11640576,,unknown,unknown,,1,3.0
7916246,비원게스트하우스,여행 > 숙박 > 게스트하우스,AD5,숙박,02-765-0670,서울 종로구 운니동 28-2,서울 종로구 돈화문로11가길 77-4,126.989933849121,37.5760789242309,http://place.map.kakao.com/7916246,,unknown,unknown,#패밀리룸 #제로페이 ,0,0
1475318316,시티파크호텔,"여행 > 숙박 > 여관,모텔",AD5,숙박,,서울 종로구 와룡동 140-2,서울 종로구 돈화문로 85,126.990264406478,37.5760789519547,http://place.map.kakao.com/1475318316,,unknown,unknown,,0,0
1942044832,참 한옥 게스트하우스,여행 > 숙박 > 게스트하우스,AD5,숙박,,서울 종로구 운니동 45-5,서울 종로구 삼일대로32길 49-5,126.989571634189,37.575794178525,http://place.map.kakao.com/1942044832,,unknown,unknown,,1,1.0
24054950,대화장모텔,"여행 > 숙박 > 여관,모텔",AD5,숙박,,서울 종로구 운니동 25-1,서울 종로구 돈화문로11가길 83,126.98995645228,37.5763600364288,http://place.map.kakao.com/24054950,,unknown,unknown,,0,0
2112889905,월하여관,"여행 > 숙박 > 여관,모텔",AD5,숙박,,서울 종로구 와룡동 33,서울 종로구 율곡로10길 24,126.990927743638,37.5764222836855,http://place.map.kakao.com/2112889905,,unknown,unknown,,4,3.3
1683208987,울타리호스텔,여행 > 숙박 > 게스트하우스,AD5,숙박,010-2931-1313,서울 종로구 와룡동 33,서울 종로구 율곡로10길 24,126.990930009598,37.5764069669542,http://place.map.kakao.com/1683208987,,unknown,unknown,#조식서비스 #제로페이 ,0,0
18782614,수모텔,"여행 > 숙박 > 여관,모텔",AD5,숙박,02-738-4622,서울 종로구 필운동 131,서울 종로구 사직로9길 10,126.968329624286,37.5767021972625,http://place.map.kakao.com/18782614,,unknown,unknown,,1,5.0
26598593,비빔밥게스트하우스,여행 > 숙박 > 게스트하우스,AD5,숙박,070-8153-4040,서울 종로구 필운동 132,서울 종로구 사직로9가길 5-7,126.96853338054076,37.57673468754728,http://place.map.kakao.com/26598593,,unknown,unknown,,9,4.6
1722089454,필운게스트하우스,여행 > 숙박 > 게스트하우스,AD5,숙박,,서울 종로구 필운동 130-2,서울 종로구 사직로9가길 5-13,126.968329520491,37.5769472676949,http://place.map.kakao.com/1722089454,,unknown,unknown,,1,4.0
1875306413,서울한옥제이앤피스테이,여행 > 숙박 > 게스트하우스,AD5,숙박,,서울 종로구 체부동 178-2,서울 종로구 자하문로1나길 7-28,126.970883461872,37.5769046775165,http://place.map.kakao.com/1875306413,,n,n,,0,0
1497338453,나그네하우스,여행 > 숙박 > 게스트하우스,AD5,숙박,02-725-7377,서울 종로구 체부동 64,서울 종로구 자하문로1나길 6,126.97168612894616,37.57680486239135,http://place.map.kakao.com/1497338453,,unknown,unknown,#한옥게스트하우스 #제로페이 ,13,2.2
2088885916,호경당 바이버틀러리,여행 > 숙박 > 펜션,AD5,숙박,,서울 종로구 체부동 143-1,서울 종로구 자하문로1나길 19-4,126.971313443481,37.5774273594772,http://place.map.kakao.com/2088885916,,unknown,unknown,,0,0
506331664,누리한옥게스트하우스,여행 > 숙박 > 게스트하우스,AD5,숙박,,서울 종로구 체부동 147-1,서울 종로구 자하문로1다길 6-1,126.971100638746,37.577366039963,http://place.map.kakao.com/506331664,,unknown,unknown,,1,5.0
16790563,아로마모텔,"여행 > 숙박 > 여관,모텔",AD5,숙박,,서울 종로구 체부동 48,서울 종로구 자하문로 9,126.972146830682,37.5769266062266,http://place.map.kakao.com/16790563,,unknown,unknown,,0,0
24039348,다복장여관,"여행 > 숙박 > 여관,모텔",AD5,숙박,,서울 종로구 체부동 48,서울 종로구 자하문로 9,126.972142306476,37.576915793227,http://place.map.kakao.com/24039348,,unknown,unknown,,0,0
13042299,북악게스트하우스,여행 > 숙박 > 게스트하우스,AD5,숙박,070-4086-4358,서울 종로구 안국동 175-27,서울 종로구 윤보선길 23-1,126.983797946559,37.5770693354031,http://place.map.kakao.com/13042299,,unknown,unknown,,0,0
1785177758,서울이야기한옥,여행 > 숙박 > 펜션,AD5,숙박,010-9956-5953,서울 종로구 안국동 97,서울 종로구 율곡로5길 3-19,126.98459945296467,37.577033402914296,http://place.map.kakao.com/1785177758,,unknown,unknown,#조식서비스 #한옥게스트하우스 #제로페이 ,3,4.3
1498912951,북촌사랑채,여행 > 숙박 > 게스트하우스,AD5,숙박,,서울 종로구 안국동 100,서울 종로구 율곡로5길 25,126.9844681147093,37.57712618812268,http://place.map.kakao.com/1498912951,,unknown,unknown,,1,1.0
10274647,베니키아노블호텔,여행 > 숙박 > 호텔 > 베니키아 호텔,AD5,숙박,02-742-4025,서울 종로구 운니동 19,서울 종로구 율곡로6길 13-3,126.98967000156222,37.57666454782383,http://place.map.kakao.com/10274647,,unknown,unknown,#2인실 #가족호텔 #관광호텔 #비즈니스룸 #비즈니스호텔 #어메니티제공 #호캉스 ,5,5.0
18278060,씨티파크모텔,"여행 > 숙박 > 여관,모텔",AD5,숙박,02-744-4197,서울 종로구 운니동 24-1,서울 종로구 돈화문로11가길 89,126.989838691166,37.5765654530802,http://place.map.kakao.com/18278060,,unknown,unknown,,4,3.3
429945488,호텔순라,"여행 > 숙박 > 여관,모텔",AD5,숙박,02-3675-2205,서울 종로구 권농동 155-1,서울 종로구 율곡로10길 17,126.99113827446932,37.576680885073976,http://place.map.kakao.com/429945488,,unknown,unknown,#1인실 #2인실 #조식서비스 #제로페이 ,1,1.0
579619925,셀립 순라,여행 > 숙박 > 호텔,AD5,숙박,,서울 종로구 권농동 127-1,서울 종로구 율곡로10길 11,126.991215214824,37.5770160607296,http://place.map.kakao.com/579619925,,unknown,unknown,,0,0
17657929,해밀게스트하우스,여행 > 숙박 > 게스트하우스,AD5,숙박,070-8950-1546,서울 종로구 권농동 152-2,서울 종로구 율곡로10길 15-14,126.991423562628,37.5765908067051,http://place.map.kakao.com/17657929,,unknown,unknown,#조식서비스 #한옥게스트하우스 #제로페이 ,0,0
27373713,스테이인감호스텔,여행 > 숙박 > 유스호스텔,AD5,숙박,,서울 종로구 와룡동 21,서울 종로구 율곡로10길 12,126.990834852847,37.5769331403316,http://place.map.kakao.com/27373713,,unknown,unknown,,0,0
12697222,유즈패밀리,여행 > 숙박 > 게스트하우스,AD5,숙박,,서울 종로구 권농동 156,서울 종로구 율곡로10길 19,126.99124695975108,37.57661241760839,http://place.map.kakao.com/12697222,,unknown,unknown,,0,0
709012540,한스하우스,여행 > 숙박 > 게스트하우스,AD5,숙박,02-2281-3084,서울 종로구 체부동 155,서울 종로구 자하문로1다길 20,126.970448523317,37.57748210677694,http://place.map.kakao.com/709012540,,unknown,unknown,,0,0
25046985,Hide & Seek 게스트하우스,여행 > 숙박 > 게스트하우스,AD5,숙박,02-6925-5916,서울 종로구 통의동 35-68,서울 종로구 자하문로6길 14,126.972812078774,37.5780331822508,http://place.map.kakao.com/25046985,,unknown,unknown,,2,5.0
993831952,우게스트하우스,여행 > 숙박 > 게스트하우스,AD5,숙박,02-723-0230,서울 종로구 사간동 69,서울 종로구 삼청로 22,126.97985136182128,37.57788953354115,http://place.map.kakao.com/993831952,,unknown,unknown,,1,5.0
18759012,오복게스트하우스,여행 > 숙박 > 게스트하우스,AD5,숙박,,서울 종로구 사간동 57,서울 종로구 삼청로 22-17,126.980233982285,37.5779661827336,http://place.map.kakao.com/18759012,,unknown,unknown,,0,0
1260626863,공심가 게스트하우스,여행 > 숙박 > 게스트하우스,AD5,숙박,02-533-7898,서울 종로구 사간동 15-1,서울 종로구 율곡로1길 46,126.980940422349,37.5778653875565,http://place.map.kakao.com/1260626863,,unknown,unknown,#조식서비스 #한옥게스트하우스 ,3,1.0
27400393,사이드,여행 > 숙박 > 호텔,AD5,숙박,070-8840-6309,서울 종로구 누하동 257,서울 종로구 필운대로 27-5,126.968831571707,37.5783457443391,http://place.map.kakao.com/27400393,,unknown,unknown,#레지던스호텔 #한옥게스트하우스 ,1,5.0
1130576023,이화한옥 본관,여행 > 숙박 > 게스트하우스,AD5,숙박,010-2033-1368,서울 종로구 누하동 223,서울 종로구 필운대로 26-25,126.96958306678924,37.57885229903352,http://place.map.kakao.com/1130576023,,unknown,unknown,#워크샵 ,0,0
2050280295,24게스트하우스 경복궁점,여행 > 숙박 > 게스트하우스,AD5,숙박,02-732-3000,서울 종로구 체부동 112-1,서울 종로구 자하문로5가길 27-1,126.97041640945,37.578533558921,http://place.map.kakao.com/2050280295,,unknown,unknown,#빔프로젝트 #어메니티제공 #조식서비스 #한옥게스트하우스 #제로페이 ,0,0
410271966,통인1939,여행 > 숙박 > 펜션,AD5,숙박,,서울 종로구 통인동 147-5,서울 종로구 자하문로 33-7,126.970955110058,37.5789733777903,http://place.map.kakao.com/410271966,,unknown,unknown,,0,0
1018740030,아뜰리에웨스트사이드,여행 > 숙박 > 게스트하우스,AD5,숙박,,서울 종로구 통인동 147-4,서울 종로구 자하문로 35-6,126.970914284742,37.5791535665388,http://place.map.kakao.com/1018740030,,unknown,unknown,,0,0
1737630014,통인155,여행 > 숙박 > 게스트하우스,AD5,숙박,,서울 종로구 통인동 155,서울 종로구 자하문로 31-5,126.971113722317,37.5786634747598,http://place.map.kakao.com/1737630014,,unknown,unknown,,0,0
2118382129,보안스테이,여행 > 숙박 > 게스트하우스,AD5,숙박,02-720-8409,서울 종로구 통의동 2-1,서울 종로구 효자로 33,126.97366871737,37.5790055490607,http://place.map.kakao.com/2118382129,,unknown,unknown,,0,0
19189038,소풍게스트하우스,여행 > 숙박 > 게스트하우스,AD5,숙박,,서울 종로구 통의동 7-6,서울 종로구 효자로7길 10-4,126.973282662787,37.5790387990956,http://place.map.kakao.com/19189038,,unknown,unknown,,2,5.0
419432292,다솜게스트하우스,여행 > 숙박 > 게스트하우스,AD5,숙박,,서울 종로구 통의동 7-7,서울 종로구 효자로7길 10-4,126.973296233714,37.5790784459026,http://place.map.kakao.com/419432292,,unknown,unknown,,0,0
195701953,소현당,여행 > 숙박 > 게스트하우스,AD5,숙박,02-725-7979,서울 종로구 소격동 157-1,서울 종로구 율곡로1길 74-11,126.981755256192,37.5789250853918,http://place.map.kakao.com/195701953,,unknown,unknown,,2,5.0
1159393135,북촌소선재,여행 > 숙박 > 게스트하우스,AD5,숙박,,서울 종로구 소격동 157-1,서울 종로구 율곡로1길 74-11,126.9817846992807,37.57888905017697,http://place.map.kakao.com/1159393135,,unknown,unknown,,0,0
750427469,서촌가치비엔비,여행 > 숙박 > 게스트하우스,AD5,숙박,,서울 종로구 누상동 159-8,서울 종로구 필운대로5다길 17,126.9661128848024,37.57958746594611,http://place.map.kakao.com/750427469,,unknown,unknown,,0,0
1614061153,한옥게스트하우스동촌재,여행 > 숙박 > 게스트하우스,AD5,숙박,010-9127-5227,서울 종로구 통인동 66-1,서울 종로구 자하문로11길 21-10,126.969784101041,37.5800335537197,http://place.map.kakao.com/1614061153,,unknown,unknown,#조식서비스 #제로페이 ,1,5.0
18249643,한게스트하우스,여행 > 숙박 > 게스트하우스,AD5,숙박,010-6248-6600,서울 종로구 통인동 65-1,서울 종로구 자하문로11길 21-8,126.969831689097,37.5799353575605,http://place.map.kakao.com/18249643,,unknown,unknown,#한옥게스트하우스 #제로페이 ,0,0
1434128384,가원재바이버틀러리,여행 > 숙박 > 펜션,AD5,숙박,,서울 종로구 가회동 143,서울 종로구 북촌로7길 3-6,126.984526368118,37.580092268327,http://place.map.kakao.com/1434128384,,unknown,unknown,,0,0
1201924189,복합한옥공간 곳게스트하우스,여행 > 숙박 > 게스트하우스,AD5,숙박,010-3255-1289,서울 종로구 계동 140-29,서울 종로구 계동길 52-11,126.98731254976478,37.57969436135987,http://place.map.kakao.com/1201924189,,unknown,unknown,#조식서비스 #제로페이 ,1,3.0
13622983,큰대문집,여행 > 숙박 > 게스트하우스,AD5,숙박,,서울 종로구 계동 123-2,서울 종로구 계동2길 7,126.987089486923,37.5799204866466,http://place.map.kakao.com/13622983,,unknown,unknown,#한옥게스트하우스 ,0,0
25046857,두한옥게스트하우스,여행 > 숙박 > 게스트하우스,AD5,숙박,02-3672-1977,서울 종로구 계동 101-2,서울 종로구 계동길 49-4,126.986423867422,37.5796032621129,http://place.map.kakao.com/25046857,,unknown,unknown,,0,0
872408364,우당,여행 > 숙박 > 게스트하우스,AD5,숙박,070-8158-9675,서울 종로구 계동 119-1,서울 종로구 계동길 53,126.986604990363,37.5796753623193,http://place.map.kakao.com/872408364,,unknown,unknown,,0,0
1201924189,복합한옥공간 곳게스트하우스,여행 > 숙박 > 게스트하우스,AD5,숙박,010-3255-1289,서울 종로구 계동 140-29,서울 종로구 계동길 52-11,126.98731254976478,37.57969436135987,http://place.map.kakao.com/1201924189,,unknown,unknown,#조식서비스 #제로페이 ,1,3.0
1038204756,심산재 한옥스테이게스트하우스,여행 > 숙박 > 게스트하우스,AD5,숙박,,서울 종로구 옥인동 119,서울 종로구 옥인1길 10,126.967831957773,37.5809475465771,http://place.map.kakao.com/1038204756,,unknown,unknown,,1,5.0
1963442596,소소하우스,여행 > 숙박 > 게스트하우스,AD5,숙박,,서울 종로구 누하동 72,서울 종로구 필운대로5가길 16-5,126.968151499423,37.5802808978404,http://place.map.kakao.com/1963442596,,unknown,unknown,,2,5.0
28412241,누하당,여행 > 숙박 > 게스트하우스,AD5,숙박,02-3391-0010,서울 종로구 누하동 74,서울 종로구 필운대로 49-7,126.96816279059011,37.58035117840292,http://place.map.kakao.com/28412241,,unknown,unknown,,1,3.0
1710306054,민규당 바이 버틀러리,여행 > 숙박 > 게스트하우스,AD5,숙박,070-3443-1231,서울 종로구 통인동 31-29,서울 종로구 자하문로15길 26-9,126.96919506950536,37.580850602842446,http://place.map.kakao.com/1710306054,,unknown,unknown,#어메니티제공 ,0,0
977026374,아담한옥,여행 > 숙박 > 펜션,AD5,숙박,,서울 종로구 통인동 48-1,서울 종로구 필운대로6길 21,126.96965944842,37.580331750704,http://place.map.kakao.com/977026374,,unknown,unknown,,1,3.0
24769413,서원게스트하우스,여행 > 숙박 > 게스트하우스,AD5,숙박,,서울 종로구 통인동 106,서울 종로구 자하문로13길 4,126.970882191779,37.5801662757826,http://place.map.kakao.com/24769413,,unknown,unknown,,0,0
27436597,에그하우스 경복궁점,여행 > 숙박 > 게스트하우스,AD5,숙박,,서울 종로구 통인동 106,서울 종로구 자하문로13길 4,126.97087313492,37.5801662735482,http://place.map.kakao.com/27436597,,unknown,unknown,,0,0
884898260,수피아 게스트하우스,여행 > 숙박 > 게스트하우스,AD5,숙박,070-8957-7660,서울 종로구 창성동 94-20,서울 종로구 자하문로14길 17-7,126.97163362539,37.5809196895411,http://place.map.kakao.com/884898260,,unknown,unknown,#조식서비스 ,0,0
335384391,이호소락,여행 > 숙박 > 게스트하우스,AD5,숙박,,서울 종로구 소격동 102-2,서울 종로구 북촌로5가길 17-8,126.981659849124,37.5801954720688,http://place.map.kakao.com/335384391,,unknown,unknown,,0,0
1434128384,가원재바이버틀러리,여행 > 숙박 > 펜션,AD5,숙박,,서울 종로구 가회동 143,서울 종로구 북촌로7길 3-6,126.984526368118,37.580092268327,http://place.map.kakao.com/1434128384,,unknown,unknown,,0,0
7858134,락고재 서울북촌한옥마을점,여행 > 숙박 > 펜션,AD5,숙박,02-742-3410,서울 종로구 계동 98,서울 종로구 계동길 49-23,126.98605243337354,37.58016904297986,http://place.map.kakao.com/7858134,,unknown,unknown,#1인실 #노천탕 #어메니티제공 #온돌룸 #조식서비스 ,5,4.6
19409218,한옥게스트하우스201,여행 > 숙박 > 게스트하우스,AD5,숙박,02-742-1378,서울 종로구 가회동 201,서울 종로구 북촌로 40-3,126.9854025406092,37.580491520194926,http://place.map.kakao.com/19409218,,unknown,unknown,,2,5.0
25502567,청연재,여행 > 숙박 > 호텔,AD5,숙박,02-744-9200,서울 종로구 가회동 192,서울 종로구 북촌로6길 13-2,126.985681073767,37.5803167615086,http://place.map.kakao.com/25502567,,unknown,unknown,#한옥호텔 ,5,4.2
26933029,미담한옥게스트하우스,여행 > 숙박 > 게스트하우스,AD5,숙박,010-3143-7096,서울 종로구 계동 79-10,서울 종로구 북촌로6길 25-6,126.986387457844,37.5806051630992,http://place.map.kakao.com/26933029,,unknown,unknown,,1,5.0
1366149406,북촌아날로그한옥,여행 > 숙박 > 펜션,AD5,숙박,,서울 종로구 계동 127-1,서울 종로구 계동길 70-24,126.987152813527,37.5803349507327,http://place.map.kakao.com/1366149406,,unknown,unknown,,0,0
20158453,머뭄,여행 > 숙박 > 게스트하우스,AD5,숙박,02-2665-9830,서울 종로구 계동 125-1,서울 종로구 계동2길 11-3,126.987216252366,37.5800970952435,http://place.map.kakao.com/20158453,,unknown,unknown,,0,0
19104246,적선재,여행 > 숙박 > 게스트하우스,AD5,숙박,,서울 종로구 계동 127-6,서울 종로구 계동길 70-20,126.987071322783,37.5802124066734,http://place.map.kakao.com/19104246,,unknown,unknown,,0,0
25815651,서촌비앤비스란,여행 > 숙박 > 게스트하우스,AD5,숙박,02-720-1572,서울 종로구 옥인동 157-2,서울 종로구 옥인길 32-2,126.967037125821,37.5811383379665,http://place.map.kakao.com/25815651,,unknown,unknown,,0,0
1464731277,소윤재바이버틀러리,여행 > 숙박 > 펜션,AD5,숙박,,서울 종로구 통인동 5-5,서울 종로구 자하문로 57-6,126.970460651958,37.5811680761069,http://place.map.kakao.com/1464731277,,unknown,unknown,#어메니티제공 ,0,0
1556500870,하노크 북촌,여행 > 숙박 > 게스트하우스,AD5,숙박,,서울 종로구 가회동 37-4,서울 종로구 북촌로11길 17-5,126.983833186006,37.5816319737429,http://place.map.kakao.com/1556500870,,unknown,unknown,,0,0
519483371,보눔1957 한옥앤부티크,여행 > 숙박 > 호텔,AD5,숙박,02-763-1957,서울 종로구 가회동 30-2,서울 종로구 북촌로 53,126.984634697607,37.5818086755422,http://place.map.kakao.com/519483371,,unknown,unknown,#야외테라스 #어메니티제공 #온돌룸 #조식서비스 #한옥호텔 #호캉스 #제로페이 ,5,2.0
17627772,명가재게스트하우스,여행 > 숙박 > 게스트하우스,AD5,숙박,,서울 종로구 가회동 79-12,서울 종로구 북촌로9길 3-4,126.984585020503,37.581145537736,http://place.map.kakao.com/17627772,,unknown,unknown,,0,0
21159217,담소정,여행 > 숙박 > 게스트하우스,AD5,숙박,010-2053-9701,서울 종로구 가회동 57,서울 종로구 북촌로9길 16-2,126.9843098712642,37.58135273003314,http://place.map.kakao.com/21159217,,unknown,unknown,,0,0
1034801248,백일홍하우스,여행 > 숙박 > 게스트하우스,AD5,숙박,02-334-1476,서울 종로구 가회동 55-3,서울 종로구 북촌로11길 9,126.984421900257,37.5815996171318,http://place.map.kakao.com/1034801248,,unknown,unknown,,0,0
1046670624,클라시코북촌,여행 > 숙박 > 게스트하우스,AD5,숙박,02-765-0449,서울 종로구 가회동 87,서울 종로구 북촌로9길 16-1,126.984159314218,37.5812788284439,http://place.map.kakao.com/1046670624,,unknown,unknown,,0,0
20480913,해인정,여행 > 숙박 > 호텔,AD5,숙박,,서울 종로구 계동 67-25,서울 종로구 계동길 97-7,126.986255953051,37.581581825048,http://place.map.kakao.com/20480913,,unknown,unknown,,0,0
39689214,북촌사랑방한옥,여행 > 숙박 > 게스트하우스,AD5,숙박,,서울 종로구 계동 47-1,서울 종로구 계동길 100-4,126.98698049493,37.5817008383431,http://place.map.kakao.com/39689214,,unknown,unknown,,0,0
2056501555,다온 한옥게스트하우스,여행 > 숙박 > 게스트하우스,AD5,숙박,,서울 종로구 계동 73-3,서울 종로구 계동길 85-5,126.986387354826,37.5811709871599,http://place.map.kakao.com/2056501555,,unknown,unknown,,1,5.0
12681418,북촌게스트하우스,여행 > 숙박 > 게스트하우스,AD5,숙박,,서울 종로구 계동 72,서울 종로구 계동길 89,126.986559408988,37.581329581765,http://place.map.kakao.com/12681418,,unknown,unknown,,0,0
1857489633,북촌모두하우스,여행 > 숙박 > 게스트하우스,AD5,숙박,,서울 종로구 계동 131-1,서울 종로구 계동길 80,126.986921745167,37.5810088687061,http://place.map.kakao.com/1857489633,,unknown,unknown,,0,0
20805659,이랑,여행 > 숙박 > 게스트하우스,AD5,숙박,,서울 종로구 원서동 91,서울 종로구 창덕궁3길 6,126.988986678054,37.5813802888254,http://place.map.kakao.com/20805659,,unknown,unknown,,0,0
id,place_name,category_name,category_group_code,category_group_name,phone,address_name,road_address_name,x,y,place_url,distance,wheelchair,animal,keyword,evalnum,rate
22580427,갤러리 터치,"문화,예술 > 문화시설 > 미술관",CT1,문화시설,02-776-7177,서울 중구 순화동 151,서울 중구 칠패로 27,126.971899447233,37.5604311202839,http://place.map.kakao.com/22580427,,unknown,unknown,,0,0
473196625,HSBC코리아 역사전시관,"문화,예술 > 문화시설 > 전시관",CT1,문화시설,,서울 중구 봉래동1가 25,서울 중구 칠패로 37,126.973043840354,37.5600583743983,http://place.map.kakao.com/473196625,,unknown,unknown,,0,0
27539583,알파갤러리 남대문본점,"문화,예술 > 문화시설 > 전시관",CT1,문화시설,02-784-1420,서울 중구 남대문로4가 20-6,서울 중구 남대문로 6-2,126.976517248875,37.5603636532762,http://place.map.kakao.com/27539583,,unknown,unknown,,0,0
1056662001,신세계 메사홀,"문화,예술 > 문화시설 > 공연장,연극극장",CT1,문화시설,,서울 중구 회현동1가 204,서울 중구 남대문시장10길 2,126.979600290562,37.5603750381813,http://place.map.kakao.com/1056662001,,unknown,unknown,,0,0
1919634876,소년24 전용관,"문화,예술 > 문화시설 > 공연장,연극극장",CT1,문화시설,,서울 중구 회현동1가 204,서울 중구 남대문시장10길 2,126.979600290562,37.5603750381813,http://place.map.kakao.com/1919634876,,unknown,unknown,,0,0
27380654,비디갤러리,"문화,예술 > 문화시설 > 미술관",CT1,문화시설,02-3789-3872,서울 중구 남산동2가 6-2,서울 중구 퇴계로18길 9,126.985630554983,37.5604227779338,http://place.map.kakao.com/27380654,,unknown,unknown,,0,0
27384220,아트팩토리,"문화,예술 > 문화시설 > 미술관",CT1,문화시설,02-318-1054,서울 중구 남산동3가 13-10,서울 중구 퇴계로22길 11-11,126.987020395571,37.5605418704917,http://place.map.kakao.com/27384220,,unknown,unknown,,0,0
1613673516,이회영기념관,"문화,예술 > 문화시설 > 기념관",CT1,문화시설,02-755-0610,서울 중구 예장동 4-1,서울 중구 퇴계로26길 36,126.988930989999,37.5598789313451,http://place.map.kakao.com/1613673516,,unknown,unknown,,7,5.0
198489475,서소문성지역사박물관,"문화,예술 > 문화시설 > 박물관",CT1,문화시설,02-3147-2401,서울 중구 의주로2가 16-74,서울 중구 칠패로 5,126.969753428448,37.5607008890665,http://place.map.kakao.com/198489475,,unknown,unknown,,34,4.6
417291326,서소문역사공원 하늘광장,"문화,예술 > 문화시설 > 기념관",CT1,문화시설,,서울 중구 의주로2가 16-72,서울 중구 칠패로 5,126.96970703725184,37.560668441287646,http://place.map.kakao.com/417291326,,unknown,unknown,,0,0
1546828547,헬스케어 이노지움,"문화,예술 > 문화시설 > 전시관",CT1,문화시설,070-7791-0777,서울 중구 서소문동 135,서울 중구 세종대로9길 41,126.97294486719,37.5614585007978,http://place.map.kakao.com/1546828547,,unknown,unknown,,0,0
1529469311,우정아트센터,"문화,예술 > 문화시설 > 미술관",CT1,문화시설,,서울 중구 태평로2가 150,서울 중구 세종대로 55,126.975353459553,37.5612463929388,http://place.map.kakao.com/1529469311,,unknown,unknown,,0,0
8534402,자연문화원,"문화,예술 > 문화시설 > 문화원",CT1,문화시설,02-777-1949,서울 중구 태평로2가 120,서울 중구 세종대로9길 20,126.974565752434,37.5611272943056,http://place.map.kakao.com/8534402,,unknown,unknown,,0,0
1768178995,벤로갤러리,"문화,예술 > 문화시설 > 전시관",CT1,문화시설,02-775-6681,서울 중구 남대문로4가 17-11,서울 중구 남대문로 5,126.976403935112,37.5607852972062,http://place.map.kakao.com/1768178995,,unknown,unknown,,0,0
219549773,갤러리둥지향,"문화,예술 > 문화시설 > 미술관",CT1,문화시설,,서울 중구 북창동 136,서울 중구 남대문로1길 2,126.977725751443,37.5612648842607,http://place.map.kakao.com/219549773,,unknown,unknown,,0,0
8124121,신세계백화점 본점 트리니티가든,"문화,예술 > 문화시설 > 전시관",CT1,문화시설,1588-1234,서울 중구 충무로1가 52-5,서울 중구 소공로 63,126.98099342039498,37.56087081893026,http://place.map.kakao.com/8124121,,unknown,unknown,,1,1.0
27572008,CGV 명동역 씨네라이브러리,"문화,예술 > 영화,영상 > 영화관 > CJCGV",CT1,문화시설,1544-1122,서울 중구 충무로2가 65-9,서울 중구 퇴계로 123,126.98543344554172,37.56132014660064,http://place.map.kakao.com/27572008,,unknown,unknown,#카카오페이 ,22,3.8
12363499,명동갤러리,"문화,예술 > 문화시설 > 미술관",CT1,문화시설,02-771-2026,서울 중구 충무로2가 65-6,서울 중구 퇴계로 127,126.985856772319,37.5611868505512,http://place.map.kakao.com/12363499,,unknown,unknown,,0,0
21397600,세종갤러리,"문화,예술 > 문화시설 > 미술관",CT1,문화시설,02-3705-9021,서울 중구 충무로2가 61-3,서울 중구 퇴계로 145,126.988120390747,37.5613276555049,http://place.map.kakao.com/21397600,,unknown,unknown,,0,0
1808729449,에이피숍,"문화,예술 > 문화시설 > 전시관",CT1,문화시설,,서울 중구 북창동 93-3,서울 중구 남대문로5길 9,126.978861964809,37.5617444233961,http://place.map.kakao.com/1808729449,,unknown,unknown,,0,0
8691199,한국은행 화폐박물관,"문화,예술 > 문화시설 > 박물관",CT1,문화시설,02-759-4114,서울 중구 남대문로3가 110,서울 중구 남대문로 39,126.980523397494,37.5620978998462,http://place.map.kakao.com/8691199,,unknown,unknown,,17,4.1
11562199,우표박물관,"문화,예술 > 문화시설 > 박물관",CT1,문화시설,02-6450-5600,서울 중구 충무로1가 21-1,서울 중구 소공로 70,126.98208990250843,37.56190353259943,http://place.map.kakao.com/11562199,,unknown,unknown,,2,4.5
17736569,3D블랙아트,"문화,예술 > 문화시설 > 전시관",CT1,문화시설,,서울 중구 충무로2가 11-1,서울 중구 명동8가길 27,126.98656288194871,37.562001434040376,http://place.map.kakao.com/17736569,,unknown,unknown,,0,0
10060067,에스페란토문화원,"문화,예술 > 문화시설 > 문화원",CT1,문화시설,,서울 중구 충무로2가 12-3,서울 중구 삼일대로 305,126.988591127242,37.5619944394818,http://place.map.kakao.com/10060067,,unknown,unknown,,0,0
1433905427,미루갤러리,"문화,예술 > 문화시설 > 미술관",CT1,문화시설,,서울 중구 충무로3가 59-12,서울 중구 수표로2길 1,126.990637458032,37.5621748188141,http://place.map.kakao.com/1433905427,,unknown,unknown,,0,0
1588455849,ACSkr,"문화,예술 > 문화시설 > 공연장,연극극장",CT1,문화시설,,서울 중구 충무로3가 58-13,서울 중구 수표로6길 10,126.990956568944,37.5627262535897,http://place.map.kakao.com/1588455849,,unknown,unknown,,1,5.0
17201964,KT&G상상유니브 아틀리에서울,"문화,예술 > 문화시설 > 공연장,연극극장",CT1,문화시설,02-362-9826,서울 서대문구 미근동 21-1,서울 서대문구 충정로 60,126.96615169243752,37.56388133027521,http://place.map.kakao.com/17201964,,unknown,unknown,,0,0
1132087621,아트스페이스 선,"문화,예술 > 문화시설 > 미술관",CT1,문화시설,,서울 중구 순화동 1-170,서울 중구 통일로 92,126.969207826134,37.5636172739774,http://place.map.kakao.com/1132087621,,unknown,unknown,,0,0
1776946794,갤러리 선,"문화,예술 > 문화시설 > 전시관",CT1,문화시설,,서울 중구 순화동 1-170,서울 중구 통일로 92,126.969222539533,37.5636190798066,http://place.map.kakao.com/1776946794,,unknown,unknown,,0,0
27375424,영국문화원 분사무소,"문화,예술 > 문화시설 > 문화원",CT1,문화시설,02-3702-0601,서울 중구 정동 34-5,서울 중구 서소문로11길 19,126.972079267039,37.5638333260871,http://place.map.kakao.com/27375424,,unknown,unknown,,0,0
12692417,배재학당역사박물관,"문화,예술 > 문화시설 > 박물관",CT1,문화시설,02-319-5578,서울 중구 정동 34-5,서울 중구 서소문로11길 19,126.972599859421,37.5640064393478,http://place.map.kakao.com/12692417,,unknown,unknown,,7,4.9
10507051,서울시립미술관 서소문본관,"문화,예술 > 문화시설 > 미술관",CT1,문화시설,02-2124-8800,서울 중구 서소문동 37,서울 중구 덕수궁길 61,126.973790543874,37.5641076212639,http://place.map.kakao.com/10507051,,unknown,unknown,,60,2.8
13559605,일우스페이스,"문화,예술 > 문화시설 > 미술관",CT1,문화시설,,서울 중구 서소문동 41-3,서울 중구 서소문로 117,126.974171070572,37.5634697997132,http://place.map.kakao.com/13559605,,unknown,unknown,#미술전시 #사진전시 #아이와체험 ,1,1.0
25121674,CGV 명동,"문화,예술 > 영화,영상 > 영화관 > CJCGV",CT1,문화시설,1544-1122,서울 중구 명동2가 83-5,서울 중구 명동길 14,126.982583010911,37.5634929642429,http://place.map.kakao.com/25121674,,unknown,unknown,#데이트코스 #카카오페이 ,27,2.6
12526895,명동난타극장,"문화,예술 > 문화시설 > 공연장,연극극장",CT1,문화시설,02-739-8288,서울 중구 명동2가 50-14,서울 중구 명동길 26,126.983751090997,37.5634679028825,http://place.map.kakao.com/12526895,,unknown,unknown,,0,0
5687647,주한리스트헝가리문화원,"문화,예술 > 문화시설 > 문화원",CT1,문화시설,02-3789-2106,서울 중구 명동2가 50-14,서울 중구 명동길 26,126.98375788486504,37.56345528986756,http://place.map.kakao.com/5687647,,unknown,unknown,,1,5.0
10883126,펑키하우스,"문화,예술 > 문화시설 > 공연장,연극극장",CT1,문화시설,02-778-0454,서울 중구 명동2가 50-14,서울 중구 명동길 26,126.983751099608,37.5634282590415,http://place.map.kakao.com/10883126,,unknown,unknown,,0,0
860220539,천주교 서울대교구 역사관,"문화,예술 > 문화시설 > 박물관",CT1,문화시설,02-6949-1890,서울 중구 명동2가 1-1,서울 중구 명동길 74,126.986467540083,37.5634826614344,http://place.map.kakao.com/860220539,,unknown,unknown,,0,0
7926624,삼일로창고극장,"문화,예술 > 문화시설 > 공연장,연극극장",CT1,문화시설,02-3789-9640,서울 중구 저동1가 20-2,서울 중구 삼일대로9길 12,126.987984230554,37.5634539936501,http://place.map.kakao.com/7926624,,unknown,unknown,#문화예술공간 #뮤지컬공연 #사진전시 #소극장 #제로페이 ,0,0
27184424,서울중부경찰서 역사박물관,"문화,예술 > 문화시설 > 박물관",CT1,문화시설,,서울 중구 저동2가 62-1,서울 중구 수표로 27,126.989582377239,37.5636848005606,http://place.map.kakao.com/27184424,,unknown,unknown,,0,0
7856720,서울유관순기념관,"문화,예술 > 문화시설 > 기념관",CT1,문화시설,02-752-3363,서울 중구 순화동 1-1,서울 중구 통일로4길 30-1,126.970299752309,37.5644131334488,http://place.map.kakao.com/7856720,,unknown,unknown,#아이와체험 ,8,5.0
8360981,서울시종합자료관,"문화,예술 > 문화시설 > 박물관",CT1,문화시설,,서울 중구 서소문동 37,서울 중구 덕수궁길 15,126.975664810631,37.5644179651838,http://place.map.kakao.com/8360981,,unknown,unknown,,0,0
11082743,롯데시네마 에비뉴엘,"문화,예술 > 영화,영상 > 영화관 > 롯데시네마",CT1,문화시설,1544-8855,서울 중구 소공동 7,서울 중구 남대문로 73,126.981844846266,37.5642965417763,http://place.map.kakao.com/11082743,,unknown,unknown,#카카오페이 ,17,2.2
516939602,그라운드시소 명동,"문화,예술 > 문화시설 > 전시관",CT1,문화시설,02-501-9544,서울 중구 소공동 7,서울 중구 남대문로 73,126.981629814472,37.5642028049001,http://place.map.kakao.com/516939602,,unknown,unknown,#문화예술공간 #미디어아트 #사진전시 #아이와체험 #전시회 ,5,3.6
346533948,롯데백화점 롯데문화홀,"문화,예술 > 문화시설 > 공연장,연극극장",CT1,문화시설,,서울 중구 소공동 1,서울 중구 남대문로 81,126.981772300502,37.5647326127814,http://place.map.kakao.com/346533948,,unknown,unknown,,0,0
7933607,서울YWCA 마루홀,"문화,예술 > 문화시설 > 공연장,연극극장",CT1,문화시설,02-3705-6023,서울 중구 명동1가 1-1,서울 중구 명동11길 20,126.986177523488,37.5648989940215,http://place.map.kakao.com/7933607,,unknown,unknown,#제로페이 ,0,0
27144847,이제홀,"문화,예술 > 문화시설 > 공연장,연극극장",CT1,문화시설,,서울 서대문구 충정로2가 35,서울 서대문구 충정로11길 20,126.965260134214,37.5655686371535,http://place.map.kakao.com/27144847,,unknown,unknown,,0,0
16761236,NH아트홀,"문화,예술 > 문화시설 > 공연장,연극극장",CT1,문화시설,,서울 중구 충정로1가 85,서울 중구 통일로 120,126.96767772388,37.5658468305612,http://place.map.kakao.com/16761236,,unknown,unknown,,0,0
23882476,스크랜톤기념관,"문화,예술 > 문화시설 > 기념관",CT1,문화시설,,서울 중구 순화동 1-1,서울 중구 통일로4길 30,126.968863987366,37.5657462378162,http://place.map.kakao.com/23882476,,unknown,unknown,,0,0
8060966,국립정동극장,"문화,예술 > 문화시설 > 공연장,연극극장",CT1,문화시설,02-751-1500,서울 중구 정동 8-11,서울 중구 정동길 43,126.972775755916,37.5658589281598,http://place.map.kakao.com/8060966,,unknown,unknown,#문화예술공간 #뮤지컬공연 #소극장 #인형극 #제로페이 ,7,4.0
286548081,정동극장 야외마당,"문화,예술 > 문화시설 > 공연장,연극극장",CT1,문화시설,02-751-1500,서울 중구 정동 8-11,서울 중구 정동길 43,126.972811963329,37.5658949763444,http://place.map.kakao.com/286548081,,unknown,unknown,,0,0
7836503,국립현대미술관 덕수궁관,"문화,예술 > 문화시설 > 미술관",CT1,문화시설,02-2022-0600,서울 중구 정동 5-1,서울 중구 세종대로 99,126.973740099183,37.5659384342432,http://place.map.kakao.com/7836503,,y,n,,21,3.8
8709445,궁중유물전시관,"문화,예술 > 문화시설 > 전시관",CT1,문화시설,02-771-9951,서울 중구 정동 5-1,서울 중구 세종대로 99,126.974890221394,37.5655818900246,http://place.map.kakao.com/8709445,,unknown,unknown,,1,3.0
674090659,스페이스mm,"문화,예술 > 문화시설 > 전시관",CT1,문화시설,010-7107-2244,서울 중구 을지로1가 200,서울 중구 을지로 지하 12,126.9792320671494,37.56584222049173,http://place.map.kakao.com/674090659,,unknown,unknown,#아이와체험 ,2,4.5
17434294,롯데호텔서울 크리스탈볼룸,"문화,예술 > 문화시설 > 공연장,연극극장",CT1,문화시설,,서울 중구 을지로1가 180-6,서울 중구 을지로 30,126.981364675044,37.565338018568,http://place.map.kakao.com/17434294,,unknown,unknown,,0,0
24662500,하나은행 화폐전시관,"문화,예술 > 문화시설 > 전시관",CT1,문화시설,,서울 중구 을지로2가 181,서울 중구 을지로 66,126.984810047607,37.5657313464227,http://place.map.kakao.com/24662500,,unknown,unknown,,0,0
302810594,빈칸 을지로점,"문화,예술 > 문화시설 > 전시관",CT1,문화시설,,서울 중구 을지로3가 344-9,서울 중구 수표로 48-12,126.99046046756378,37.56550128320129,http://place.map.kakao.com/302810594,,unknown,unknown,,2,4.5
250480530,네이처리듬,"문화,예술 > 문화시설 > 전시관",CT1,문화시설,,서울 중구 을지로3가 344-4,서울 중구 수표로 48-7,126.990388008822,37.5656418327148,http://place.map.kakao.com/250480530,,unknown,unknown,,0,0
8226363,농업박물관,"문화,예술 > 문화시설 > 박물관",CT1,문화시설,02-2080-5727,서울 중구 충정로1가 75-1,서울 중구 새문안로 16,126.968329319115,37.5667299831859,http://place.map.kakao.com/8226363,,unknown,unknown,,3,4.3
17059143,농협중앙회 쌀박물관,"문화,예술 > 문화시설 > 박물관",CT1,문화시설,02-2080-5727,서울 중구 충정로1가 81-3,서울 중구 새문안로 16,126.96778386357435,37.56644602189297,http://place.map.kakao.com/17059143,,unknown,unknown,,0,0
8557277,이화박물관,"문화,예술 > 문화시설 > 박물관",CT1,문화시설,02-2175-1964,서울 중구 정동 32-1,서울 중구 정동길 26,126.97144909650876,37.56607665581958,http://place.map.kakao.com/8557277,,unknown,unknown,,1,5.0
23883210,이화여자고등학교 심슨기념관,"문화,예술 > 문화시설 > 기념관",CT1,문화시설,,서울 중구 정동 32-1,서울 중구 정동길 26,126.971326813943,37.5661757357425,http://place.map.kakao.com/23883210,,unknown,unknown,,2,5.0
7836503,국립현대미술관 덕수궁관,"문화,예술 > 문화시설 > 미술관",CT1,문화시설,02-2022-0600,서울 중구 정동 5-1,서울 중구 세종대로 99,126.973740099183,37.5659384342432,http://place.map.kakao.com/7836503,,y,n,,21,3.8
23254869,덕수궁 구이왕가미술관신관,"문화,예술 > 문화시설 > 미술관",CT1,문화시설,,서울 중구 정동 5-1,서울 중구 세종대로 99,126.973744616633,37.5659672671204,http://place.map.kakao.com/23254869,,unknown,unknown,,0,0
11731415,세실극장 (2022년7월예정),"문화,예술 > 문화시설 > 공연장,연극극장",CT1,문화시설,,서울 중구 정동 3-7,서울 중구 세종대로19길 16,126.97590401119,37.5667642080192,http://place.map.kakao.com/11731415,,unknown,unknown,,0,0
1447993960,서울특별시청 하늘광장갤러리,"문화,예술 > 문화시설 > 전시관",CT1,문화시설,,서울 중구 태평로1가 31,서울 중구 세종대로 110,126.978485896684,37.5667268649198,http://place.map.kakao.com/1447993960,,unknown,unknown,,0,0
1339609715,시민청 군기시유적전시실,"문화,예술 > 문화시설 > 전시관",CT1,문화시설,,서울 중구 태평로1가 31,서울 중구 세종대로 110,126.978656789016,37.5668151935356,http://place.map.kakao.com/1339609715,,unknown,unknown,,1,5.0
26781276,그레뱅뮤지엄,"문화,예술 > 문화시설 > 박물관",CT1,문화시설,02-752-8201,서울 중구 을지로1가 63,서울 중구 을지로 23,126.980391001423,37.5663073326083,http://place.map.kakao.com/26781276,,unknown,unknown,#뮤지컬공연 #아이와체험 #전시공간 #트릭아이뮤지엄 ,1,1.0
12697270,미래기술 체험관 티움,"문화,예술 > 문화시설 > 전시관",CT1,문화시설,02-6353-6665,서울 중구 을지로2가 11,서울 중구 을지로 65,126.985099651856,37.5665314677789,http://place.map.kakao.com/12697270,,unknown,unknown,,3,3.0
598343139,공간형,"문화,예술 > 문화시설 > 전시관",CT1,문화시설,,서울 중구 을지로2가 101-2,서울 중구 을지로 105,126.989550300605,37.5664382420232,http://place.map.kakao.com/598343139,,unknown,unknown,,0,0
27504840,무한상상실,"문화,예술 > 문화시설 > 전시관",CT1,문화시설,,서울 종로구 평동 85-15,서울 종로구 경교장길 8,126.966305169434,37.5674069717004,http://place.map.kakao.com/27504840,,unknown,unknown,,0,0
8987923,문화일보홀,"문화,예술 > 문화시설 > 공연장,연극극장",CT1,문화시설,02-3701-5832,서울 중구 충정로1가 68,서울 중구 새문안로 22,126.968646123861,37.567036406339,http://place.map.kakao.com/8987923,,unknown,unknown,,1,5.0
13498855,청춘극장,"문화,예술 > 영화,영상 > 영화관",CT1,문화시설,02-739-5423,서울 중구 충정로1가 68,서울 중구 새문안로 22,126.968664210245,37.5670940748742,http://place.map.kakao.com/13498855,,unknown,unknown,#문화예술공간 #제로페이 ,0,0
17066572,아주갤러리,"문화,예술 > 문화시설 > 미술관",CT1,문화시설,02-767-1621,서울 중구 충정로1가 58-3,서울 중구 새문안로 26,126.968804413732,37.5674617182909,http://place.map.kakao.com/17066572,,unknown,unknown,,0,0
1610551587,국토발전전시관,"문화,예술 > 문화시설 > 전시관",CT1,문화시설,02-3425-8900,서울 중구 정동 28-5,서울 중구 정동길 18,126.97008485950153,37.56683765958173,http://place.map.kakao.com/1610551587,,unknown,unknown,,8,4.0
8060842,정동문화예술회관 정동A&C,"문화,예술 > 문화시설 > 공연장,연극극장",CT1,문화시설,02-778-9817,서울 중구 정동 15-5,서울 중구 정동길 21-15,126.970964056141,37.5675956165668,http://place.map.kakao.com/8060842,,unknown,unknown,,0,0
1677777616,성암고서박물관,"문화,예술 > 문화시설 > 박물관",CT1,문화시설,02-725-5227,서울 중구 태평로1가 60-17,서울 중구 세종대로21길 22,126.97604409037,37.5676291925203,http://place.map.kakao.com/1677777616,,unknown,unknown,,0,0
107324777,서울도시건축전시관,"문화,예술 > 문화시설 > 전시관",CT1,문화시설,02-736-8050,서울 중구 태평로1가 60-6,서울 중구 세종대로 119,126.97670535593808,37.56690492421112,http://place.map.kakao.com/107324777,,unknown,unknown,,6,4.3
748166001,서울시민청 바스락홀,"문화,예술 > 문화시설 > 공연장,연극극장",CT1,문화시설,02-739-5225,서울 중구 태평로1가 31,서울 중구 세종대로 110,126.978563388844,37.5668778859271,http://place.map.kakao.com/748166001,,unknown,unknown,,0,0
1534626313,아트스페이스호화,"문화,예술 > 문화시설 > 전시관",CT1,문화시설,,서울 중구 태평로1가 25,서울 중구 세종대로 124,126.977873331336,37.5674205185068,http://place.map.kakao.com/1534626313,,unknown,unknown,,0,0
18809282,페럼타워 페럼홀,"문화,예술 > 문화시설 > 공연장,연극극장",CT1,문화시설,02-6353-8558,서울 중구 수하동 66,서울 중구 을지로5길 19,126.984130644256,37.5670034633584,http://place.map.kakao.com/18809282,,unknown,unknown,,0,0
27510328,KF갤러리,"문화,예술 > 문화시설 > 전시관",CT1,문화시설,,서울 중구 수하동 67,서울 중구 을지로5길 26,126.985475302407,37.5672559152847,http://place.map.kakao.com/27510328,,unknown,unknown,,0,0
8091032,중구문화원,"문화,예술 > 문화시설 > 문화원",CT1,문화시설,02-775-3068(팩스),서울 중구 장교동 1,서울 중구 청계천로 86,126.986525668878,37.5675227345974,http://place.map.kakao.com/8091032,,unknown,unknown,,1,3.0
536646213,서울도시건축센터,"문화,예술 > 문화시설 > 전시관",CT1,문화시설,02-739-2974,서울 종로구 신문로2가 6,서울 종로구 송월길 2,126.968745126477,37.5684852337187,http://place.map.kakao.com/536646213,,unknown,unknown,#문화예술공간 #아이와체험 ,1,5.0
1766344793,서울 도시재생이야기관,"문화,예술 > 문화시설 > 전시관",CT1,문화시설,070-4160-3963,서울 종로구 신문로2가 6,서울 종로구 송월길 2,126.96874510690012,37.56853208548537,http://place.map.kakao.com/1766344793,,unknown,unknown,,2,5.0
26606071,서울아트시네마,"문화,예술 > 영화,영상 > 영화관",CT1,문화시설,02-741-9782,서울 중구 정동 22,서울 중구 정동길 3,126.96997000422864,37.56816479719067,http://place.map.kakao.com/26606071,,unknown,unknown,,16,4.7
8118857,경향아트힐,"문화,예술 > 문화시설 > 공연장,연극극장",CT1,문화시설,,서울 중구 정동 22,서울 중구 정동길 3,126.970044695457,37.5682044599751,http://place.map.kakao.com/8118857,,unknown,unknown,,5,1.8
27144632,롤링볼뮤지엄,"문화,예술 > 문화시설 > 박물관",CT1,문화시설,,서울 중구 정동 22,서울 중구 정동길 3,126.970003953332,37.5681864297172,http://place.map.kakao.com/27144632,,unknown,unknown,,0,0
2102995894,허리우드스카이쇼공연장,"문화,예술 > 문화시설 > 공연장,연극극장",CT1,문화시설,02-762-7870,서울 중구 정동 22-8,서울 중구 정동길 3,126.97023041601506,37.56799187197225,http://place.map.kakao.com/2102995894,,unknown,unknown,,0,0
14867118,밸루션,"문화,예술 > 문화시설 > 전시관",CT1,문화시설,02-1544-3852,서울 중구 정동 22,서울 중구 정동길 3,126.969990376002,37.5681720103361,http://place.map.kakao.com/14867118,,unknown,unknown,,0,0
1631116379,구세군역사박물관,"문화,예술 > 문화시설 > 박물관",CT1,문화시설,02-725-1180,서울 중구 정동 1-23,서울 중구 덕수궁길 130,126.973843530088,37.5679494799678,http://place.map.kakao.com/1631116379,,unknown,unknown,,0,0
12110587,한국금융사박물관 (휴관중),"문화,예술 > 문화시설 > 박물관",CT1,문화시설,02-2151-7677,서울 중구 태평로1가 62-12,서울 중구 세종대로 135-5,126.976410528269,37.568591529702,http://place.map.kakao.com/12110587,,unknown,unknown,#아이와체험 ,2,4.5
8064435,신한갤러리 광화문,"문화,예술 > 문화시설 > 미술관",CT1,문화시설,02-722-8493,서울 중구 태평로1가 62-12,서울 중구 세종대로 135-5,126.9763516826,37.5685446661572,http://place.map.kakao.com/8064435,,unknown,unknown,,0,0
910453874,CKL스테이지,"문화,예술 > 문화시설 > 공연장,연극극장",CT1,문화시설,02-6441-3951,서울 중구 다동 10,서울 중구 청계천로 40,126.981318589692,37.5685815964224,http://place.map.kakao.com/910453874,,unknown,unknown,#뮤지컬공연 #소극장 ,2,5.0
1357502888,아름다운청년전태일기념관,"문화,예술 > 문화시설 > 기념관",CT1,문화시설,02-318-0903,서울 종로구 관수동 152-1,서울 종로구 청계천로 105,126.98938249808266,37.56842041782943,http://place.map.kakao.com/1357502888,,unknown,unknown,,15,4.7
1481203143,돈의문역사관,"문화,예술 > 문화시설 > 전시관",CT1,문화시설,02-724-0271,서울 종로구 신문로2가 7-33,서울 종로구 새문안로 35-54,126.968781044412,37.5692132476349,http://place.map.kakao.com/1481203143,,unknown,unknown,#아이와체험 ,7,4.3
313773882,돈의문전시관 아지오,"문화,예술 > 문화시설 > 전시관",CT1,문화시설,,서울 종로구 신문로2가 7-33,서울 종로구 새문안로 35-54,126.968781044412,37.5692132476349,http://place.map.kakao.com/313773882,,unknown,unknown,,1,5.0
847661120,서대문여관,"문화,예술 > 문화시설 > 전시관",CT1,문화시설,,서울 종로구 신문로2가 22-2,서울 종로구 새문안로 41-3,126.969197728068,37.5688998106424,http://place.map.kakao.com/847661120,,unknown,unknown,,0,0
135579439,스코필드기념관,"문화,예술 > 문화시설 > 기념관",CT1,문화시설,,서울 종로구 신문로2가 31,서울 종로구 새문안로 35-40,126.969066424875,37.5688961723291,http://place.map.kakao.com/135579439,,unknown,unknown,,2,5.0
614300905,템포러리,"문화,예술 > 문화시설 > 전시관",CT1,문화시설,,서울 종로구 신문로2가 18-1,서울 종로구 새문안로 37,126.969324584817,37.5687052286294,http://place.map.kakao.com/614300905,,unknown,unknown,,1,5.0
12110587,한국금융사박물관 (휴관중),"문화,예술 > 문화시설 > 박물관",CT1,문화시설,02-2151-7677,서울 중구 태평로1가 62-12,서울 중구 세종대로 135-5,126.976410528269,37.568591529702,http://place.map.kakao.com/12110587,,unknown,unknown,#아이와체험 ,2,4.5
674500395,청계천광교갤러리,"문화,예술 > 문화시설 > 미술관",CT1,문화시설,,서울 중구 남대문로1가 9,,126.982857972923,37.5687764450283,http://place.map.kakao.com/674500395,,unknown,unknown,#사진전시 ,0,0
18294028,시네코아셰프전용관,"문화,예술 > 문화시설 > 공연장,연극극장",CT1,문화시설,02-766-0815,서울 종로구 관철동 33-1,서울 종로구 삼일대로 386,126.988010499202,37.5690437754281,http://place.map.kakao.com/18294028,,unknown,unknown,,1,5.0
7912425,사춤전용관,"문화,예술 > 문화시설 > 공연장,연극극장",CT1,문화시설,02-3676-7617,서울 종로구 관철동 33-1,서울 종로구 삼일대로 386,126.988200692854,37.5688671994577,http://place.map.kakao.com/7912425,,unknown,unknown,,0,0
12163060,MC코어채플린홀,"문화,예술 > 문화시설 > 공연장,연극극장",CT1,문화시설,,서울 종로구 관철동 33-1,서울 종로구 삼일대로 386,126.988096544365,37.5689320606846,http://place.map.kakao.com/12163060,,unknown,unknown,,0,0
1684105979,세화미술관,"문화,예술 > 문화시설 > 미술관",CT1,문화시설,02-2002-7786,서울 종로구 신문로2가 133,서울 종로구 새문안로 68,126.972031873157,37.5695023810776,http://place.map.kakao.com/1684105979,,unknown,unknown,,3,4.3
15533457,씨네큐브 광화문점,"문화,예술 > 영화,영상 > 영화관",CT1,문화시설,02-2002-7776,서울 종로구 신문로1가 226,서울 종로구 새문안로 68,126.972131429357,37.5696501678756,http://place.map.kakao.com/15533457,,unknown,unknown,#문화예술공간 ,26,4.3
12722556,일주앤선화갤러리,"문화,예술 > 문화시설 > 미술관",CT1,문화시설,02-2002-7777,서울 종로구 신문로1가 226,서울 종로구 새문안로 68,126.972140480917,37.5696609819573,http://place.map.kakao.com/12722556,,unknown,unknown,,0,0
11179476,일민미술관,"문화,예술 > 문화시설 > 미술관",CT1,문화시설,02-2020-2050,서울 종로구 세종로 139-8,서울 종로구 세종대로 152,126.977637157186,37.5698819940064,http://place.map.kakao.com/11179476,,unknown,unknown,,14,3.4
7982743,신문박물관PRESSEUM,"문화,예술 > 문화시설 > 박물관",CT1,문화시설,02-2020-1880,서울 종로구 세종로 139-5,서울 종로구 세종대로 152,126.977682403001,37.5699901220177,http://place.map.kakao.com/7982743,,unknown,unknown,,4,2.3
289102858,세븐픽쳐스,"문화,예술 > 문화시설 > 전시관",CT1,문화시설,,서울 종로구 서린동 154-1,서울 종로구 종로 6,126.977886199385,37.5698387931381,http://place.map.kakao.com/289102858,,unknown,unknown,,0,0
11098140,아트센터나비,"문화,예술 > 문화시설 > 미술관",CT1,문화시설,02-2121-1031,서울 종로구 서린동 99,서울 종로구 종로 26,126.980557593063,37.5698825110856,http://place.map.kakao.com/11098140,,unknown,unknown,,1,1.0
1822812421,갤러리공간미끌,"문화,예술 > 문화시설 > 미술관",CT1,문화시설,,서울 종로구 종로2가 84-1,서울 종로구 종로 74,126.985610614673,37.5699445028014,http://place.map.kakao.com/1822812421,,unknown,unknown,,0,0
2040233934,우미관극장,"문화,예술 > 문화시설 > 공연장,연극극장",CT1,문화시설,,서울 종로구 관철동 15-1,서울 종로구 종로14길 4,126.986710893999,37.5698257003851,http://place.map.kakao.com/2040233934,,unknown,unknown,,1,5.0
655301169,종로아트프라자,"문화,예술 > 문화시설 > 전시관",CT1,문화시설,,서울 종로구 관철동 15-1,서울 종로구 종로14길 4,126.986731264323,37.5698527325395,http://place.map.kakao.com/655301169,,unknown,unknown,,0,0
1789307918,갤러리393,"문화,예술 > 문화시설 > 전시관",CT1,문화시설,02-733-0393,서울 종로구 관철동 6-3,서울 종로구 삼일대로 393,126.987390090167,37.5696744076494,http://place.map.kakao.com/1789307918,,unknown,unknown,,0,0
7934135,서울역사박물관,"문화,예술 > 문화시설 > 박물관",CT1,문화시설,02-724-0274,서울 종로구 신문로2가 2-1,서울 종로구 새문안로 55,126.970546366796,37.5705003227005,http://place.map.kakao.com/7934135,,unknown,unknown,,27,4.3
9113904,서울 역사박물관 전시기획과,"문화,예술 > 문화시설 > 박물관",CT1,문화시설,,서울 종로구 신문로2가 2-1,서울 종로구 새문안로 55,126.970546355442,37.5705291545475,http://place.map.kakao.com/9113904,,unknown,unknown,,0,0
261624688,갤러리내일,"문화,예술 > 문화시설 > 전시관",CT1,문화시설,,서울 종로구 신문로1가 58-45,서울 종로구 새문안로3길 3,126.972393670246,37.57065574032,http://place.map.kakao.com/261624688,,unknown,unknown,,0,0
27319342,교보아트스페이스,"문화,예술 > 문화시설 > 전시관",CT1,문화시설,,서울 종로구 종로1가 1,서울 종로구 종로 1,126.977804291421,37.5712118946362,http://place.map.kakao.com/27319342,,unknown,unknown,#아이와체험 ,0,0
18862658,디프로젝트스페이스 구슬모아당구장,"문화,예술 > 문화시설 > 전시관",CT1,문화시설,02-3785-0667,서울 종로구 청진동 246,서울 종로구 종로3길 17,126.97892272039232,37.57106794037852,http://place.map.kakao.com/18862658,,unknown,unknown,,11,3.5
1262632041,갤러리시선,"문화,예술 > 문화시설 > 미술관",CT1,문화시설,,서울 종로구 청진동 70,서울 종로구 종로 33,126.98163038872454,37.571082808670006,http://place.map.kakao.com/1262632041,,unknown,unknown,,0,0
22316655,국립아시아문화전당 아시아예술커뮤니티,"문화,예술 > 문화시설 > 공연장,연극극장",CT1,문화시설,02-3704-3457,서울 종로구 공평동 70,서울 종로구 종로 51,126.983609144306,37.570755137706,http://place.map.kakao.com/22316655,,unknown,unknown,,0,0
19120053,육의전박물관,"문화,예술 > 문화시설 > 박물관",CT1,문화시설,,서울 종로구 종로2가 40,서울 종로구 수표로 105,126.989087888751,37.5705287204247,http://place.map.kakao.com/19120053,,unknown,unknown,,0,0
27307026,CGV 피카디리1958,"문화,예술 > 영화,영상 > 영화관 > CJCGV",CT1,문화시설,1544-1122,서울 종로구 돈의동 137,서울 종로구 돈화문로5가길 1,126.991311005494,37.5710118384587,http://place.map.kakao.com/27307026,,unknown,unknown,#카카오페이 ,20,2.8
1742544800,피카디리국제미술관,"문화,예술 > 문화시설 > 미술관",CT1,문화시설,070-4251-3888,서울 종로구 돈의동 137,서울 종로구 돈화문로5가길 1,126.99101215115728,37.57113254944832,http://place.map.kakao.com/1742544800,,unknown,unknown,,0,0
206411746,국립기상박물관,"문화,예술 > 문화시설 > 박물관",CT1,문화시설,070-7850-8493,서울 종로구 신문로2가 1-430,서울 종로구 송월길 52,126.966264876069,37.5714163900279,http://place.map.kakao.com/206411746,,y,n,,3,3.7
932087275,팡타개라지,"문화,예술 > 문화시설 > 공연장,연극극장",CT1,문화시설,02-730-5516,서울 종로구 신문로2가 1-181,서울 종로구 경희궁1가길 7,126.969024355752,37.5720820807144,http://place.map.kakao.com/932087275,,unknown,unknown,,0,0
301973138,엔트리갤러리,"문화,예술 > 문화시설 > 전시관",CT1,문화시설,02-720-7201,서울 종로구 신문로1가 238,서울 종로구 새문안로3길 12,126.972945828589,37.5713190006438,http://place.map.kakao.com/301973138,,unknown,unknown,#제로페이 ,0,0
25587453,세종문화회관 미술관,"문화,예술 > 문화시설 > 미술관",CT1,문화시설,02-399-1114,서울 종로구 세종로 81-3,서울 종로구 세종대로 175,126.976183103242,37.5718530872608,http://place.map.kakao.com/25587453,,unknown,unknown,#미술전시 #사진전시 #실내데이트 #아이와체험 #인형극 #팝아트 ,11,3.8
18607961,세종문화회관 M씨어터,"문화,예술 > 문화시설 > 공연장,연극극장",CT1,문화시설,02-399-1114,서울 종로구 세종로 160-1,서울 종로구 세종대로 175,126.975685044186,37.5718133419444,http://place.map.kakao.com/18607961,,unknown,unknown,#문화예술공간 #뮤지컬공연 #어린이뮤지컬 #오페라공연 ,0,0
11571750,세종문화회관 체임버홀,"문화,예술 > 문화시설 > 공연장,연극극장",CT1,문화시설,02-399-1114,서울 종로구 세종로 81-3,서울 종로구 세종대로 175,126.975748352154,37.5720692375751,http://place.map.kakao.com/11571750,,unknown,unknown,#문화예술공간 #뮤지컬공연 #오페라공연 ,2,3.0
17556590,광화문광장 해치마당,"문화,예술 > 문화시설 > 전시관",CT1,문화시설,,서울 종로구 세종로 1-68,서울 종로구 세종대로 175,126.976934695744,37.5719937917344,http://place.map.kakao.com/17556590,,unknown,unknown,,3,4.7
2044073546,서울지하철 시대관,"문화,예술 > 문화시설 > 전시관",CT1,문화시설,,서울 종로구 세종로 1-68,서울 종로구 세종대로 지하 172,126.976568045613,37.571634222476,http://place.map.kakao.com/2044073546,,unknown,unknown,,0,0
8030800,KT스퀘어,"문화,예술 > 문화시설 > 공연장,연극극장",CT1,문화시설,1577-5599,서울 종로구 세종로 100,서울 종로구 세종대로 178,126.97797160567606,37.57195074200544,http://place.map.kakao.com/8030800,,unknown,unknown,,3,3.0
1763422389,KT스퀘어 드림홀,"문화,예술 > 문화시설 > 공연장,연극극장",CT1,문화시설,1577-5599,서울 종로구 세종로 100,서울 종로구 세종대로 178,126.97797612618,37.5719759707117,http://place.map.kakao.com/1763422389,,unknown,unknown,,0,0
243033563,종로홍보관,"문화,예술 > 문화시설 > 전시관",CT1,문화시설,,서울 종로구 청진동 146-3,,126.97989612436156,37.57140328037411,http://place.map.kakao.com/243033563,,unknown,unknown,,0,0
593401689,공평도시유적전시관,"문화,예술 > 문화시설 > 박물관",CT1,문화시설,02-724-0135,서울 종로구 공평동 5-1,서울 종로구 우정국로 26,126.98338702457757,37.57190117255984,http://place.map.kakao.com/593401689,,unknown,unknown,,15,4.1
230775646,하나투어 히스토리룸,"문화,예술 > 문화시설 > 전시관",CT1,문화시설,,서울 종로구 공평동 1,서울 종로구 인사동5길 41,126.98417036713,37.5718508244681,http://place.map.kakao.com/230775646,,unknown,unknown,,0,0
9521439,하나로갤러리,"문화,예술 > 문화시설 > 미술관",CT1,문화시설,02-720-4646,서울 종로구 인사동 194-4,서울 종로구 인사동5길 25,126.985406439834,37.5721140743101,http://place.map.kakao.com/9521439,,unknown,unknown,,0,0
23680078,박물관은살아있다 인사동점,"문화,예술 > 문화시설 > 박물관",CT1,문화시설,02-2034-0600,서울 종로구 인사동 43,서울 종로구 인사동길 12,126.987276534799,37.5717935364132,http://place.map.kakao.com/23680078,,unknown,unknown,,5,3.6
8053124,한국미술관,"문화,예술 > 문화시설 > 미술관",CT1,문화시설,02-720-1161,서울 종로구 인사동 43,서울 종로구 인사동길 12,126.98723576319,37.571912463369,http://place.map.kakao.com/8053124,,unknown,unknown,,1,5.0
514610734,호산붓박물관,"문화,예술 > 문화시설 > 박물관",CT1,문화시설,02-734-4197,서울 종로구 인사동 153-1,서울 종로구 인사동3길 6,126.9864784505,37.5720024785696,http://place.map.kakao.com/514610734,,unknown,unknown,#아이와체험 ,1,4.0
22341898,한국예술문화원,"문화,예술 > 문화시설 > 문화원",CT1,문화시설,,서울 종로구 인사동 43,서울 종로구 인사동길 12,126.98722218001387,37.571908857919134,http://place.map.kakao.com/22341898,,unknown,unknown,,1,1.0
13641851,아트앤스마트 갤러리,"문화,예술 > 문화시설 > 전시관",CT1,문화시설,02-735-6266,서울 종로구 인사동 39,서울 종로구 인사동길 14,126.986954994402,37.5721250675226,http://place.map.kakao.com/13641851,,unknown,unknown,,0,0
10949995,한국예술문화센터,"문화,예술 > 문화시설 > 미술관",CT1,문화시설,,서울 종로구 인사동 131,서울 종로구 인사동길 5,126.98700039223,37.5714439202046,http://place.map.kakao.com/10949995,,unknown,unknown,,0,0
24941134,남인사마당,"문화,예술 > 문화시설 > 공연장,연극극장",CT1,문화시설,,서울 종로구 인사동 43-2,서울 종로구 인사동길 6,126.98736374801648,37.571493514391584,http://place.map.kakao.com/24941134,,unknown,unknown,,0,0
19083666,춘원당한의약박물관,"문화,예술 > 문화시설 > 박물관",CT1,문화시설,02-3672-2005,서울 종로구 낙원동 155,서울 종로구 돈화문로9길 27,126.99032160228836,37.57149289294144,http://place.map.kakao.com/19083666,,unknown,unknown,,0,0
1478977958,양정원갤러리,"문화,예술 > 문화시설 > 미술관",CT1,문화시설,010-3619-0667,서울 종로구 행촌동 6,서울 종로구 송월1길 56,126.964831383097,37.5722935409127,http://place.map.kakao.com/1478977958,,unknown,unknown,,0,0
1847666883,세종문화회관 S씨어터,"문화,예술 > 문화시설 > 공연장,연극극장",CT1,문화시설,02-399-1114,서울 종로구 세종로 81-7,서울 종로구 세종대로 175,126.97515948536,37.5727754952377,http://place.map.kakao.com/1847666883,,unknown,unknown,#문화예술공간 #뮤지컬공연 #소극장 #어린이공연 #오페라공연 ,0,0
8373453,세종문화회관,"문화,예술 > 문화시설 > 공연장,연극극장",CT1,문화시설,02-399-1000,서울 종로구 세종로 81-3,서울 종로구 세종대로 175,126.97572100551191,37.57262064091815,http://place.map.kakao.com/8373453,,unknown,unknown,,29,3.7
27151624,세종문화회관 대극장,"문화,예술 > 문화시설 > 공연장,연극극장",CT1,문화시설,02-399-1111,서울 종로구 세종로 81-4,서울 종로구 세종대로 175,126.976069582189,37.5728621787462,http://place.map.kakao.com/27151624,,unknown,unknown,#뮤지컬공연 #오페라공연 ,5,3.2
12729157,충무공이야기,"문화,예술 > 문화시설 > 기념관",CT1,문화시설,02-399-1000,서울 종로구 세종로 81-3,서울 종로구 세종대로 175,126.976173863688,37.5724297222418,http://place.map.kakao.com/12729157,,unknown,unknown,,1,4.0
18583642,세종문화회관 세종예술아카데미,"문화,예술 > 문화시설 > 공연장,연극극장",CT1,문화시설,02-399-1606,서울 종로구 세종로 81-4,서울 종로구 세종대로 175,126.97589412977398,37.5728400686737,http://place.map.kakao.com/18583642,,unknown,unknown,#제로페이 ,0,0
1780832908,세종문화회관 서비스플라자,"문화,예술 > 문화시설 > 공연장,연극극장",CT1,문화시설,,서울 종로구 세종로 81-4,서울 종로구 세종대로 175,126.975888492884,37.5727684384225,http://place.map.kakao.com/1780832908,,unknown,unknown,,0,0
18583637,세종문화회관 전시관,"문화,예술 > 문화시설 > 전시관",CT1,문화시설,02-399-1152,서울 종로구 세종로 81-4,서울 종로구 세종대로 175,126.975870396071,37.5727215829861,http://place.map.kakao.com/18583637,,unknown,unknown,,0,0
11571761,세종문화회관 광화랑,"문화,예술 > 문화시설 > 전시관",CT1,문화시설,,서울 종로구 세종로 81-4,서울 종로구 세종대로 175,126.97589755814,37.5727396084344,http://place.map.kakao.com/11571761,,unknown,unknown,,0,0
11238239,세종문화회관 대관안내,"문화,예술 > 문화시설 > 공연장,연극극장",CT1,문화시설,02-399-1617,서울 종로구 세종로 81-4,서울 종로구 세종대로 175,126.975897554656,37.5727504203734,http://place.map.kakao.com/11238239,,unknown,unknown,,0,0
10587734,세종문화회관 뮤지컬단,"문화,예술 > 문화시설 > 공연장,연극극장",CT1,문화시설,02-399-1771,서울 종로구 세종로 81-4,서울 종로구 세종대로 175,126.975902091927,37.5727215894603,http://place.map.kakao.com/10587734,,unknown,unknown,,0,0
9892529,세종문화회관 무용단,"문화,예술 > 문화시설 > 공연장,연극극장",CT1,문화시설,02-399-1765,서울 종로구 세종로 81-4,서울 종로구 세종대로 175,126.975888513798,37.5727035667882,http://place.map.kakao.com/9892529,,unknown,unknown,,0,0
9314636,세종문화회관 화원,"문화,예술 > 문화시설 > 공연장,연극극장",CT1,문화시설,02-399-1594,서울 종로구 세종로 81-4,서울 종로구 세종대로 175,126.975888499855,37.5727468145445,http://place.map.kakao.com/9314636,,unknown,unknown,,0,0
10582522,세종문화회관 청소년교향악단,"문화,예술 > 문화시설 > 공연장,연극극장",CT1,문화시설,02-399-1789,서울 종로구 세종로 81-4,서울 종로구 세종대로 175,126.97588850217902,37.57273960658514,http://place.map.kakao.com/10582522,,unknown,unknown,,0,0
10600218,세종문화회관 소년소녀합창단,"문화,예술 > 문화시설 > 공연장,연극극장",CT1,문화시설,02-399-1753,서울 종로구 세종로 81-4,서울 종로구 세종대로 175,126.975902094249,37.572714381501,http://place.map.kakao.com/10600218,,unknown,unknown,,0,0
9282607,세종문화회관 아루비쥬,"문화,예술 > 문화시설 > 공연장,연극극장",CT1,문화시설,02-399-1596,서울 종로구 세종로 81-3,서울 종로구 세종대로 175,126.975720994982,37.5726530767358,http://place.map.kakao.com/9282607,,unknown,unknown,,0,0
24767256,유비쿼터스드림전시관,"문화,예술 > 문화시설 > 전시관",CT1,문화시설,,서울 종로구 세종로 100,서울 종로구 세종대로 178,126.977953437639,37.5721417495727,http://place.map.kakao.com/24767256,,unknown,unknown,,0,0
23713424,일조원갤러리,"문화,예술 > 문화시설 > 미술관",CT1,문화시설,02-723-3588,서울 종로구 견지동 111,서울 종로구 우정국로 38,126.983500125824,37.5723408740229,http://place.map.kakao.com/23713424,,unknown,unknown,,0,0
27316531,갤러리라메르,"문화,예술 > 문화시설 > 미술관",CT1,문화시설,02-730-5454,서울 종로구 관훈동 198-1,서울 종로구 인사동5길 26,126.98494223644524,37.57255730558019,http://place.map.kakao.com/27316531,,unknown,unknown,#문화예술공간 #미술전시 #사진전시 #아이와체험 ,4,3.8
11118966,아름다운차박물관,"문화,예술 > 문화시설 > 박물관",CT1,문화시설,02-735-6678,서울 종로구 인사동 193-1,서울 종로구 인사동길 19-11,126.985881825528,37.5723700147182,http://place.map.kakao.com/11118966,,unknown,unknown,,14,3.7
2042226786,블루원갤러리,"문화,예술 > 문화시설 > 미술관",CT1,문화시설,,서울 종로구 인사동 190-2,서울 종로구 인사동5길 15-1,126.98552860067102,37.57259792369035,http://place.map.kakao.com/2042226786,,unknown,unknown,,0,0
186498394,갤러리케이티에이,"문화,예술 > 문화시설 > 미술관",CT1,문화시설,02-757-7485,서울 종로구 관훈동 198-33,서울 종로구 인사동5길 14,126.985356506153,37.5727591805743,http://place.map.kakao.com/186498394,,unknown,unknown,,0,0
899393968,무우수갤러리,"문화,예술 > 문화시설 > 미술관",CT1,문화시설,02-732-3690,서울 종로구 인사동 168,서울 종로구 인사동길 19-2,126.986325511411,37.572665593314,http://place.map.kakao.com/899393968,,unknown,unknown,,0,0
590416928,갤러리시작,"문화,예술 > 문화시설 > 미술관",CT1,문화시설,,서울 종로구 인사동 39,서울 종로구 인사동길 14,126.986982153281,37.5721755262452,http://place.map.kakao.com/590416928,,unknown,unknown,,0,0
1010192998,갤러리보아,"문화,예술 > 문화시설 > 미술관",CT1,문화시설,,서울 종로구 인사동 15,서울 종로구 인사동길 24,126.986506580393,37.5729431206036,http://place.map.kakao.com/1010192998,,unknown,unknown,,0,0
1490290749,한국미술협회 문화원,"문화,예술 > 문화시설 > 문화원",CT1,문화시설,02-722-8643,서울 종로구 인사동 37,서울 종로구 인사동길 16,126.986868927408,37.5723304848572,http://place.map.kakao.com/1490290749,,unknown,unknown,,0,0
1348730757,실버영화관,"문화,예술 > 영화,영상 > 영화관",CT1,문화시설,02-3672-4232,서울 종로구 낙원동 284-6,서울 종로구 삼일대로 428,126.9878299395856,37.57261620326433,http://place.map.kakao.com/1348730757,,unknown,unknown,,3,4.3
12165606,모두의 극장,"문화,예술 > 영화,영상 > 영화관",CT1,문화시설,02-742-4231,서울 종로구 낙원동 284-6,서울 종로구 삼일대로 428,126.987827673399,37.5726297179559,http://place.map.kakao.com/12165606,,unknown,unknown,,0,0
1345891117,낭만극장,"문화,예술 > 영화,영상 > 영화관",CT1,문화시설,,서울 종로구 낙원동 252,서울 종로구 삼일대로 428,126.988108388023,37.5727540838764,http://place.map.kakao.com/1345891117,,unknown,unknown,,0,0
201548590,d/p,"문화,예술 > 문화시설 > 전시관",CT1,문화시설,,서울 종로구 낙원동 288,서울 종로구 삼일대로 428,126.987898967415,37.5727630725455,http://place.map.kakao.com/201548590,,unknown,unknown,,0,0
17672074,아트라운지멋진하늘,"문화,예술 > 문화시설 > 공연장,연극극장",CT1,문화시설,02-745-0517,서울 종로구 낙원동 284-6,서울 종로구 삼일대로 428,126.988109512283,37.572802737719,http://place.map.kakao.com/17672074,,unknown,unknown,,1,3.0
743057672,우리열린극장,"문화,예술 > 문화시설 > 공연장,연극극장",CT1,문화시설,,서울 종로구 낙원동 288,서울 종로구 삼일대로 428,126.987643226932,37.5722152410742,http://place.map.kakao.com/743057672,,unknown,unknown,,0,0
1832546941,스페이스 사직,"문화,예술 > 문화시설 > 박물관",CT1,문화시설,070-4912-6544,서울 종로구 사직동 181-3,서울 종로구 경희궁3가길 8-4,126.967043975881,37.5733023926656,http://place.map.kakao.com/1832546941,,unknown,unknown,,0,0
11147054,성곡미술관,"문화,예술 > 문화시설 > 미술관",CT1,문화시설,02-737-7650,서울 종로구 신문로2가 1-101,서울 종로구 경희궁길 42,126.969780082012,37.5731706785274,http://place.map.kakao.com/11147054,,unknown,unknown,,8,3.8
12728670,축구전시관,"문화,예술 > 문화시설 > 전시관",CT1,문화시설,02-2002-0707,서울 종로구 신문로2가 1-131,서울 종로구 경희궁길 46,126.969096223497,37.5734840477058,http://place.map.kakao.com/12728670,,unknown,unknown,,2,5.0
471727157,세상에서 제일작은한평극장,"문화,예술 > 문화시설 > 공연장,연극극장",CT1,문화시설,,서울 종로구 내수동 74,서울 종로구 사직로8길 42,126.973117006386,37.5737733501373,http://place.map.kakao.com/471727157,,unknown,unknown,,0,0
12729021,세종이야기,"문화,예술 > 문화시설 > 기념관",CT1,문화시설,02-399-1154,서울 종로구 세종로 1-68,,126.97691619022386,37.57326959703341,http://place.map.kakao.com/12729021,,unknown,unknown,,7,4.9
442375548,대한민국역사박물관 상설기증관,"문화,예술 > 문화시설 > 박물관",CT1,문화시설,,서울 종로구 세종로 82-1,서울 종로구 세종대로 198,126.977831815185,37.5738283893336,http://place.map.kakao.com/442375548,,unknown,unknown,,1,5.0
19339316,조계사 도심포교100주년기념관,"문화,예술 > 문화시설 > 기념관",CT1,문화시설,02-768-8562,서울 종로구 수송동 46-10,서울 종로구 우정국로 45-20,126.981724956405,37.5732019637732,http://place.map.kakao.com/19339316,,unknown,unknown,,0,0
18573750,OCI미술관,"문화,예술 > 문화시설 > 미술관",CT1,문화시설,02-734-0440,서울 종로구 수송동 46-15,서울 종로구 우정국로 45-14,126.9821098451121,37.57316868591575,http://place.map.kakao.com/18573750,,unknown,unknown,,0,0
25047223,아라아트센터,"문화,예술 > 문화시설 > 전시관",CT1,문화시설,02-733-1981,서울 종로구 견지동 85-15,서울 종로구 인사동9길 26,126.983649336439,37.5733103653783,http://place.map.kakao.com/25047223,,unknown,unknown,,3,2.3
12776797,인사동 홍보관,"문화,예술 > 문화시설 > 전시관",CT1,문화시설,02-737-7891,서울 종로구 견지동 85-18,서울 종로구 인사동11길 19,126.98364018738,37.5737356336895,http://place.map.kakao.com/12776797,,unknown,unknown,#데이트코스 #한복체험 ,0,0
2100994611,아라모던아트뮤지엄,"문화,예술 > 문화시설 > 전시관",CT1,문화시설,02-732-1177,서울 종로구 견지동 85-24,서울 종로구 인사동9길 26,126.983622116258,37.5735482242546,http://place.map.kakao.com/2100994611,,unknown,unknown,#아이와체험 ,1,4.0
8099727,인사아트센터,"문화,예술 > 문화시설 > 전시관",CT1,문화시설,02-736-1020,서울 종로구 관훈동 188,서울 종로구 인사동길 41-1,126.98460576893604,37.573848387905215,http://place.map.kakao.com/8099727,,unknown,unknown,,3,3.3
8316656,백악미술관,"문화,예술 > 문화시설 > 미술관",CT1,문화시설,02-734-4205,서울 종로구 관훈동 192-21,서울 종로구 인사동9길 16,126.984233374424,37.5736708427746,http://place.map.kakao.com/8316656,,unknown,unknown,,0,0
26601040,뮤지엄김치간,"문화,예술 > 문화시설 > 박물관",CT1,문화시설,02-6002-6456,서울 종로구 관훈동 192-15,서울 종로구 인사동길 35-4,126.984903537733,37.5736024547676,http://place.map.kakao.com/26601040,,unknown,unknown,,2,3.0
11991801,전북도립미술관 서울관,"문화,예술 > 문화시설 > 미술관",CT1,문화시설,02-720-4354,서울 종로구 관훈동 188,서울 종로구 인사동길 41-1,126.984600102383,37.5738799219848,http://place.map.kakao.com/11991801,,unknown,unknown,,0,0
25040611,서경갤러리,"문화,예술 > 문화시설 > 미술관",CT1,문화시설,02-733-0434,서울 종로구 관훈동 192-18,서울 종로구 인사동7길 32,126.984382912536,37.5731302657177,http://place.map.kakao.com/25040611,,unknown,unknown,,0,0
10200703,풀무원김치박물관,"문화,예술 > 문화시설 > 박물관",CT1,문화시설,,서울 종로구 관훈동 192-15,서울 종로구 인사동길 35-4,126.984867322949,37.5735555983981,http://place.map.kakao.com/10200703,,unknown,unknown,,0,0
1947932267,G&J 광주전남갤러리,"문화,예술 > 문화시설 > 전시관",CT1,문화시설,02-725-0040,서울 종로구 관훈동 192-15,서울 종로구 인사동길 35-4,126.98484015367296,37.573561000881455,http://place.map.kakao.com/1947932267,,unknown,unknown,,0,0
12519557,갤러리스카이연,"문화,예술 > 문화시설 > 전시관",CT1,문화시설,,서울 종로구 관훈동 197-28,서울 종로구 인사동7길 12,126.985089286961,37.5731015252116,http://place.map.kakao.com/12519557,,unknown,unknown,,0,0
25700794,인사아트프라자 갤러리,"문화,예술 > 문화시설 > 미술관",CT1,문화시설,02-736-6347,서울 종로구 관훈동 21,서울 종로구 인사동길 34-1,126.985709475946,37.5738728535309,http://place.map.kakao.com/25700794,,unknown,unknown,,2,5.0
297684466,인사아트홀,"문화,예술 > 문화시설 > 공연장,연극극장",CT1,문화시설,02-722-9969,서울 종로구 관훈동 21,서울 종로구 인사동길 34-1,126.985591757773,37.5738151755535,http://place.map.kakao.com/297684466,,unknown,unknown,#문화예술공간 ,0,0
27212291,올갤러리,"문화,예술 > 문화시설 > 미술관",CT1,문화시설,,서울 종로구 관훈동 23,서울 종로구 인사동길 36,126.98544007490392,37.573780919139686,http://place.map.kakao.com/27212291,,unknown,unknown,,0,0
15549527,백송화랑,"문화,예술 > 문화시설 > 미술관",CT1,문화시설,02-730-5824,서울 종로구 관훈동 197-9,서울 종로구 인사동길 31-8,126.985496758971,37.5733502505713,http://place.map.kakao.com/15549527,,unknown,unknown,,0,0
17126923,아틀리에서울,"문화,예술 > 문화시설 > 미술관",CT1,문화시설,02-730-7837,서울 종로구 관훈동 7,서울 종로구 인사동길 30,126.986098983313,37.5733611349594,http://place.map.kakao.com/17126923,,unknown,unknown,,0,0
27159434,화봉책박물관,"문화,예술 > 문화시설 > 박물관",CT1,문화시설,02-737-0057,서울 종로구 관훈동 197-28,서울 종로구 인사동7길 12,126.98542548184874,37.573149319927325,http://place.map.kakao.com/27159434,,unknown,unknown,,0,0
21810304,창의물류갤러리낳이,"문화,예술 > 문화시설 > 미술관",CT1,문화시설,,서울 종로구 관훈동 196-3,서울 종로구 인사동길 35,126.985360869059,37.5736025123648,http://place.map.kakao.com/21810304,,unknown,unknown,,0,0
2070793963,갤러리산촌,"문화,예술 > 문화시설 > 전시관",CT1,문화시설,02-735-0312,서울 종로구 관훈동 2-1,서울 종로구 인사동길 30-13,126.986261911867,37.5737972355466,http://place.map.kakao.com/2070793963,,unknown,unknown,,0,0
1497768434,원에이치갤러리,"문화,예술 > 문화시설 > 미술관",CT1,문화시설,,서울 종로구 낙원동 280-4,서울 종로구 삼일대로 437,126.987303408663,37.5735234497186,http://place.map.kakao.com/1497768434,,unknown,unknown,,0,0
11470744,광화문아트홀,"문화,예술 > 문화시설 > 공연장,연극극장",CT1,문화시설,02-725-2311,서울 종로구 사직동 284-1,서울 종로구 인왕산로1길 21,126.964671968408,37.5742756820333,http://place.map.kakao.com/11470744,,unknown,unknown,#공간대여 #뮤지컬공연 #소극장 ,0,0
15104327,대한민국역사박물관,"문화,예술 > 문화시설 > 박물관",CT1,문화시설,02-3703-9200,서울 종로구 세종로 82-1,서울 종로구 세종대로 198,126.97785780450153,37.57398696929644,http://place.map.kakao.com/15104327,,unknown,unknown,,36,4.3
1589921532,서울지방국세청 국세홍보관,"문화,예술 > 문화시설 > 전시관",CT1,문화시설,02-2114-5615,서울 종로구 수송동 104,서울 종로구 종로5길 86,126.9798999142,37.5741495137175,http://place.map.kakao.com/1589921532,,unknown,unknown,,0,0
17808472,조계사 불교역사문화기념관,"문화,예술 > 문화시설 > 기념관",CT1,문화시설,02-2011-1700,서울 종로구 수송동 38-2,서울 종로구 우정국로 55,126.981733745705,37.5742939708717,http://place.map.kakao.com/17808472,,unknown,unknown,,0,0
8079764,전통문화예술공연장,"문화,예술 > 문화시설 > 공연장,연극극장",CT1,문화시설,02-2011-1700,서울 종로구 수송동 44-2,서울 종로구 우정국로 55,126.9817292097058,37.57432640598065,http://place.map.kakao.com/8079764,,unknown,unknown,,0,0
844839897,체신기념관,"문화,예술 > 문화시설 > 기념관",CT1,문화시설,02-734-8369,서울 종로구 견지동 39-7,서울 종로구 우정국로 59,126.982616685933,37.5744418673248,http://place.map.kakao.com/844839897,,unknown,unknown,,2,5.0
8138151,불교중앙박물관,"문화,예술 > 문화시설 > 박물관",CT1,문화시설,02-2011-1960,서울 종로구 수송동 38-2,서울 종로구 우정국로 55,126.9819894929616,37.57466341800256,http://place.map.kakao.com/8138151,,unknown,unknown,,1,1.0
309581586,컬러풀뮤지엄,"문화,예술 > 문화시설 > 전시관",CT1,문화시설,02-6954-2872,서울 종로구 견지동 74-1,서울 종로구 인사동길 49,126.983549473557,37.5744311890571,http://place.map.kakao.com/309581586,,unknown,unknown,#문화예술공간 #아이와체험 #제로페이 ,3,1.3
555421049,인사센트럴뮤지엄,"문화,예술 > 문화시설 > 전시관",CT1,문화시설,,서울 종로구 관훈동 155-2,서울 종로구 인사동길 49,126.984070210405,37.5743970226732,http://place.map.kakao.com/555421049,,unknown,unknown,,7,4.3
1236834953,쌈지길 기획전시실,"문화,예술 > 문화시설 > 전시관",CT1,문화시설,1661-3972,서울 종로구 관훈동 38,서울 종로구 인사동길 44,126.984741505955,37.574360170564,http://place.map.kakao.com/1236834953,,unknown,unknown,,0,0
24266251,갤러리인덱스,"문화,예술 > 문화시설 > 미술관",CT1,문화시설,02-722-6635,서울 종로구 관훈동 185,서울 종로구 인사동길 45,126.984432498524,37.5741970501689,http://place.map.kakao.com/24266251,,unknown,unknown,,0,0
536322865,헬로우심쿵,"문화,예술 > 문화시설 > 전시관",CT1,문화시설,1661-3972,서울 종로구 관훈동 38,서울 종로구 인사동길 44,126.984894360099,37.5742043181291,http://place.map.kakao.com/536322865,,unknown,unknown,,1,5.0
25701401,다크룸,"문화,예술 > 문화시설 > 전시관",CT1,문화시설,02-6959-4392,서울 종로구 관훈동 38,서울 종로구 인사동길 44,126.984935075697,37.5743881262616,http://place.map.kakao.com/25701401,,unknown,unknown,,1,5.0
408691051,갤러리통큰,"문화,예술 > 문화시설 > 미술관",CT1,문화시설,,서울 종로구 관훈동 74,서울 종로구 인사동길 52,126.98426486822,37.574633109396,http://place.map.kakao.com/408691051,,unknown,unknown,,0,0
27470110,코사스페이스갤러리,"문화,예술 > 문화시설 > 미술관",CT1,문화시설,,서울 종로구 관훈동 37,서울 종로구 인사동길 40,126.985138908073,37.574042170107,http://place.map.kakao.com/27470110,,unknown,unknown,,0,0
1180792779,라이프러리 아카이브,"문화,예술 > 문화시설 > 전시관",CT1,문화시설,02-363-5855,서울 종로구 관훈동 72,서울 종로구 인사동길 50,126.984446013021,37.5745322219945,http://place.map.kakao.com/1180792779,,unknown,unknown,,0,0
8199463,경인미술관,"문화,예술 > 문화시설 > 미술관",CT1,문화시설,02-733-4448,서울 종로구 관훈동 30-1,서울 종로구 인사동10길 11-4,126.985442208787,37.5744494575308,http://place.map.kakao.com/8199463,,unknown,unknown,,9,4.3
8556588,인사갤러리,"문화,예술 > 문화시설 > 미술관",CT1,문화시설,,서울 종로구 관훈동 29-23,서울 종로구 인사동10길 10,126.985646063195,37.5739773612357,http://place.map.kakao.com/8556588,,unknown,unknown,#제로페이 ,0,0
12721519,하나아트갤러리,"문화,예술 > 문화시설 > 미술관",CT1,문화시설,02-736-0877,서울 종로구 관훈동 27-5,서울 종로구 인사동10길 2,126.985288358852,37.5739160495538,http://place.map.kakao.com/12721519,,unknown,unknown,,1,5.0
27470110,코사스페이스갤러리,"문화,예술 > 문화시설 > 미술관",CT1,문화시설,,서울 종로구 관훈동 37,서울 종로구 인사동길 40,126.985138908073,37.574042170107,http://place.map.kakao.com/27470110,,unknown,unknown,,0,0
14594707,아트피플,"문화,예술 > 문화시설 > 미술관",CT1,문화시설,02-2269-5061,서울 종로구 관훈동 37,서울 종로구 인사동길 40,126.985143433269,37.5740565865933,http://place.map.kakao.com/14594707,,unknown,unknown,#제로페이 ,0,0
1350420752,갤러리해인,"문화,예술 > 문화시설 > 전시관",CT1,문화시설,010-9190-7750,서울 종로구 경운동 64-13,서울 종로구 인사동10길 24,126.986252754416,37.5743486432913,http://place.map.kakao.com/1350420752,,unknown,unknown,#제로페이 ,0,0
26984139,갤러리건국,"문화,예술 > 문화시설 > 전시관",CT1,문화시설,070-8226-0806,서울 종로구 경운동 47-17,서울 종로구 삼일대로 443,126.987081459953,37.5739595071422,http://place.map.kakao.com/26984139,,unknown,unknown,,0,0
15962051,중앙공예,"문화,예술 > 문화시설 > 미술관",CT1,문화시설,02-732-6494,서울 종로구 낙원동 58-1,서울 종로구 삼일대로30길 21,126.988494173068,37.5742191397822,http://place.map.kakao.com/15962051,,unknown,unknown,,0,0
18860686,정선갤러리,"문화,예술 > 문화시설 > 전시관",CT1,문화시설,02-720-6676,서울 종로구 와룡동 69,서울 종로구 돈화문로 68,126.991174748192,37.5745797685051,http://place.map.kakao.com/18860686,,unknown,unknown,#아이와체험 #제로페이 ,1,5.0
216995295,운경기념관,"문화,예술 > 문화시설 > 기념관",CT1,문화시설,,서울 종로구 사직동 1-57,서울 종로구 인왕산로 7,126.966338029996,37.5748744293253,http://place.map.kakao.com/216995295,,unknown,unknown,,0,0
12447673,동덕아트갤러리,"문화,예술 > 문화시설 > 전시관",CT1,문화시설,02-732-6458,서울 종로구 관훈동 151-8,서울 종로구 우정국로 68,126.983268609845,37.5749789543555,http://place.map.kakao.com/12447673,,unknown,unknown,,0,0
1417941448,갤러리 인사아트,"문화,예술 > 문화시설 > 전시관",CT1,문화시설,02-734-1333,서울 종로구 관훈동 119,서울 종로구 인사동길 56,126.983936503121,37.5749970670194,http://place.map.kakao.com/1417941448,,unknown,unknown,#아이와체험 ,0,0
27112644,북인사마당,"문화,예술 > 문화시설 > 공연장,연극극장",CT1,문화시설,,서울 종로구 관훈동 130-3,서울 종로구 인사동길 62,126.983508504633,37.5754114655268,http://place.map.kakao.com/27112644,,unknown,unknown,,0,0
12531729,예당,"문화,예술 > 문화시설 > 전시관",CT1,문화시설,02-732-5364,서울 종로구 관훈동 118-25,서울 종로구 인사동16길 3-10,126.983947731356,37.5754259419822,http://place.map.kakao.com/12531729,,unknown,unknown,,0,0
612212492,나무아트,"문화,예술 > 문화시설 > 미술관",CT1,문화시설,,서울 종로구 관훈동 105,서울 종로구 인사동길 54-1,126.98402482065696,37.57490697953872,http://place.map.kakao.com/612212492,,unknown,unknown,,0,0
1490573702,서울문화홍보원,"문화,예술 > 문화시설 > 문화원",CT1,문화시설,02-2273-1253,서울 종로구 관훈동 110,서울 종로구 율곡로 44-8,126.98448655947736,37.57552692541305,http://place.map.kakao.com/1490573702,,unknown,unknown,,0,0
1412204668,리수갤러리,"문화,예술 > 문화시설 > 전시관",CT1,문화시설,02-720-0342,서울 종로구 관훈동 84-24,서울 종로구 인사동14길 24-3,126.98553495783295,37.57484590660004,http://place.map.kakao.com/1412204668,,unknown,unknown,#아이와체험 ,0,0
9290049,예전사,"문화,예술 > 문화시설 > 전시관",CT1,문화시설,,서울 종로구 경운동 88,서울 종로구 삼일대로 457,126.986157479321,37.5753505382311,http://place.map.kakao.com/9290049,,unknown,unknown,,0,0
27558021,한글전각미술관,"문화,예술 > 문화시설 > 미술관",CT1,문화시설,02-723-2324,서울 종로구 경운동 89-4,서울 종로구 삼일대로 461,126.98582687874092,37.57559556952654,http://place.map.kakao.com/27558021,,unknown,unknown,,0,0
27495541,학아재미술관,"문화,예술 > 문화시설 > 미술관",CT1,문화시설,02-766-7647,서울 종로구 경운동 89-4,서울 종로구 삼일대로 461,126.9858348077885,37.57557034263061,http://place.map.kakao.com/27495541,,unknown,unknown,,0,0
16471912,동인문화원,"문화,예술 > 문화시설 > 문화원",CT1,문화시설,02-762-4034,서울 종로구 익선동 30-6,서울 종로구 삼일대로32길 36,126.989105315554,37.5752283118195,http://place.map.kakao.com/16471912,,unknown,unknown,,0,0
8344444,떡박물관,"문화,예술 > 문화시설 > 박물관",CT1,문화시설,02-741-5447,서울 종로구 와룡동 164-2,서울 종로구 돈화문로 71,126.990649448489,37.5749076901335,http://place.map.kakao.com/8344444,,unknown,unknown,,2,3.0
919372338,나마갤러리,"문화,예술 > 문화시설 > 미술관",CT1,문화시설,02-379-5687,서울 종로구 와룡동 93-1,서울 종로구 돈화문로 80-1,126.990830487242,37.5756068761527,http://place.map.kakao.com/919372338,,unknown,unknown,,1,5.0
8430934,서울메트로미술관,"문화,예술 > 문화시설 > 전시관",CT1,문화시설,,서울 종로구 적선동 81-1,서울 종로구 사직로 지하 130,126.973673233759,37.5758241393372,http://place.map.kakao.com/8430934,,unknown,unknown,,1,4.0
2032093531,광화시대,"문화,예술 > 문화시설 > 전시관",CT1,문화시설,,서울 종로구 적선동 81-1,서울 종로구 사직로 지하 130,126.973717399222,37.5757790994531,http://place.map.kakao.com/2032093531,,unknown,unknown,,0,0
8071409,종로문화원,"문화,예술 > 문화시설 > 문화원",CT1,문화시설,02-2148-4087,서울 종로구 중학동 24,서울 종로구 율곡로 5,126.980365790249,37.5761101564138,http://place.map.kakao.com/8071409,,unknown,unknown,,1,5.0
24268177,탑골미술관,"문화,예술 > 문화시설 > 미술관",CT1,문화시설,02-6220-8663,서울 종로구 경운동 90-3,서울 종로구 삼일대로 467,126.985840397691,37.575941553048,http://place.map.kakao.com/24268177,,unknown,unknown,,0,0
1364166565,한국국제아트페어,"문화,예술 > 문화시설 > 미술관",CT1,문화시설,,서울 종로구 경운동 89-4,서울 종로구 삼일대로 461,126.98550082337964,37.57574149104632,http://place.map.kakao.com/1364166565,,unknown,unknown,,0,0
11494384,제이갤러리,"문화,예술 > 문화시설 > 미술관",CT1,문화시설,,서울 종로구 경운동 89-4,서울 종로구 삼일대로 461,126.98550082337964,37.57574149104632,http://place.map.kakao.com/11494384,,unknown,unknown,,0,0
17574803,운현궁 유물전시관,"문화,예술 > 문화시설 > 전시관",CT1,문화시설,,서울 종로구 운니동 114-10,서울 종로구 삼일대로 464,126.986881789335,37.5764462302652,http://place.map.kakao.com/17574803,,unknown,unknown,#유물전시 ,0,0
16021641,대한황실문화원,"문화,예술 > 문화시설 > 문화원",CT1,문화시설,02-743-1897,서울 종로구 와룡동 139,서울 종로구 돈화문로 89,126.990151148504,37.57648439006445,http://place.map.kakao.com/16021641,,unknown,unknown,,1,5.0
11285860,국악기전시관,"문화,예술 > 문화시설 > 전시관",CT1,문화시설,02-742-1318,서울 종로구 운니동 49-1,서울 종로구 돈화문로11가길 77-7,126.98980708063,37.5759275462779,http://place.map.kakao.com/11285860,,unknown,unknown,,0,0
26905709,황학정 국궁전시관,"문화,예술 > 문화시설 > 전시관",CT1,문화시설,02-722-1600,서울 종로구 사직동 산 1-11,서울 종로구 사직로9길 15-32,126.964765745351,37.5770615850763,http://place.map.kakao.com/26905709,,unknown,unknown,,1,5.0
26981008,서울유치원역사전시관,"문화,예술 > 문화시설 > 전시관",CT1,문화시설,,서울 종로구 사직동 1-27,서울 종로구 사직로9길 15-8,126.967043566907,37.5767991526228,http://place.map.kakao.com/26981008,,unknown,unknown,,0,0
8214304,국립고궁박물관,"문화,예술 > 문화시설 > 박물관",CT1,문화시설,02-3701-7500,서울 종로구 세종로 1-57,서울 종로구 효자로 12,126.974823115204,37.576635285174,http://place.map.kakao.com/8214304,,unknown,unknown,,22,4.5
9475956,갤러리현대,"문화,예술 > 문화시설 > 미술관",CT1,문화시설,02-2287-3500,서울 종로구 사간동 80,서울 종로구 삼청로 14,126.97985039338867,37.57728226325563,http://place.map.kakao.com/9475956,,unknown,unknown,,2,4.5
17513074,갤러리현대 본관,"문화,예술 > 문화시설 > 미술관",CT1,문화시설,02-2287-3591,서울 종로구 사간동 122,서울 종로구 삼청로 8,126.97985056770656,37.57663534934952,http://place.map.kakao.com/17513074,,unknown,unknown,,1,4.0
1395978192,서울공예박물관 어린이박물관,"문화,예술 > 문화시설 > 박물관",CT1,문화시설,,서울 종로구 안국동 175-112,서울 종로구 율곡로3길 4,126.982895731892,37.5769043261638,http://place.map.kakao.com/1395978192,,unknown,unknown,,0,0
1038056172,서울공예박물관,"문화,예술 > 문화시설 > 박물관",CT1,문화시설,02-6450-7000,서울 종로구 안국동 175-2,서울 종로구 율곡로3길 4,126.98329088000077,37.57663678742704,http://place.map.kakao.com/1038056172,,unknown,unknown,,35,4.4
1479985456,갤러리더플럭스,"문화,예술 > 문화시설 > 전시관",CT1,문화시설,02-3663-7537,서울 종로구 안국동 63-1,서울 종로구 윤보선길 28,126.983974487784,37.5773504697247,http://place.map.kakao.com/1479985456,,unknown,unknown,,1,3.0
1058701476,아트로직스페이스,"문화,예술 > 문화시설 > 전시관",CT1,문화시설,02-735-7955,서울 종로구 안국동 63-1,서울 종로구 윤보선길 28,126.983971094487,37.5773369543497,http://place.map.kakao.com/1058701476,,unknown,unknown,,0,0
176787398,아티스트큐브,"문화,예술 > 문화시설 > 전시관",CT1,문화시설,,서울 종로구 안국동 63-1,서울 종로구 윤보선길 28,126.983979022221,37.577321638523,http://place.map.kakao.com/176787398,,unknown,unknown,,0,0
2108894844,킵인터치,"문화,예술 > 문화시설 > 전시관",CT1,문화시설,,서울 종로구 안국동 109,서울 종로구 북촌로1길 13,126.984948070912,37.5773145581055,http://place.map.kakao.com/2108894844,,unknown,unknown,,0,0
549419880,한옥란갤러리,"문화,예술 > 문화시설 > 전시관",CT1,문화시설,,서울 종로구 안국동 110,서울 종로구 율곡로5길 18-5,126.984979779575,37.5772605024865,http://place.map.kakao.com/549419880,,unknown,unknown,,0,0
1037171324,일본문화원,"문화,예술 > 문화시설 > 문화원",CT1,문화시설,,서울 종로구 운니동 114-8,서울 종로구 율곡로 64,126.98662361395,37.5768246189401,http://place.map.kakao.com/1037171324,,unknown,unknown,,9,3.2
1811870430,서울우리소리박물관,"문화,예술 > 문화시설 > 박물관",CT1,문화시설,02-742-2600,서울 종로구 와룡동 5-9,서울 종로구 율곡로 96,126.9896189928122,37.57714207035938,http://place.map.kakao.com/1811870430,,unknown,unknown,,8,4.3
26952171,서울돈화문국악당,"문화,예술 > 문화시설 > 공연장,연극극장",CT1,문화시설,02-3210-7002,서울 종로구 와룡동 13,서울 종로구 율곡로 102,126.990671800431,37.5772214457464,http://place.map.kakao.com/26952171,,unknown,unknown,,7,4.7
14930642,서울무형문화재 돈화문 교육전시장,"문화,예술 > 문화시설 > 전시관",CT1,문화시설,02-742-6444,서울 종로구 권농동 127-4,서울 종로구 율곡로10길 13,126.9911065465007,37.576936765090245,http://place.map.kakao.com/14930642,,unknown,unknown,,1,5.0
8129692,표갤러리,"문화,예술 > 문화시설 > 미술관",CT1,문화시설,02-543-7337,서울 종로구 체부동 120-2,서울 종로구 자하문로5길 18-4,126.97082873644398,37.57789575768786,http://place.map.kakao.com/8129692,,unknown,unknown,,0,0
136380522,TYA서촌,"문화,예술 > 문화시설 > 미술관",CT1,문화시설,010-8060-9481,서울 종로구 체부동 126,서울 종로구 자하문로5길 28,126.970312542225,37.5778172425068,http://place.map.kakao.com/136380522,,unknown,unknown,,0,0
1050667060,스페이스깨,"문화,예술 > 문화시설 > 전시관",CT1,문화시설,,서울 종로구 체부동 134,서울 종로구 자하문로5길 15,126.970969217053,37.5776290980353,http://place.map.kakao.com/1050667060,,unknown,unknown,,0,0
595557737,갤러리B,"문화,예술 > 문화시설 > 미술관",CT1,문화시설,02-737-8574,서울 종로구 체부동 28-2,서울 종로구 자하문로7길 5,126.971276934955,37.5781625618643,http://place.map.kakao.com/595557737,,unknown,unknown,#제로페이 ,0,0
341652379,그라운드시소 서촌,"문화,예술 > 문화시설 > 전시관",CT1,문화시설,02-501-9544,서울 종로구 통의동 35-17,서울 종로구 자하문로6길 18-8,126.972916300185,37.5778385914657,http://place.map.kakao.com/341652379,,unknown,unknown,,40,3.1
8299285,대림미술관,"문화,예술 > 문화시설 > 미술관",CT1,문화시설,02-720-0667,서울 종로구 통의동 35-1,서울 종로구 자하문로4길 21,126.97336244129605,37.5775449688657,http://place.map.kakao.com/8299285,,unknown,unknown,,29,3.8
8778944,갤러리시몬,"문화,예술 > 문화시설 > 미술관",CT1,문화시설,02-549-3031,서울 종로구 통의동 35-9,서울 종로구 자하문로6길 20,126.97329204906,37.5781161832806,http://place.map.kakao.com/8778944,,unknown,unknown,,1,4.0
1054632204,국립고궁박물관 별관,"문화,예술 > 문화시설 > 박물관",CT1,문화시설,,서울 종로구 세종로 1-1,서울 종로구 사직로 161,126.974574804154,37.5777858016662,http://place.map.kakao.com/1054632204,,unknown,unknown,,1,5.0
12163059,금호미술관,"문화,예술 > 문화시설 > 미술관",CT1,문화시설,02-720-5114,서울 종로구 사간동 78,서울 종로구 삼청로 18,126.979894494703,37.577465172613,http://place.map.kakao.com/12163059,,unknown,unknown,,5,3.6
10589343,아프리카미술관,"문화,예술 > 문화시설 > 미술관",CT1,문화시설,02-730-2430,서울 종로구 사간동 69,서울 종로구 삼청로 22,126.979912482877,37.5779300886963,http://place.map.kakao.com/10589343,,unknown,unknown,,0,0
1664494795,아트비앤,"문화,예술 > 문화시설 > 전시관",CT1,문화시설,02-6012-1434,서울 종로구 사간동 41,서울 종로구 삼청로 22-31,126.980505718632,37.577818464872,http://place.map.kakao.com/1664494795,,unknown,unknown,,0,0
14982312,아라리오뮤지엄 인 스페이스,"문화,예술 > 문화시설 > 미술관",CT1,문화시설,02-736-5700,서울 종로구 원서동 229,서울 종로구 율곡로 83,126.988547970142,37.5777438354931,http://place.map.kakao.com/14982312,,unknown,unknown,,17,4.1
26557632,이상범가옥,"문화,예술 > 문화시설 > 전시관",CT1,문화시설,,서울 종로구 누하동 178,서울 종로구 필운대로 31-7,126.968396632153,37.5788682052583,http://place.map.kakao.com/26557632,,unknown,unknown,,0,0
1231489264,아트스페이스3,"문화,예술 > 문화시설 > 전시관",CT1,문화시설,02-730-5322,서울 종로구 통의동 7-33,서울 종로구 효자로7길 23,126.973319096728,37.5784585671646,http://place.map.kakao.com/1231489264,,unknown,unknown,#아이와체험 ,0,0
158908100,인디프레스갤러리,"문화,예술 > 문화시설 > 미술관",CT1,문화시설,070-7686-1125,서울 종로구 통의동 7-25,서울 종로구 효자로 31,126.973717475463,37.5787830144003,http://place.map.kakao.com/158908100,,unknown,unknown,,2,5.0
2118809273,보안1942,"문화,예술 > 문화시설 > 전시관",CT1,문화시설,,서울 종로구 통의동 2-1,서울 종로구 효자로 33,126.973668718956,37.579001044091,http://place.map.kakao.com/2118809273,,unknown,unknown,,5,4.2
23298803,진갤러리,"문화,예술 > 문화시설 > 미술관",CT1,문화시설,02-738-7570,서울 종로구 통의동 7-35,서울 종로구 자하문로6길 25,126.97349913667044,37.57834868643844,http://place.map.kakao.com/23298803,,unknown,unknown,#아이와체험 ,2,3.5
17952661,국립현대미술관 서울관,"문화,예술 > 문화시설 > 미술관",CT1,문화시설,02-3701-9500,서울 종로구 소격동 165-10,서울 종로구 삼청로 30,126.9800979573524,37.578627489574416,http://place.map.kakao.com/17952661,,unknown,unknown,,93,4.5
51384906,국립현대미술관서울관 아트팹랩,"문화,예술 > 문화시설 > 미술관",CT1,문화시설,,서울 종로구 소격동 165,서울 종로구 삼청로 30,126.980097955914,37.5786328955387,http://place.map.kakao.com/51384906,,unknown,unknown,,0,0
11048641,갤러리담,"문화,예술 > 문화시설 > 미술관",CT1,문화시설,,서울 종로구 안국동 7-1,서울 종로구 윤보선길 72,126.983444298366,37.5790803053311,http://place.map.kakao.com/11048641,,unknown,unknown,,2,4.5
251821607,제이콥1212,"문화,예술 > 문화시설 > 미술관",CT1,문화시설,,서울 종로구 재동 27-1,서울 종로구 북촌로 25,126.984845829227,37.579070582637,http://place.map.kakao.com/251821607,,unknown,unknown,,0,0
1571068944,명인옥션,"문화,예술 > 문화시설 > 미술관",CT1,문화시설,02-742-3111,서울 종로구 재동 38-1,서울 종로구 북촌로 21,126.98491040841786,37.57882281754813,http://place.map.kakao.com/1571068944,,unknown,unknown,,0,0
257207231,전통주갤러리,"문화,예술 > 문화시설 > 전시관",CT1,문화시설,02-555-2283,서울 종로구 재동 55,서울 종로구 북촌로 18,126.9858376674118,37.57840306918705,http://place.map.kakao.com/257207231,,unknown,unknown,,17,4.5
1462966471,갤러리재동,"문화,예술 > 문화시설 > 미술관",CT1,문화시설,,서울 종로구 재동 60,서울 종로구 북촌로 20-3,126.985579508481,37.5786336924248,http://place.map.kakao.com/1462966471,,unknown,unknown,,0,0
1192511266,통통바이츄,"문화,예술 > 문화시설 > 전시관",CT1,문화시설,,서울 종로구 계동 104-1,서울 종로구 계동길 33-2,126.986564372696,37.5789077108233,http://place.map.kakao.com/1192511266,,unknown,unknown,,0,0
11935558,북촌아트홀,"문화,예술 > 문화시설 > 공연장,연극극장",CT1,문화시설,02-988-2258,서울 종로구 원서동 157-1,서울 종로구 창덕궁길 29-4,126.98900062357,37.5789331908008,http://place.map.kakao.com/11935558,,unknown,unknown,#뮤지컬공연 #소극장 #아이와함께 #어린이공연 #어린이뮤지컬 #오페라공연 #제로페이 ,0,0
7910481,북촌창우극장,"문화,예술 > 문화시설 > 공연장,연극극장",CT1,문화시설,02-747-3809,서울 종로구 원서동 158-1,서울 종로구 창덕궁길 29-6,126.988864779873,37.5788863263743,http://place.map.kakao.com/7910481,,unknown,unknown,,1,5.0
534290752,북촌나래홀,"문화,예술 > 문화시설 > 공연장,연극극장",CT1,문화시설,,서울 종로구 원서동 174,서울 종로구 창덕궁길 29-38,126.988434593589,37.5788394333206,http://place.map.kakao.com/534290752,,unknown,unknown,,1,5.0
26325176,갤러리소행성,"문화,예술 > 문화시설 > 전시관",CT1,문화시설,,서울 종로구 누하동 64,서울 종로구 필운대로 43,126.968532056482,37.5798809586351,http://place.map.kakao.com/26325176,,unknown,unknown,,0,0
24894302,협동조합사진공방 공간291,"문화,예술 > 문화시설 > 전시관",CT1,문화시설,02-395-0291,서울 종로구 통인동 124,서울 종로구 자하문로11길 10-4,126.970791747074,37.5798491036006,http://place.map.kakao.com/24894302,,unknown,unknown,,0,0
798993249,창성동실험실,"문화,예술 > 문화시설 > 전시관",CT1,문화시설,,서울 종로구 창성동 144,서울 종로구 자하문로12길 11-5,126.97190566977498,37.58002596876224,http://place.map.kakao.com/798993249,,unknown,unknown,,0,0
26887803,온그라운드 지상소,"문화,예술 > 문화시설 > 전시관",CT1,문화시설,02-720-8260,서울 종로구 창성동 117-12,서울 종로구 자하문로10길 23,126.972779846692,37.5794999931382,http://place.map.kakao.com/26887803,,unknown,unknown,,60,3.3
12592063,갤러리에이큐브,"문화,예술 > 문화시설 > 미술관",CT1,문화시설,02-793-1115,서울 종로구 창성동 122-8,서울 종로구 자하문로12길 10-13,126.972553349153,37.5797125752589,http://place.map.kakao.com/12592063,,unknown,unknown,,1,3.0
1494934750,더그라운드,"문화,예술 > 문화시설 > 전시관",CT1,문화시설,,서울 종로구 창성동 117-10,서울 종로구 자하문로12길 10-15,126.972725442912,37.5796729714145,http://place.map.kakao.com/1494934750,,unknown,unknown,,0,0
8474452,아트선재센터,"문화,예술 > 문화시설 > 미술관",CT1,문화시설,02-733-8949,서울 종로구 소격동 144-2,서울 종로구 율곡로3길 87,126.981836609,37.5795738136114,http://place.map.kakao.com/8474452,,unknown,unknown,,8,4.1
27148388,송원아트센터,"문화,예술 > 문화시설 > 전시관",CT1,문화시설,02-735-9277,서울 종로구 화동 106-5,서울 종로구 윤보선길 75,126.983471413583,37.579328983475,http://place.map.kakao.com/27148388,,unknown,unknown,,2,3.0
12447800,서울교육박물관,"문화,예술 > 문화시설 > 박물관",CT1,문화시설,02-2011-5780,서울 종로구 화동 2,서울 종로구 북촌로5길 48,126.983276586049,37.5798082848136,http://place.map.kakao.com/12447800,,unknown,unknown,,3,5.0
1646297495,북촌전시실,"문화,예술 > 문화시설 > 전시관",CT1,문화시설,,서울 종로구 화동 2,서울 종로구 북촌로5길 48,126.983072860692,37.5795739973557,http://place.map.kakao.com/1646297495,,unknown,unknown,,0,0
27139183,코너갤러리,"문화,예술 > 문화시설 > 전시관",CT1,문화시설,,서울 종로구 재동 2-1,서울 종로구 북촌로5길 18,126.98394233236851,37.5794813164535,http://place.map.kakao.com/27139183,,unknown,unknown,,0,0
1392219290,소공헌,"문화,예술 > 문화시설 > 전시관",CT1,문화시설,02-6465-2210,서울 종로구 원서동 134-1,서울 종로구 창덕궁길 47,126.989131840857,37.5796558001363,http://place.map.kakao.com/1392219290,,unknown,unknown,,10,2.7
17132461,은덕문화원,"문화,예술 > 문화시설 > 문화원",CT1,문화시설,,서울 종로구 원서동 129-5,서울 종로구 창덕궁길 49,126.989127299618,37.5797440971233,http://place.map.kakao.com/17132461,,unknown,unknown,,3,5.0
548131450,갤러리 오뉴월,"문화,예술 > 문화시설 > 미술관",CT1,문화시설,02-745-6741,서울 종로구 원서동 136-3,서울 종로구 창덕궁1길 12,126.988574878137,37.5794566278812,http://place.map.kakao.com/548131450,,unknown,unknown,,0,0
11377187,전통문화원,"문화,예술 > 문화시설 > 문화원",CT1,문화시설,02-722-8254,서울 종로구 통인동 111,서울 종로구 자하문로 51,126.970886578474,37.5805302783619,http://place.map.kakao.com/11377187,,unknown,unknown,#아이와함께 #전통문화체험 #한복체험 ,0,0
12447481,국제갤러리 본관,"문화,예술 > 문화시설 > 미술관",CT1,문화시설,02-735-8449,서울 종로구 소격동 59-1,서울 종로구 삼청로 54,126.980459686997,37.5806836181488,http://place.map.kakao.com/12447481,,unknown,unknown,,21,2.8
1476542248,바라캇서울,"문화,예술 > 문화시설 > 미술관",CT1,문화시설,02-730-1949,서울 종로구 소격동 55,서울 종로구 삼청로 58-4,126.980640776938,37.5808710546875,http://place.map.kakao.com/1476542248,,unknown,unknown,#아이와체험 ,2,4.0
26462712,세움아트스페이스,"문화,예술 > 문화시설 > 미술관",CT1,문화시설,02-733-1943,서울 종로구 소격동 73,서울 종로구 삼청로 48,126.980206224812,37.5801862273384,http://place.map.kakao.com/26462712,,unknown,unknown,,0,0
1756998252,BGA 마루,"문화,예술 > 문화시설 > 전시관",CT1,문화시설,010-9217-8225,서울 종로구 소격동 90,서울 종로구 삼청로2길 26,126.981265819995,37.5804170546749,http://place.map.kakao.com/1756998252,,unknown,unknown,,0,0
2998056,JY아트갤러리,"문화,예술 > 문화시설 > 전시관",CT1,문화시설,,서울 종로구 소격동 35-3,서울 종로구 북촌로5가길 25,126.9817639156,37.5805540837313,http://place.map.kakao.com/2998056,,unknown,unknown,,0,0
1691396042,가고시포갤러리,"문화,예술 > 문화시설 > 미술관",CT1,문화시설,02-722-9669,서울 종로구 화동 99,서울 종로구 북촌로5가길 16,126.98216701332,37.5802802431958,http://place.map.kakao.com/1691396042,,unknown,unknown,,2,5.0
25973504,갤러리 기체,"문화,예술 > 문화시설 > 미술관",CT1,문화시설,010-553-3414,서울 종로구 화동 90-1,서울 종로구 북촌로5가길 20,126.98210923887864,37.58043430439741,http://place.map.kakao.com/25973504,,unknown,unknown,,0,0
667592658,갤러리단정,"문화,예술 > 문화시설 > 전시관",CT1,문화시설,02-6154-0058,서울 종로구 화동 102,서울 종로구 북촌로5가길 8-7,126.982420616822,37.5802334295553,http://place.map.kakao.com/667592658,,unknown,unknown,,0,0
974437016,크래프트온더힐,"문화,예술 > 문화시설 > 전시관",CT1,문화시설,02-747-5854,서울 종로구 가회동 97,서울 종로구 북촌로7길 20,126.983890004886,37.5806462943974,http://place.map.kakao.com/974437016,,unknown,unknown,,0,0
27139251,역사가옥박물관,"문화,예술 > 문화시설 > 박물관",CT1,문화시설,,서울 종로구 가회동 93-1,서울 종로구 북촌로7길 16,126.984032584012,37.5809616615844,http://place.map.kakao.com/27139251,,unknown,unknown,,0,0
1482475694,러브컨템포러리아트 서울,"문화,예술 > 문화시설 > 미술관",CT1,문화시설,,서울 종로구 가회동 99,서울 종로구 북촌로7길 18-4,126.984025864444,37.5806192830469,http://place.map.kakao.com/1482475694,,unknown,unknown,,0,0
20058590,북촌박물관,"문화,예술 > 문화시설 > 박물관",CT1,문화시설,02-766-8402,서울 종로구 가회동 170-4,서울 종로구 북촌로 39,126.984739162023,37.5802986236203,http://place.map.kakao.com/20058590,,unknown,unknown,,1,2.0
9987279,청남문화원,"문화,예술 > 문화시설 > 문화원",CT1,문화시설,02-762-7189,서울 종로구 가회동 170-4,서울 종로구 북촌로 39,126.98479236164512,37.58034548216515,http://place.map.kakao.com/9987279,,unknown,unknown,,0,0
9757996,명인박물관,"문화,예술 > 문화시설 > 박물관",CT1,문화시설,02-766-0272,서울 종로구 가회동 208-7,서울 종로구 북촌로6길 1,126.985210153839,37.5801256927512,http://place.map.kakao.com/9757996,,unknown,unknown,#아이와체험 ,1,5.0
1215851258,소쇼,"문화,예술 > 문화시설 > 미술관",CT1,문화시설,,서울 종로구 계동 92,서울 종로구 북촌로6길 32-4,126.986369416946,37.5802051197612,http://place.map.kakao.com/1215851258,,unknown,unknown,,2,5.0
27579022,성재전통건축자료관,"문화,예술 > 문화시설 > 박물관",CT1,문화시설,02-742-1311,서울 종로구 원서동 135-2,서울 종로구 창덕궁1가길 19,126.987972469986,37.580280977462,http://place.map.kakao.com/27579022,,unknown,unknown,,0,0
21631695,종로구립 박노수미술관,"문화,예술 > 문화시설 > 미술관",CT1,문화시설,,서울 종로구 옥인동 168-2,서울 종로구 옥인1길 34,126.966783450397,37.5813184655898,http://place.map.kakao.com/21631695,,unknown,n,#문화예술공간 #사진전시 #아이와체험 ,11,2.9
661026280,세종이야기미술관,"문화,예술 > 문화시설 > 미술관",CT1,문화시설,,서울 종로구 통인동 36-4,서울 종로구 자하문로17길 33,126.968839399754,37.581293798387,http://place.map.kakao.com/661026280,,unknown,unknown,,0,0
661026280,세종이야기미술관,"문화,예술 > 문화시설 > 미술관",CT1,문화시설,,서울 종로구 통인동 36-4,서울 종로구 자하문로17길 33,126.968839399754,37.581293798387,http://place.map.kakao.com/661026280,,unknown,unknown,,0,0
8191467,국립민속박물관,"문화,예술 > 문화시설 > 박물관",CT1,문화시설,02-3704-3114,서울 종로구 세종로 1-1,서울 종로구 사직로 161,126.9790329340514,37.5817087041721,http://place.map.kakao.com/8191467,,unknown,unknown,,22,2.4
11132352,세계장신구박물관,"문화,예술 > 문화시설 > 박물관",CT1,문화시설,02-730-0610,서울 종로구 화동 75-3,서울 종로구 북촌로5나길 2,126.981809094039,37.5809901716813,http://place.map.kakao.com/11132352,,unknown,unknown,,2,4.0
8125507,가회민화박물관,"문화,예술 > 문화시설 > 박물관",CT1,문화시설,02-741-0466,서울 종로구 가회동 28,서울 종로구 북촌로 52,126.985227994125,37.581509621394,http://place.map.kakao.com/8125507,,unknown,unknown,,1,1.0
7841800,동림매듭공방,"문화,예술 > 문화시설 > 박물관",CT1,문화시설,02-3673-2778,서울 종로구 가회동 11-7,서울 종로구 북촌로12길 10,126.985635502714,37.5818088015703,http://place.map.kakao.com/7841800,,unknown,unknown,,1,5.0
983287184,뮤지엄헤드,"문화,예술 > 문화시설 > 전시관",CT1,문화시설,02-595-9147,서울 종로구 계동 133-6,서울 종로구 계동길 84-3,126.9869647231712,37.58125304275514,http://place.map.kakao.com/983287184,,unknown,unknown,,0,0
1360720141,태오양스튜디오,"문화,예술 > 문화시설 > 전시관",CT1,문화시설,02-3672-2302,서울 종로구 계동 67-22,서울 종로구 계동길 97-8,126.986323857061,37.5817115760173,http://place.map.kakao.com/1360720141,,unknown,unknown,,0,0
10758949,인사미술공간,"문화,예술 > 문화시설 > 미술관",CT1,문화시설,02-760-4721,서울 종로구 원서동 90,서울 종로구 창덕궁길 89,126.989222137403,37.5815388854428,http://place.map.kakao.com/10758949,,unknown,unknown,,1,3.0
1164236447,갤러리림,"문화,예술 > 문화시설 > 미술관",CT1,문화시설,,서울 종로구 원서동 92,,126.9892561167921,37.5814307693015,http://place.map.kakao.com/1164236447,,unknown,unknown,,0,0