id,place_name,category_name,category_group_code,category_group_name,phone,address_name,road_address_name,x,y,place_url,distance,wheelchair,animal,keyword,evalnum,rate
23440299,글로벌패션아카데미,"교육,학문 > 학원 > 패션디자인학원",AC5,학원,02-778-9003,서울 중구 회현동3가 11-3,서울 중구 퇴계로 108,126.983729102092,37.5604874029795,http://place.map.kakao.com/23440299,,unknown,unknown,#제로페이 ,6,3.8
16983711,중앙교육개발원,"교육,학문 > 학원",AC5,학원,,서울 중구 회현동3가 11-3,서울 중구 퇴계로 108,126.983729102876,37.5604837989921,http://place.map.kakao.com/16983711,,unknown,unknown,,0,0
8454673,예음예술종합학원,"교육,학문 > 학원 > 음악학원",AC5,학원,,서울 중구 예장동 2-82,서울 중구 삼일대로2길 58,126.990750916007,37.5599547716837,http://place.map.kakao.com/8454673,,unknown,unknown,,0,0
541595646,초롱화실,"교육,학문 > 학원 > 미술학원",AC5,학원,,서울 서대문구 합동 117,서울 서대문구 서소문로 37,126.96561094203167,37.5608114787676,http://place.map.kakao.com/541595646,,unknown,n,,1,5.0
18717061,리더스교육,"교육,학문 > 학원",AC5,학원,070-4045-7775,서울 서대문구 합동 117,서울 서대문구 서소문로 37,126.965610942032,37.5608114787676,http://place.map.kakao.com/18717061,,unknown,unknown,,0,0
10407432,배상계보석감정원,"교육,학문 > 학원 > 보석감정,세공학원",AC5,학원,,서울 중구 남창동 3-1,서울 중구 남대문시장길 45-10,126.978382328702,37.5608469438026,http://place.map.kakao.com/10407432,,unknown,unknown,,0,0
8604596,한양검정고시학원,"교육,학문 > 학원 > 검정고시학원",AC5,학원,02-752-6333,서울 중구 충무로1가 25-6,서울 중구 명동8나길 45,126.98240248627,37.5610602466819,http://place.map.kakao.com/8604596,,unknown,unknown,,0,0
22729542,참빛피아노,"교육,학문 > 학원 > 음악학원 > 피아노학원",AC5,학원,02-773-3352,서울 중구 남산동3가 13-34,서울 중구 퇴계로24길 6,126.9870622535564,37.56065179670179,http://place.map.kakao.com/22729542,,unknown,unknown,,3,3.7
22378367,명동크리스챤쇼보 미용학원,"교육,학문 > 학원",AC5,학원,,서울 중구 남산동3가 13-36,서울 중구 퇴계로 134,126.986594803141,37.5607184183193,http://place.map.kakao.com/22378367,,unknown,unknown,,0,0
11411021,한국이미지진흥원,"교육,학문 > 학원",AC5,학원,,서울 중구 서소문동 120-20,서울 중구 세종대로9길 60,126.973261502389,37.5622298260559,http://place.map.kakao.com/11411021,,unknown,unknown,,0,0
661833563,태양중국어교습소,"교육,학문 > 학원 > 어학원 > 중국어학원",AC5,학원,,서울 중구 명동2가 105,서울 중구 남대문로 52-13,126.982261891291,37.5621125897825,http://place.map.kakao.com/661833563,,unknown,unknown,,0,0
9005222,모즈 복장학원,"교육,학문 > 학원 > 패션디자인학원",AC5,학원,02-756-0708,서울 중구 충무로2가 12-16,서울 중구 명동8가길 35,126.986916032026,37.5618969580937,http://place.map.kakao.com/9005222,,unknown,unknown,,0,0
19171551,서울 김치문화체험관,"교육,학문 > 학원",AC5,학원,02-318-7051,서울 중구 충무로2가 12-27,서울 중구 명동8가길 47,126.987672084522,37.561961911217,http://place.map.kakao.com/19171551,,unknown,unknown,,0,0
8692688,동양이엠에스,"교육,학문 > 학원",AC5,학원,02-2276-0432,서울 중구 충무로3가 57-8,서울 중구 퇴계로27길 28,126.991647031409,37.5623875297535,http://place.map.kakao.com/8692688,,unknown,unknown,,0,0
1082930503,삼락서실,"교육,학문 > 학원 > 서예,한문학원",AC5,학원,02-2275-5678,서울 중구 충무로3가 59-24,서울 중구 수표로2길 13,126.99122374683144,37.56219108178991,http://place.map.kakao.com/1082930503,,unknown,unknown,,0,0
717001418,오픽 시청센터,"교육,학문 > 학원 > 어학원 > 영어학원",AC5,학원,070-4352-0303,서울 중구 순화동 5-2,서울 중구 서소문로 89,126.970825652104,37.5625860439095,http://place.map.kakao.com/717001418,,unknown,unknown,,2,3.0
352095554,에스키친쿠킹스튜디오,"교육,학문 > 학원 > 요리학원",AC5,학원,,서울 중구 순화동 4-17,서울 중구 서소문로9길 28,126.970395284258,37.5632634861249,http://place.map.kakao.com/352095554,,unknown,unknown,,0,0
2104306199,송송스포츠,"교육,학문 > 학원",AC5,학원,,서울 중구 순화동 217,서울 중구 서소문로9길 28,126.970428115791,37.5632436724316,http://place.map.kakao.com/2104306199,,unknown,unknown,,0,0
1568389217,기타랑우쿨스쿨,"교육,학문 > 학원 > 음악학원",AC5,학원,010-3249-8733,서울 중구 서소문동 54-2,서울 중구 서소문로11길 2,126.973116343766,37.5630190660451,http://place.map.kakao.com/1568389217,,unknown,unknown,#제로페이 ,0,0
1208140091,KK실내인테리어디자인학원,"교육,학문 > 학원",AC5,학원,02-3672-8556,서울 중구 태평로2가 310,서울 중구 세종대로 73,126.975975428295,37.5629061568944,http://place.map.kakao.com/1208140091,,y,n,,0,0
1772071733,솔바이올린 시청점,"교육,학문 > 학원 > 음악학원",AC5,학원,,서울 중구 태평로2가 69-11,서울 중구 세종대로 70-1,126.976702224576,37.5624215664221,http://place.map.kakao.com/1772071733,,unknown,unknown,,0,0
1592056988,오하운폴댄스학원 시청점,"교육,학문 > 학원 > 무용학원,발레학원",AC5,학원,02-777-8481,서울 중구 북창동 18-9,서울 중구 세종대로14길 15,126.977494355755,37.562940694072,http://place.map.kakao.com/1592056988,,unknown,unknown,,16,4.2
12389439,똑딱잉글리쉬,"교육,학문 > 학원 > 어학원 > 영어학원",AC5,학원,,서울 중구 저동2가 50-2,서울 중구 수표로 21,126.990121231196,37.5630072975601,http://place.map.kakao.com/12389439,,unknown,unknown,,0,0
24370517,씨앤씨어학원,"교육,학문 > 학원 > 어학원",AC5,학원,02-393-6314,서울 서대문구 충정로2가 191,서울 서대문구 충정로 53,126.964636189822,37.5637556475713,http://place.map.kakao.com/24370517,,unknown,unknown,,0,0
27423057,오픈에이치알디,"교육,학문 > 학원",AC5,학원,02-6010-3001,서울 서대문구 충정로2가 191,서울 서대문구 충정로 53,126.964600030019,37.5636294972473,http://place.map.kakao.com/27423057,,unknown,unknown,,0,0
2075348816,예주랑 서울캠퍼스,"교육,학문 > 학원 > 음악학원",AC5,학원,02-3789-8936,서울 중구 순화동 217,서울 중구 서소문로9길 28,126.970041967588,37.5637102912078,http://place.map.kakao.com/2075348816,,unknown,unknown,,1,5.0
2013754076,시청센터 주한영국문화원 어린이어학원,"교육,학문 > 학원 > 어학원 > 영어학원",AC5,학원,1522-5009,서울 중구 정동 34-5,서울 중구 서소문로11길 19,126.97208381465204,37.5637792673822,http://place.map.kakao.com/2013754076,,unknown,unknown,,1,5.0
14790839,벌리츠어학원 시청센터,"교육,학문 > 학원 > 어학원",AC5,학원,02-775-1441,서울 중구 서소문동 47-2,서울 중구 서소문로 115,126.973632326731,37.5634156208387,http://place.map.kakao.com/14790839,,unknown,unknown,,0,0
1097583845,씨티색소폰,"교육,학문 > 학원 > 음악학원",AC5,학원,,서울 중구 서소문동 14-2,서울 중구 서소문로 139,126.976208194946,37.5641441730689,http://place.map.kakao.com/1097583845,,unknown,unknown,,0,0
12997414,미라클 웍스,"교육,학문 > 학원 > 어학원 > 영어학원",AC5,학원,,서울 중구 소공동 112-20,서울 중구 소공로 97,126.979703602513,37.5633771768147,http://place.map.kakao.com/12997414,,unknown,unknown,,0,0
12997414,미라클 웍스,"교육,학문 > 학원 > 어학원 > 영어학원",AC5,학원,,서울 중구 소공동 112-20,서울 중구 소공로 97,126.979703602513,37.5633771768147,http://place.map.kakao.com/12997414,,unknown,unknown,,0,0
157581967,CFA한국협회교육센터,"교육,학문 > 학원",AC5,학원,02-777-1430,서울 중구 소공동 81,서울 중구 남대문로7길 33,126.980033993116,37.5637916914876,http://place.map.kakao.com/157581967,,unknown,unknown,,0,0
1191940694,피아노에피소드,"교육,학문 > 학원 > 음악학원 > 피아노학원",AC5,학원,0507-1347-8543,서울 중구 저동2가 70-1,서울 중구 마른내로 12,126.9891113910066,37.56460017031442,http://place.map.kakao.com/1191940694,,unknown,y,,0,0
10579173,안중학원,"교육,학문 > 학원",AC5,학원,031-683-3107,서울 중구 저동2가 76-11,서울 중구 마른내로 15-1,126.98960483813,37.5649534053085,http://place.map.kakao.com/10579173,,unknown,unknown,,0,0
17047198,에치알플러스,"교육,학문 > 학원",AC5,학원,070-4352-4237,서울 중구 저동2가 73-4,서울 중구 마른내로 18,126.989727114538,37.5647083450434,http://place.map.kakao.com/17047198,,unknown,unknown,,0,0
555081776,위드체대입시,"교육,학문 > 학원 > 입시학원",AC5,학원,,서울 서대문구 충정로2가 37-7,서울 서대문구 충정로11길 26,126.965038276042,37.5655865915838,http://place.map.kakao.com/555081776,,unknown,unknown,,0,0
235008349,아이큐브컴퓨터교습소,"교육,학문 > 학원 > 컴퓨터학원",AC5,학원,,서울 서대문구 충정로2가 76,서울 서대문구 충정로11길 27,126.964771257692,37.5653594612004,http://place.map.kakao.com/235008349,,unknown,unknown,,0,0
15338050,메이븐랭귀지센터 시청센터,"교육,학문 > 학원 > 어학원 > 영어학원",AC5,학원,02-736-1105,서울 중구 을지로1가 192-11,서울 중구 을지로 6,126.979214090083,37.5653628874155,http://place.map.kakao.com/15338050,,unknown,unknown,#제로페이 ,0,0
26338784,수도학원,"교육,학문 > 학원 > 검정고시학원",AC5,학원,02-777-5777,서울 중구 을지로1가 192-11,서울 중구 을지로 6,126.979223141147,37.5653773049464,http://place.map.kakao.com/26338784,,unknown,unknown,,0,0
26824632,(주)태멘네트웍스,"교육,학문 > 학원",AC5,학원,,서울 중구 을지로1가 192-11,서울 중구 을지로 6,126.979214090083,37.5653628874155,http://place.map.kakao.com/26824632,,unknown,unknown,,0,0
20037110,우리경영아카데미학원,"교육,학문 > 학원 > 세무회계학원",AC5,학원,02-312-4321,서울 중구 을지로2가 198,서울 중구 을지로 50,126.983352192882,37.5656482582137,http://place.map.kakao.com/20037110,,unknown,unknown,,1,5.0
13336576,비엔나 뮤직인스티튜트,"교육,학문 > 학원 > 음악학원",AC5,학원,02-756-3078,서울 중구 을지로2가 199-52,서울 중구 명동9길 31,126.984099339214,37.5651762392418,http://place.map.kakao.com/13336576,,unknown,unknown,,0,0
962093374,코야키즈,"교육,학문 > 학원 > 미술학원",AC5,학원,070-4239-4110,서울 중구 저동1가 114,서울 중구 삼일대로 343,126.987055821012,37.5651225406354,http://place.map.kakao.com/962093374,,unknown,unknown,,0,0
44882104,하이에듀교육연구소,"교육,학문 > 학원",AC5,학원,,서울 중구 저동1가 114,서울 중구 삼일대로 343,126.986960746869,37.5651009062655,http://place.map.kakao.com/44882104,,unknown,unknown,,0,0
8620850,한국한자실력평가원,"교육,학문 > 학원 > 서예,한문학원",AC5,학원,,서울 중구 저동2가 78,서울 중구 수표로 45,126.98962742071,37.5653498456037,http://place.map.kakao.com/8620850,,unknown,unknown,,0,0
11598773,베리타스 아카데미학원,"교육,학문 > 학원 > 논술학원",AC5,학원,02-313-6055,서울 서대문구 냉천동 182,서울 서대문구 경기대로 88,126.964603169391,37.5665631415701,http://place.map.kakao.com/11598773,,unknown,unknown,,0,0
1689551504,풍류국악원,"교육,학문 > 학원 > 음악학원",AC5,학원,,서울 서대문구 냉천동 251,서울 서대문구 통일로 139,126.965388614421,37.5667679005152,http://place.map.kakao.com/1689551504,,unknown,unknown,,0,0
1279431430,쾌걸에듀,"교육,학문 > 학원",AC5,학원,070-7715-7590,서울 서대문구 냉천동 258,서울 서대문구 통일로 137,126.965449768482,37.566700343737,http://place.map.kakao.com/1279431430,,unknown,unknown,,0,0
1998743832,개념원리에듀,"교육,학문 > 학원 > 수학학원",AC5,학원,,서울 중구 을지로1가 16,서울 중구 무교로 6,126.979492246166,37.5664107944465,http://place.map.kakao.com/1998743832,,unknown,unknown,,0,0
1873735236,패스트원 을지로센터,"교육,학문 > 학원 > 어학원",AC5,학원,,서울 중구 을지로2가 6,서울 중구 을지로 51,126.98368252018,37.5664916365969,http://place.map.kakao.com/1873735236,,unknown,unknown,,0,0
95889437,워크룸그리,"교육,학문 > 학원 > 미술학원",AC5,학원,02-2272-0920,서울 중구 을지로2가 101-12,서울 중구 을지로 99-1,126.989079423436,37.5664850511959,http://place.map.kakao.com/95889437,,unknown,unknown,#제로페이 ,1,5.0
196744834,국어의숲,"교육,학문 > 학원 > 입시학원",AC5,학원,010-2087-0641,서울 서대문구 냉천동 18-1,서울 서대문구 통일로9길 8,126.96455643570052,37.56725058738071,http://place.map.kakao.com/196744834,,unknown,unknown,,0,0
14789863,LC논리창의학원,"교육,학문 > 학원",AC5,학원,,서울 서대문구 냉천동 169-1,서울 서대문구 통일로9안길 9-6,126.965137272386,37.5668948669788,http://place.map.kakao.com/14789863,,unknown,unknown,,0,0
20540374,서울학원,"교육,학문 > 학원",AC5,학원,,서울 서대문구 냉천동 232,서울 서대문구 통일로 149-1,126.964675141363,37.5675578625166,http://place.map.kakao.com/20540374,,unknown,unknown,,0,0
13576312,리듬놀이연구소,"교육,학문 > 학원 > 음악학원",AC5,학원,011-9588-6890,서울 종로구 평동 166,서울 종로구 새문안로 17,126.967740399493,37.5674938681928,http://place.map.kakao.com/13576312,,unknown,unknown,,0,0
426112761,세종관광통역가이드학원,"교육,학문 > 학원",AC5,학원,02-730-3838,서울 중구 태평로1가 31-28,서울 중구 세종대로20길 15,126.97832388870934,37.567229590978286,http://place.map.kakao.com/426112761,,unknown,unknown,#관광통역안내사학원 ,0,0
1865379023,SJ통역번역어학원,"교육,학문 > 학원 > 번역학원,통역학원",AC5,학원,02-734-0505,서울 중구 태평로1가 31-23,서울 중구 세종대로20길 15,126.978335208871,37.5672259890729,http://place.map.kakao.com/1865379023,,unknown,unknown,,0,0
9874527,세종통역번역어학원,"교육,학문 > 학원 > 어학원",AC5,학원,,서울 중구 태평로1가 31-23,서울 중구 세종대로20길 15,126.978339731299,37.5672440098192,http://place.map.kakao.com/9874527,,unknown,unknown,,0,0
124489627,피피아트,"교육,학문 > 학원 > 미술학원",AC5,학원,,서울 중구 무교동 25-1,서울 중구 세종대로20길 23,126.978733665095,37.5671440708991,http://place.map.kakao.com/124489627,,unknown,unknown,,0,0
1763852307,하자한국어,"교육,학문 > 학원 > 어학원",AC5,학원,070-7720-3861,서울 중구 다동 140,서울 중구 남대문로9길 24,126.981142384416,37.5670895194673,http://place.map.kakao.com/1763852307,,unknown,unknown,,0,0
26992900,주한영국문화원 어학원 을지로센터,"교육,학문 > 학원 > 어학원 > 영어학원",AC5,학원,1522-8006,서울 중구 다동 111,서울 중구 남대문로 109,126.982247153036,37.5669851752422,http://place.map.kakao.com/26992900,,unknown,unknown,,3,4.0
8553116,코리아헤럴드학원,"교육,학문 > 학원 > 어학원",AC5,학원,02-318-0505,서울 중구 수하동 65-1,서울 중구 남대문로10길 6,126.983184392366,37.5668988168517,http://place.map.kakao.com/8553116,,unknown,unknown,,0,0
9706033,디지털헤럴드,"교육,학문 > 학원 > 번역학원,통역학원",AC5,학원,02-752-0025,서울 중구 수하동 65-1,서울 중구 남대문로10길 6,126.983247783987,37.5668772019625,http://place.map.kakao.com/9706033,,unknown,unknown,,0,0
639446353,프렌치마스터,"교육,학문 > 학원 > 어학원",AC5,학원,02-319-0003,서울 중구 수하동 65-1,서울 중구 남대문로10길 6,126.983247783987,37.5668772019625,http://place.map.kakao.com/639446353,,unknown,unknown,,0,0
11244627,이경화 텍스타일디자인,"교육,학문 > 학원 > 패션디자인학원",AC5,학원,02-720-8645,서울 중구 삼각동 113,서울 중구 남대문로 116-6,126.983211434373,37.5674502301551,http://place.map.kakao.com/11244627,,unknown,unknown,,0,0
19070997,시사교육개발원,"교육,학문 > 학원",AC5,학원,,서울 중구 삼각동 113,서울 중구 남대문로 116-6,126.983197856249,37.5674286043242,http://place.map.kakao.com/19070997,,unknown,unknown,,0,0
26782313,차이홍스퀘어 종각점,"교육,학문 > 학원 > 어학원 > 중국어학원",AC5,학원,02-318-2861,서울 중구 수하동 40-2,서울 중구 남대문로10길 28,126.984234687159,37.5674431632651,http://place.map.kakao.com/26782313,,unknown,unknown,,0,0
15200272,위잉글리쉬 명동본사,"교육,학문 > 학원 > 어학원 > 영어학원",AC5,학원,,서울 중구 수하동 67,서울 중구 을지로5길 26,126.985144746116,37.5674468852672,http://place.map.kakao.com/15200272,,unknown,unknown,,0,0
26533301,한솔요리학원 본사,"교육,학문 > 학원 > 요리학원",AC5,학원,02-778-5252,서울 중구 장교동 1,서울 중구 삼일대로 363,126.987050941645,37.5671551870846,http://place.map.kakao.com/26533301,,unknown,unknown,,0,0
1983676695,온라인고시 종로점,"교육,학문 > 학원 > 공무원시험학원",AC5,학원,02-992-2700,서울 중구 수표동 47-6,서울 중구 수표로 67,126.989341899069,37.5673644471671,http://place.map.kakao.com/1983676695,,unknown,unknown,,0,0
8521727,종로전기학원,"교육,학문 > 학원",AC5,학원,02-2275-2589,서울 중구 을지로3가 95-14,서울 중구 을지로11길 18,126.99096734868,37.5671879875354,http://place.map.kakao.com/8521727,,unknown,unknown,,0,0
1759312845,한양발레 서대문점,"교육,학문 > 학원 > 무용학원,발레학원",AC5,학원,02-3789-1808,서울 중구 정동 23-8,서울 중구 정동길 2-1,126.96934752035,37.5679808340928,http://place.map.kakao.com/1759312845,,unknown,unknown,#제로페이 ,1,5.0
17074718,한국조리예술학원,"교육,학문 > 학원 > 요리학원",AC5,학원,02-722-5209,서울 중구 충정로1가 51-7,서울 중구 새문안로 30,126.96905327404,37.5678510139476,http://place.map.kakao.com/17074718,,unknown,unknown,,0,0
11731835,케이쿡아카데미,"교육,학문 > 학원 > 요리학원",AC5,학원,,서울 중구 충정로1가 51-7,,126.9690266858109,37.567833481502376,http://place.map.kakao.com/11731835,,unknown,unknown,,0,0
351969502,위드피아노 광화문점,"교육,학문 > 학원 > 음악학원 > 피아노학원",AC5,학원,010-2786-9374,서울 종로구 신문로2가 89-27,서울 종로구 새문안로 42,126.97009774076024,37.56859280253992,http://place.map.kakao.com/351969502,,unknown,unknown,,1,5.0
1744510364,생각기법연구소 광화문센터,"교육,학문 > 학원 > 음악학원",AC5,학원,,서울 종로구 신문로2가 89-27,서울 종로구 새문안로 42,126.970037762424,37.5685576485046,http://place.map.kakao.com/1744510364,,unknown,unknown,,0,0
15523484,조선일보교육미디어,"교육,학문 > 학원",AC5,학원,,서울 중구 태평로1가 60-15,서울 중구 세종대로21길 30,126.97604850495,37.5679823837438,http://place.map.kakao.com/15523484,,unknown,unknown,,4,1.0
834152789,프로드라이브,"교육,학문 > 학원 > 자동차운전학원",AC5,학원,02-1522-7051,서울 중구 다동 39,서울 중구 청계천로 24,126.980209313283,37.5685165439953,http://place.map.kakao.com/834152789,,unknown,unknown,,0,0
26458715,세종에듀케이션,"교육,학문 > 학원",AC5,학원,02-757-7747,서울 중구 다동 94,서울 중구 다동길 46,126.981726261383,37.5678608636847,http://place.map.kakao.com/26458715,,unknown,unknown,,0,0
1294023652,에이콘아카데미 종로점,"교육,학문 > 학원 > 컴퓨터학원",AC5,학원,02-2231-6412,서울 중구 다동 88,서울 중구 남대문로 117,126.982310354945,37.5677672490914,http://place.map.kakao.com/1294023652,,unknown,unknown,,0,0
1701814716,프리미어뮤직 서울중구지사,"교육,학문 > 학원 > 음악학원",AC5,학원,02-3789-8847,서울 중구 다동 88,서울 중구 남대문로 117,126.98229676892,37.5677798609954,http://place.map.kakao.com/1701814716,,unknown,unknown,,0,0
276378404,KH정보교육원 종로지원,"교육,학문 > 학원 > 컴퓨터학원",AC5,학원,1544-9970,서울 중구 남대문로1가 18,서울 중구 남대문로 120,126.98312983163332,37.56791513233646,http://place.map.kakao.com/276378404,,unknown,unknown,,0,0
27105566,파고다어학원 종로점,"교육,학문 > 학원 > 어학원",AC5,학원,02-2274-4000,서울 종로구 관철동 5-13,서울 종로구 청계천로 93,126.988182647917,37.5684491356856,http://place.map.kakao.com/27105566,,unknown,unknown,,5,3.2
2041252426,메가엠디,"교육,학문 > 학원",AC5,학원,1644-5774,서울 종로구 관철동 33-6,서울 종로구 청계천로 93,126.98813283784,37.5684815665325,http://place.map.kakao.com/2041252426,,unknown,unknown,,0,0
958086620,파고다에스씨에스 파고다원종로,"교육,학문 > 학원",AC5,학원,,서울 종로구 관철동 33-6,서울 종로구 청계천로 93,126.98813283784024,37.56848156653254,http://place.map.kakao.com/958086620,,unknown,unknown,,0,0
17504773,브라운편입,"교육,학문 > 학원 > 편입학원",AC5,학원,02-2232-1381,서울 종로구 관철동 35-2,서울 종로구 청계천로 99,126.98865806586537,37.56840142954672,http://place.map.kakao.com/17504773,,unknown,unknown,,2,2.5
11422182,이알피어학원 종로아이엘츠학원,"교육,학문 > 학원 > 어학원 > 영어학원",AC5,학원,02-737-1516,서울 종로구 관철동 35-2,서울 종로구 청계천로 99,126.988662592354,37.5684095389424,http://place.map.kakao.com/11422182,,unknown,unknown,,0,0
2074544296,해바라기노래교실,"교육,학문 > 학원 > 음악학원",AC5,학원,,서울 종로구 관철동 35-4,서울 종로구 종로16길 36,126.988706720471,37.5685230686237,http://place.map.kakao.com/2074544296,,unknown,unknown,,0,0
351969502,위드피아노 광화문점,"교육,학문 > 학원 > 음악학원 > 피아노학원",AC5,학원,010-2786-9374,서울 종로구 신문로2가 89-27,서울 종로구 새문안로 42,126.97009774076024,37.56859280253992,http://place.map.kakao.com/351969502,,unknown,unknown,,1,5.0
26469585,조선닷컴교육센터,"교육,학문 > 학원 > 어학원",AC5,학원,02-3701-2892,서울 중구 태평로1가 62-4,서울 중구 세종대로21길 52,126.976152394842,37.5687572610323,http://place.map.kakao.com/26469585,,unknown,unknown,,0,0
15758597,메트로 코리안아카데미,"교육,학문 > 학원 > 어학원",AC5,학원,02-725-5030,서울 중구 정동 2-1,서울 중구 세종대로21길 49,126.975645310329,37.5686886818477,http://place.map.kakao.com/15758597,,unknown,unknown,,0,0
650157845,한국인공지능아카데미,"교육,학문 > 학원",AC5,학원,02-2039-0677,서울 중구 무교동 1,서울 중구 무교로 32,126.979579899504,37.5687362797357,http://place.map.kakao.com/650157845,,unknown,unknown,#제로페이 ,0,0
700038466,이패스손사,"교육,학문 > 학원",AC5,학원,02-722-1149,서울 종로구 서린동 88,서울 종로구 청계천로 35,126.98137726173871,37.56933844196714,http://place.map.kakao.com/700038466,,unknown,unknown,,0,0
1441585058,이패스노무사,"교육,학문 > 학원",AC5,학원,02-722-0533,서울 종로구 서린동 88,서울 종로구 청계천로 35,126.981377261739,37.5693384419671,http://place.map.kakao.com/1441585058,,unknown,unknown,,0,0
1440258276,이패스사회복지사,"교육,학문 > 학원",AC5,학원,02-722-1148,서울 종로구 서린동 88,서울 종로구 청계천로 35,126.981368206189,37.5693384405384,http://place.map.kakao.com/1440258276,,unknown,unknown,,0,0
297066267,더조은아이티 아카데미학원 종각점,"교육,학문 > 학원 > 컴퓨터학원",AC5,학원,02-738-5001,서울 종로구 관철동 180,서울 종로구 삼일대로17길 51,126.98464296811991,37.56910104912141,http://place.map.kakao.com/297066267,,y,n,,2,5.0
20634025,댄스박스학원,"교육,학문 > 학원 > 무용학원,발레학원",AC5,학원,02-722-3122,서울 종로구 관철동 19-20,서울 종로구 삼일대로17길 52,126.984587460726,37.5693064688693,http://place.map.kakao.com/20634025,,unknown,unknown,,0,0
8802238,그린한국어학원,"교육,학문 > 학원 > 어학원",AC5,학원,02-732-1128,서울 종로구 관철동 43-8,서울 종로구 청계천로 61,126.9843634084861,37.56895955612243,http://place.map.kakao.com/8802238,,unknown,unknown,,0,0
26845281,위드스피치 종로점,"교육,학문 > 학원",AC5,학원,070-5057-1857,서울 종로구 관철동 155,서울 종로구 청계천로 67,126.985108247882,37.5688380180224,http://place.map.kakao.com/26845281,,unknown,unknown,#제로페이 ,0,0
2005461539,브러쉬오프,"교육,학문 > 학원 > 미술학원",AC5,학원,,서울 종로구 관철동 42-4,서울 종로구 종로10길 21,126.984537723021,37.5689784999884,http://place.map.kakao.com/2005461539,,unknown,unknown,,0,0
12396136,시사에듀,"교육,학문 > 학원 > 어학원 > 영어학원",AC5,학원,,서울 종로구 관철동 43-12,서울 종로구 종로8길 21,126.984121149854,37.5690721482321,http://place.map.kakao.com/12396136,,unknown,unknown,,0,0
13049363,월드가이드학원,"교육,학문 > 학원",AC5,학원,02-3789-0000,서울 종로구 관철동 43-8,서울 종로구 청계천로 61,126.984320390877,37.5689784713239,http://place.map.kakao.com/13049363,,unknown,unknown,,0,0
409464171,피날레로 악보 만들기,"교육,학문 > 학원 > 음악학원",AC5,학원,,서울 종로구 관철동 43-8,서울 종로구 청계천로 61,126.984311327812,37.5690145099424,http://place.map.kakao.com/409464171,,unknown,unknown,,0,0
17812094,솔데스크학원,"교육,학문 > 학원 > 컴퓨터학원",AC5,학원,1544-0714,서울 종로구 관철동 13-13,서울 종로구 종로12길 15,126.986122359011,37.5693967588252,http://place.map.kakao.com/17812094,,unknown,unknown,,1,1.0
12162530,르몽드학원,"교육,학문 > 학원 > 어학원",AC5,학원,02-723-7713,서울 종로구 관철동 19-4,서울 종로구 종로12길 18,126.985565471487,37.5692453248031,http://place.map.kakao.com/12162530,,unknown,unknown,,4,4.0
1803921359,아톤아카데미미술학원,"교육,학문 > 학원 > 미술학원",AC5,학원,02-722-1924,서울 종로구 관철동 12-13,서울 종로구 종로12길 23,126.985914164687,37.5689534443637,http://place.map.kakao.com/1803921359,,unknown,unknown,#제로페이 ,0,0
11264466,서울한국어아카데미학원 종로캠퍼스,"교육,학문 > 학원",AC5,학원,,서울 종로구 관철동 19-11,서울 종로구 우정국로2길 42,126.985384324805,37.5694291056005,http://place.map.kakao.com/11264466,,unknown,n,,0,0
935207086,JC독문화독일어학원,"교육,학문 > 학원 > 어학원",AC5,학원,02-730-8389,서울 종로구 관철동 19-11,서울 종로구 우정국로2길 42,126.985384324805,37.5694291056005,http://place.map.kakao.com/935207086,,unknown,unknown,,0,0
1704285032,에듀프랑스유학원,"교육,학문 > 학원",AC5,학원,,서울 종로구 관철동 19-4,서울 종로구 종로12길 18,126.985565470096,37.5692525327672,http://place.map.kakao.com/1704285032,,unknown,unknown,,0,0
12332434,독문화독일어 통역학원 종로캠퍼스,"교육,학문 > 학원 > 어학원",AC5,학원,,서울 종로구 관철동 19-11,서울 종로구 우정국로2길 42,126.9853843241,37.5694327095824,http://place.map.kakao.com/12332434,,unknown,unknown,,0,0
2037779508,해커스공인중개사 종로직영학원,"교육,학문 > 학원 > 공인중개사학원",AC5,학원,02-548-3333,서울 종로구 관철동 7-12,서울 종로구 삼일대로 385-1,126.98725436102008,37.56905991413615,http://place.map.kakao.com/2037779508,,unknown,unknown,,0,0
16024837,시사일본어학원 종로캠퍼스 테스트메이트,"교육,학문 > 학원 > 어학원 > 일본어학원",AC5,학원,02-736-1582,서울 종로구 관철동 13-4,서울 종로구 삼일대로17길 16,126.986656656786,37.5692850969791,http://place.map.kakao.com/16024837,,unknown,unknown,,0,0
803036500,이치고이치에학원,"교육,학문 > 학원 > 어학원 > 일본어학원",AC5,학원,02-735-5679,서울 종로구 관철동 11-24,서울 종로구 삼일대로15길 17,126.986561679772,37.5686940331143,http://place.map.kakao.com/803036500,,unknown,unknown,,2,3.0
22297391,글로벌어학원 종로점,"교육,학문 > 학원 > 어학원",AC5,학원,02-733-8282,서울 종로구 관철동 11-19,서울 종로구 삼일대로15길 19,126.98636585798997,37.56867869373648,http://place.map.kakao.com/22297391,,unknown,unknown,,0,0
1544374020,위드팔레트 광화문점,"교육,학문 > 학원 > 미술학원",AC5,학원,,서울 종로구 관철동 12-5,서울 종로구 삼일대로15길 16,126.986597855165,37.5689535239571,http://place.map.kakao.com/1544374020,,unknown,unknown,,1,5.0
540552963,더조은컴퓨터아카데미 별관,"교육,학문 > 학원 > 컴퓨터학원",AC5,학원,,서울 종로구 관철동 7-12,서울 종로구 삼일대로 385-1,126.98725435795,37.5690779340469,http://place.map.kakao.com/540552963,,unknown,unknown,,0,0
44942562,더조은IT진학전문학원,"교육,학문 > 학원 > 컴퓨터학원",AC5,학원,1661-7901,서울 종로구 관철동 7-12,서울 종로구 삼일대로 385-1,126.987236241686,37.5691085659384,http://place.map.kakao.com/44942562,,unknown,unknown,,0,0
1757240325,팔레트앤유 종로광화문점,"교육,학문 > 학원 > 미술학원",AC5,학원,010-4690-4864,서울 종로구 관철동 12-5,서울 종로구 삼일대로15길 16,126.98662955007,37.5689499235686,http://place.map.kakao.com/1757240325,,unknown,unknown,,0,0
2131194720,더조은인재개발원 종로 신관,"교육,학문 > 학원 > 컴퓨터학원",AC5,학원,02-735-7877,서울 종로구 관철동 7-12,서울 종로구 삼일대로 385-1,126.987254357642,37.569079736038,http://place.map.kakao.com/2131194720,,unknown,unknown,,0,0
27465413,시사일본어학원 테스트메이트 별관,"교육,학문 > 학원 > 어학원 > 일본어학원",AC5,학원,1566-1582,서울 종로구 관철동 13-4,서울 종로구 삼일대로17길 16,126.9866158933,37.5693607759882,http://place.map.kakao.com/27465413,,unknown,unknown,,0,0
22623330,중국어능력시험시험관리위원회,"교육,학문 > 학원 > 어학원 > 중국어학원",AC5,학원,02-737-1593,서울 종로구 관철동 13-4,서울 종로구 삼일대로17길 16,126.986661183915,37.5692887014728,http://place.map.kakao.com/22623330,,unknown,unknown,,0,0
12715453,이정남편입학원,"교육,학문 > 학원 > 편입학원",AC5,학원,,서울 종로구 관철동 11-24,서울 종로구 삼일대로15길 17,126.986566210744,37.5686760137177,http://place.map.kakao.com/12715453,,unknown,unknown,,0,0
14791573,아이피플컴퓨터학원,"교육,학문 > 학원 > 컴퓨터학원",AC5,학원,02-735-1986,서울 종로구 관철동 11-24,서울 종로구 삼일대로15길 17,126.986561679772,37.5686940331143,http://place.map.kakao.com/14791573,,unknown,unknown,,0,0
24894266,독독독 독일어학원,"교육,학문 > 학원 > 어학원",AC5,학원,02-775-0582,서울 종로구 관철동 10-1,서울 종로구 삼일대로15길 1,126.987381188404,37.5687625992191,http://place.map.kakao.com/24894266,,unknown,unknown,#제로페이 ,0,0
17247056,유에스아카데미,"교육,학문 > 학원",AC5,학원,,서울 종로구 관철동 7-25,서울 종로구 삼일대로 391,126.987394653797,37.5694617732037,http://place.map.kakao.com/17247056,,unknown,unknown,,0,0
19071518,청암서예,"교육,학문 > 학원 > 서예,한문학원",AC5,학원,02-2277-8402,서울 종로구 관철동 22,서울 종로구 삼일대로 390-10,126.988517559855,37.569357372281,http://place.map.kakao.com/19071518,,unknown,unknown,#제로페이 ,0,0
26887344,이치고이치애,"교육,학문 > 학원 > 어학원 > 일본어학원",AC5,학원,02-735-5679,서울 종로구 관수동 13-2,서울 종로구 수표로 91,126.989237468461,37.5694114998359,http://place.map.kakao.com/26887344,,unknown,unknown,,0,0
1769833934,컬컴 종로점,"교육,학문 > 학원 > 어학원 > 영어학원",AC5,학원,,서울 종로구 관수동 112,서울 종로구 수표로18길 22,126.99072939016698,37.569262962157474,http://place.map.kakao.com/1769833934,,unknown,unknown,,19,4.6
18597180,나무경영아카데미학원,"교육,학문 > 학원 > 세무회계학원",AC5,학원,02-736-2500,서울 종로구 서린동 70,서울 종로구 종로 34,126.981005839612,37.5699078119267,http://place.map.kakao.com/18597180,,unknown,unknown,#제로페이 ,6,2.2
13318312,김영편입학원 종로캠퍼스,"교육,학문 > 학원 > 편입학원 > 김영편입학원",AC5,학원,02-745-7033,서울 종로구 종로2가 84-8,서울 종로구 종로 68,126.98495182644116,37.56990297487731,http://place.map.kakao.com/13318312,,unknown,unknown,,4,5.0
946534820,퍼스트바리스타학원 종로점,"교육,학문 > 학원 > 요리학원",AC5,학원,02-6956-7062,서울 종로구 관철동 18-11,서울 종로구 우정국로2길 29,126.984628141059,37.5696452484776,http://place.map.kakao.com/946534820,,unknown,unknown,,4,3.0
1901964506,더조은컴퓨터 아카데미학원 종로점,"교육,학문 > 학원 > 컴퓨터학원",AC5,학원,02-766-8367,서울 종로구 관철동 45-1,서울 종로구 우정국로2길 21,126.98428175256072,37.56970376757216,http://place.map.kakao.com/1901964506,,unknown,unknown,,0,0
1611259382,아베체 독일어학원 종로점,"교육,학문 > 학원 > 어학원",AC5,학원,02-722-5583,서울 종로구 관철동 16-6,서울 종로구 종로 68,126.984945037629,37.5698885580849,http://place.map.kakao.com/1611259382,,unknown,unknown,,8,5.0
13577704,성운환경조경학원,"교육,학문 > 학원",AC5,학원,02-2285-3744,서울 종로구 관철동 45-1,서울 종로구 우정국로2길 21,126.984279488852,37.5697028662753,http://place.map.kakao.com/13577704,,unknown,unknown,#제로페이 ,8,3.3
12271437,김범식독일어학원,"교육,학문 > 학원 > 어학원",AC5,학원,,서울 종로구 관철동 45-1,서울 종로구 우정국로2길 21,126.98428401059,37.5697316987318,http://place.map.kakao.com/12271437,,unknown,unknown,,0,0
17399368,아뜰리에뷰티아카데미 종로본원,"교육,학문 > 학원 > 미용학원",AC5,학원,02-725-7477,서울 종로구 관철동 45-1,서울 종로구 우정국로2길 21,126.9842772257108,37.569699261992085,http://place.map.kakao.com/17399368,,unknown,unknown,,0,0
18617588,와세다일본어학원,"교육,학문 > 학원 > 어학원 > 일본어학원",AC5,학원,02-733-1515,서울 종로구 관철동 45-1,서울 종로구 우정국로2길 21,126.984365501925,37.5697749573335,http://place.map.kakao.com/18617588,,unknown,unknown,,1,2.0
22015731,피아노리브레 종로센터,"교육,학문 > 학원 > 음악학원",AC5,학원,02-722-9913,서울 종로구 관철동 45-1,서울 종로구 우정국로2길 21,126.984279488094,37.569706470257,http://place.map.kakao.com/22015731,,unknown,unknown,,2,3.0
12333154,동방디자인학원 종로점,"교육,학문 > 학원",AC5,학원,02-2285-2685,서울 종로구 관철동 45-1,서울 종로구 우정국로2길 21,126.984279488094,37.569706470257,http://place.map.kakao.com/12333154,,unknown,unknown,#제로페이 ,7,4.1
181605803,종로신중성어학원 종로캠퍼스,"교육,학문 > 학원 > 어학원",AC5,학원,02-734-8279,서울 종로구 관철동 45-1,서울 종로구 우정국로2길 21,126.984202526962,37.5696524002562,http://place.map.kakao.com/181605803,,unknown,unknown,#제로페이 ,0,0
14790654,제이알씨중국어학원,"교육,학문 > 학원 > 어학원 > 중국어학원",AC5,학원,02-735-5020,서울 종로구 종로2가 84-8,서울 종로구 종로 68,126.98494956435,37.5698939646347,http://place.map.kakao.com/14790654,,unknown,unknown,#중국어회화 ,0,0
1730315838,크레아뷰,"교육,학문 > 학원 > 미용학원",AC5,학원,,서울 종로구 관철동 45-1,서울 종로구 우정국로2길 21,126.984284022517,37.5696749360197,http://place.map.kakao.com/1730315838,,unknown,unknown,,0,0
9329408,이종권일본어학원,"교육,학문 > 학원 > 어학원 > 일본어학원",AC5,학원,,서울 종로구 관철동 45-1,서울 종로구 우정국로2길 21,126.984284018163,37.5696956589147,http://place.map.kakao.com/9329408,,unknown,unknown,,0,0
27281788,이앤영어번역학원,"교육,학문 > 학원 > 번역학원,통역학원",AC5,학원,,서울 종로구 관철동 16-6,서울 종로구 종로 68,126.984945037992,37.5698867560941,http://place.map.kakao.com/27281788,,unknown,unknown,,0,0
14622717,뷰티스퀘어,"교육,학문 > 학원",AC5,학원,02-736-2079,서울 종로구 관철동 45-1,서울 종로구 우정국로2길 21,126.984274954236,37.5697353015077,http://place.map.kakao.com/14622717,,unknown,unknown,,0,0
1298803413,이젠아카데미컴퓨터학원 종로캠퍼스,"교육,학문 > 학원 > 컴퓨터학원",AC5,학원,02-733-8781,서울 종로구 관철동 15-5,서울 종로구 종로 78,126.986031713257,37.5698796817055,http://place.map.kakao.com/1298803413,,unknown,unknown,,22,4.3
12162528,시사중국어학원 종로캠퍼스,"교육,학문 > 학원 > 어학원 > 중국어학원",AC5,학원,02-739-9582,서울 종로구 관철동 16-1,서울 종로구 종로12길 6,126.985574412338,37.5698399829137,http://place.map.kakao.com/12162528,,unknown,unknown,,5,4.2
20231047,펠리스스페인어학원 종로캠퍼스,"교육,학문 > 학원 > 어학원",AC5,학원,02-722-8444,서울 종로구 관철동 13-13,서울 종로구 종로12길 15,126.985895953784,37.569483227562,http://place.map.kakao.com/20231047,,unknown,unknown,#제로페이 ,0,0
9220742,시사중국어학원 유학부,"교육,학문 > 학원 > 어학원 > 중국어학원",AC5,학원,,서울 종로구 관철동 16-1,서울 종로구 종로12길 6,126.98561063894,37.5698183634442,http://place.map.kakao.com/9220742,,unknown,unknown,,0,0
15409875,한국서예학원,"교육,학문 > 학원 > 서예,한문학원",AC5,학원,02-733-4488,서울 종로구 종로2가 75-7,서울 종로구 종로 80-1,126.986335064513,37.5699445888784,http://place.map.kakao.com/15409875,,unknown,unknown,,0,0
1275861156,지아이티아카데미 지사,"교육,학문 > 학원 > 컴퓨터학원",AC5,학원,1588-9780,서울 종로구 종로2가 71-4,서울 종로구 종로 88,126.987181766502,37.5699374758834,http://place.map.kakao.com/1275861156,,unknown,unknown,#제로페이 ,0,0
15962668,연세스피치리더쉽센터,"교육,학문 > 학원 > 웅변,스피치학원",AC5,학원,02-739-2004,서울 종로구 종로2가 75-6,서울 종로구 종로 80-2,126.986389397595,37.5699481991365,http://place.map.kakao.com/15962668,,unknown,unknown,,0,0
1747948930,ENP 종각점,"교육,학문 > 학원 > 어학원 > 영어학원",AC5,학원,02-2135-9755,서울 종로구 종로2가 75-6,서울 종로구 종로 80-2,126.986431281488,37.5699391940036,http://place.map.kakao.com/1747948930,,unknown,unknown,,0,0
12373368,종로음악학원,"교육,학문 > 학원 > 음악학원",AC5,학원,02-732-3304,서울 종로구 종로2가 75-6,서울 종로구 종로 80-2,126.986389397595,37.5699481991365,http://place.map.kakao.com/12373368,,unknown,unknown,,0,0
2084626784,독독독 본관,"교육,학문 > 학원 > 어학원",AC5,학원,,서울 종로구 관철동 6-5,서울 종로구 종로14길 9,126.987069752397,37.5696527491078,http://place.map.kakao.com/2084626784,,unknown,unknown,,0,0
496786338,한솔요리학원 종로점,"교육,학문 > 학원 > 요리학원",AC5,학원,02-725-3300,서울 종로구 관철동 6-1,서울 종로구 삼일대로 395,126.987358357226,37.569901455108,http://place.map.kakao.com/496786338,,unknown,unknown,,3,2.3
27460459,YBMe4u어학원종로센터,"교육,학문 > 학원 > 어학원 > 영어학원 > YBM어학원",AC5,학원,02-2279-0509,서울 종로구 관철동 5-3,서울 종로구 삼일대로20길 6,126.98825944947,37.5695303380304,http://place.map.kakao.com/27460459,,unknown,unknown,,0,0
12654783,한솔외식창업아카데미 종로점,"교육,학문 > 학원 > 요리학원",AC5,학원,02-725-3300,서울 종로구 종로2가 71-2,서울 종로구 삼일대로 395,126.987349300999,37.5699050581196,http://place.map.kakao.com/12654783,,unknown,unknown,,0,0
1520356547,와이비엠종로이포유어학원 종로2관,"교육,학문 > 학원 > 어학원 > 영어학원",AC5,학원,02-2279-0509,서울 종로구 관철동 5-3,서울 종로구 삼일대로20길 6,126.988313786286,37.5695087195299,http://place.map.kakao.com/1520356547,,unknown,unknown,,0,0
738060398,YBM공무원 종로센터,"교육,학문 > 학원 > 공무원시험학원",AC5,학원,02-2276-0500,서울 종로구 종로2가 56-11,서울 종로구 삼일대로 394,126.98806925082076,37.56972853796587,http://place.map.kakao.com/738060398,,unknown,unknown,,0,0
1486901334,예찬하음악학원,"교육,학문 > 학원 > 음악학원",AC5,학원,,서울 종로구 관철동 6-3,서울 종로구 삼일대로 393,126.987421784733,37.5696744110305,http://place.map.kakao.com/1486901334,,unknown,unknown,,0,0
20909610,종로요리학원,"교육,학문 > 학원 > 요리학원",AC5,학원,02-732-7373,서울 종로구 종로2가 71-2,서울 종로구 삼일대로 395,126.98735948887368,37.56990325722,http://place.map.kakao.com/20909610,,unknown,unknown,#입시요리 #조리산업기사 #제로페이 ,1,5.0
11882135,YBM어학원 종로,"교육,학문 > 학원 > 어학원 > 영어학원 > YBM어학원",AC5,학원,02-2278-0509,서울 종로구 종로2가 48-1,서울 종로구 종로 104,126.989250969967,37.5699809301974,http://place.map.kakao.com/11882135,,y,n,,9,4.0
12364803,YBM어학원 e4u종로센터,"교육,학문 > 학원 > 어학원 > 영어학원 > YBM어학원",AC5,학원,02-2276-0509,서울 종로구 종로2가 56-15,서울 종로구 종로 98,126.988404284441,37.5698799385833,http://place.map.kakao.com/12364803,,unknown,unknown,,1,5.0
2061530273,YBM 종로CBT센터,"교육,학문 > 학원 > 어학원 > 영어학원 > YBM어학원",AC5,학원,,서울 종로구 종로2가 48-1,서울 종로구 종로 104,126.98911061036424,37.5699628974259,http://place.map.kakao.com/2061530273,,unknown,unknown,,0,0
27459439,YBM어학원 CBT종로센터,"교육,학문 > 학원 > 어학원 > 영어학원 > YBM어학원",AC5,학원,,서울 종로구 종로2가 55-1,서울 종로구 종로 104,126.988780083824,37.5699376386041,http://place.map.kakao.com/27459439,,unknown,unknown,,0,0
11882134,YBM어학원 종로센터(원투원),"교육,학문 > 학원 > 어학원 > 영어학원 > YBM어학원",AC5,학원,02-2264-0509,서울 종로구 종로2가 48-1,서울 종로구 종로 104,126.989101555264,37.5699592926086,http://place.map.kakao.com/11882134,,unknown,unknown,,0,0
1569420039,와이비엠종로이포유어학원,"교육,학문 > 학원 > 어학원 > 영어학원 > YBM어학원",AC5,학원,02-2279-0509,서울 종로구 종로2가 48-1,서울 종로구 종로 104,126.989110610377,37.5699628073264,http://place.map.kakao.com/1569420039,,unknown,unknown,,0,0
10620644,와이비엠에듀 본사,"교육,학문 > 학원 > 어학원",AC5,학원,02-2267-0509,서울 종로구 종로2가 55-1,서울 종로구 종로 104,126.988988362075,37.5699448661782,http://place.map.kakao.com/10620644,,unknown,unknown,,1,3.0
2002100955,YBM어학원 종로중국어센터,"교육,학문 > 학원 > 어학원 > 중국어학원",AC5,학원,02-2279-0503,서울 종로구 종로2가 55-1,서울 종로구 종로 104,126.98879366644783,37.56994304586675,http://place.map.kakao.com/2002100955,,y,n,,0,0
15109157,한양도시계획학원,"교육,학문 > 학원",AC5,학원,,서울 종로구 관수동 3-5,서울 종로구 삼일대로20길 13,126.988675971996,37.5697538255943,http://place.map.kakao.com/15109157,,unknown,unknown,,0,0
9679364,그린컴퓨터아트학원 종로캠퍼스,"교육,학문 > 학원 > 컴퓨터학원",AC5,학원,02-722-2111,서울 종로구 관수동 20,서울 종로구 수표로 96,126.989979979848,37.5697431315274,http://place.map.kakao.com/9679364,,unknown,unknown,,2,3.0
10402539,박문각종로고시학원,"교육,학문 > 학원",AC5,학원,02-733-2288,서울 종로구 관수동 20,서울 종로구 수표로 96,126.990047900675,37.569714305418,http://place.map.kakao.com/10402539,,unknown,unknown,,1,5.0
17000221,종로기술사학원,"교육,학문 > 학원",AC5,학원,02-749-0010,서울 종로구 관수동 20,서울 종로구 수표로 96,126.99002073773607,37.56968547127034,http://place.map.kakao.com/17000221,,unknown,unknown,,0,0
1696159659,박문각편입 종로캠퍼스,"교육,학문 > 학원 > 편입학원",AC5,학원,02-6182-9621,서울 종로구 관수동 20,서울 종로구 수표로 96,126.990016208016,37.56969988681475,http://place.map.kakao.com/1696159659,,unknown,unknown,,0,0
11531040,아름다운사람들미용학원 종로캠퍼스,"교육,학문 > 학원 > 미용학원",AC5,학원,1577-9755,서울 종로구 관수동 20,서울 종로구 수표로 96,126.989979979848,37.5697431315274,http://place.map.kakao.com/11531040,,unknown,unknown,,0,0
890010298,박문각스파르타학습센터 종로지점,"교육,학문 > 학원",AC5,학원,02-6182-9620,서울 종로구 관수동 20,서울 종로구 수표로 96,126.989690201682,37.5697358986134,http://place.map.kakao.com/890010298,,unknown,unknown,,0,0
11432774,종로국가정보학원,"교육,학문 > 학원",AC5,학원,02-725-2266,서울 종로구 종로3가 118,서울 종로구 종로 120,126.99091040407964,37.57006035722191,http://place.map.kakao.com/11432774,,unknown,unknown,,1,0
862541253,국가정보교육,"교육,학문 > 학원",AC5,학원,,서울 종로구 종로3가 118,서울 종로구 종로 120,126.990917194932,37.5700675657078,http://place.map.kakao.com/862541253,,unknown,unknown,,0,0
26508112,비타어학원기업체외국어교육,"교육,학문 > 학원 > 어학원 > 영어학원",AC5,학원,02-737-2421,서울 종로구 종로3가 119,서울 종로구 종로 120,126.991003222627,37.5700747802583,http://place.map.kakao.com/26508112,,unknown,unknown,,0,0
16994580,위아스국제회계학원,"교육,학문 > 학원 > 세무회계학원",AC5,학원,02-722-1779,서울 종로구 신문로1가 25,서울 종로구 새문안로 89,126.974508251864,37.5704399769827,http://place.map.kakao.com/16994580,,unknown,unknown,#제로페이 ,0,0
8324141,아이피스쿨,"교육,학문 > 학원 > 세무회계학원",AC5,학원,02-722-1779,서울 종로구 신문로1가 25,서울 종로구 새문안로 89,126.974535420138,37.5704363788647,http://place.map.kakao.com/8324141,,unknown,unknown,,0,0
304992756,광화문피아노스튜디오,"교육,학문 > 학원 > 음악학원 > 피아노학원",AC5,학원,010-8427-7031,서울 종로구 당주동 170-2,서울 종로구 새문안로5길 5-1,126.974679060435,37.570786896933,http://place.map.kakao.com/304992756,,unknown,y,,0,0
12753215,보험경영아카데미,"교육,학문 > 학원",AC5,학원,02-732-4186,서울 종로구 신문로1가 25,서울 종로구 새문안로 89,126.974535418911,37.5704399828458,http://place.map.kakao.com/12753215,,unknown,unknown,,0,0
18133310,한형민어학원,"교육,학문 > 학원 > 어학원 > 영어학원",AC5,학원,02-2075-5858,서울 종로구 청진동 146,서울 종로구 종로 19,126.979900786884,37.5709023278212,http://place.map.kakao.com/18133310,,unknown,unknown,#제로페이 ,1,5.0
1762024966,솔바이올린 광화문점,"교육,학문 > 학원 > 음악학원",AC5,학원,010-9970-8224,서울 종로구 청진동 146,서울 종로구 종로 19,126.979923441709,37.5708446679787,http://place.map.kakao.com/1762024966,,unknown,unknown,#카카오페이 ,1,5.0
18230863,한림일본어학원 한국지사,"교육,학문 > 학원 > 어학원 > 일본어학원",AC5,학원,02-722-8333,서울 종로구 청진동 146,서울 종로구 종로 19,126.9799891712145,37.570562667610425,http://place.map.kakao.com/18230863,,unknown,unknown,,0,0
1748964965,패스트원 광화문센터,"교육,학문 > 학원 > 어학원 > 영어학원",AC5,학원,,서울 종로구 청진동 128,서울 종로구 종로5길 7,126.980643428343,37.5706285493537,http://place.map.kakao.com/1748964965,,unknown,unknown,,0,0
2042165528,아트포레,"교육,학문 > 학원 > 미술학원",AC5,학원,010-7502-3811,서울 종로구 청진동 146,서울 종로구 종로 19,126.979923441709,37.5708446679787,http://place.map.kakao.com/2042165528,,unknown,unknown,,0,0
1463033121,스튜디오누리,"교육,학문 > 학원",AC5,학원,,서울 종로구 종로1가 24,서울 종로구 종로 19,126.979923441709,37.5708446679787,http://place.map.kakao.com/1463033121,,unknown,unknown,,0,0
9367653,월스트리트잉글리쉬 종로센터,"교육,학문 > 학원 > 어학원 > 영어학원",AC5,학원,02-737-3155,서울 종로구 청진동 70,서울 종로구 종로 33,126.98139040389464,37.57111160293178,http://place.map.kakao.com/9367653,,unknown,unknown,,3,2.3
22024039,한국청소년코칭센터,"교육,학문 > 학원",AC5,학원,,서울 종로구 공평동 100,서울 종로구 종로 47,126.982395592864,37.5711153610855,http://place.map.kakao.com/22024039,,unknown,unknown,,0,0
885502886,C언어코딩학원,"교육,학문 > 학원",AC5,학원,070-8064-4962,서울 종로구 공평동 70,서울 종로구 종로 51,126.983613674535,37.5707443263914,http://place.map.kakao.com/885502886,,unknown,n,,0,0
225536986,토크플래닛,"교육,학문 > 학원 > 어학원 > 영어학원",AC5,학원,010-2193-7774,서울 종로구 종로2가 6,서울 종로구 종로 51,126.983726926901,37.5704875583918,http://place.map.kakao.com/225536986,,unknown,unknown,,0,0
25600738,EDB어학원,"교육,학문 > 학원 > 어학원 > 영어학원",AC5,학원,02-732-8205,서울 종로구 종로2가 8-4,서울 종로구 종로 65,126.984704944042,37.5704741742222,http://place.map.kakao.com/25600738,,unknown,unknown,,0,0
1118437386,세종요리학원 종로점,"교육,학문 > 학원 > 요리학원",AC5,학원,1833-6289,서울 종로구 종로2가 8-4,서울 종로구 종로 65,126.9847094704115,37.57048138277121,http://place.map.kakao.com/1118437386,,unknown,unknown,,1,5.0
26235237,글로벌회계아카데미,"교육,학문 > 학원",AC5,학원,,서울 종로구 종로2가 8-4,서울 종로구 종로 65,126.984709470412,37.5704813827712,http://place.map.kakao.com/26235237,,unknown,unknown,,1,5.0
998200294,비트캠프 종로센터,"교육,학문 > 학원 > 컴퓨터학원",AC5,학원,02-722-1481,서울 종로구 종로2가 9,서울 종로구 종로 69,126.985275451618,37.5704778507385,http://place.map.kakao.com/998200294,,unknown,unknown,,0,0
1382001506,서울YMCA 종로보육교사교육원,"교육,학문 > 학원 > 직업상담사학원",AC5,학원,,서울 종로구 인사동 235,서울 종로구 종로11길 11,126.985442897666,37.5709103492508,http://place.map.kakao.com/1382001506,,unknown,unknown,,0,0
15877284,YMCA 체대입시학원 종로점,"교육,학문 > 학원 > 입시학원",AC5,학원,02-730-7174,서울 종로구 종로2가 9,서울 종로구 종로 69,126.985338832954,37.5705211064028,http://place.map.kakao.com/15877284,,unknown,unknown,,0,0
12889335,현대번역통역어학학원,"교육,학문 > 학원 > 번역학원,통역학원",AC5,학원,02-732-3005,서울 종로구 종로2가 9,서울 종로구 종로 69,126.98528901033995,37.57060399177477,http://place.map.kakao.com/12889335,,unknown,unknown,,2,3.0
15364974,이룸사진학원,"교육,학문 > 학원",AC5,학원,02-764-4771,서울 종로구 인사동 241,서울 종로구 종로11길 9-10,126.985225546381,37.5709787978901,http://place.map.kakao.com/15364974,,unknown,unknown,,0,0
23489728,동남행정고시학원,"교육,학문 > 학원 > 공무원시험학원",AC5,학원,,서울 종로구 종로2가 9,서울 종로구 종로 69,126.985370533518,37.5704922784847,http://place.map.kakao.com/23489728,,unknown,unknown,,0,0
11981176,FJ어학원,"교육,학문 > 학원 > 어학원 > 일본어학원",AC5,학원,02-722-8215,서울 종로구 종로2가 13,서울 종로구 종로 77,126.98605651525222,37.570421182866106,http://place.map.kakao.com/11981176,,unknown,unknown,#제로페이 ,0,0
1122237645,류훈열스피치나라,"교육,학문 > 학원 > 웅변,스피치학원",AC5,학원,02-737-5588,서울 종로구 종로2가 9,서울 종로구 종로 69,126.985307153604,37.5704418148746,http://place.map.kakao.com/1122237645,,unknown,unknown,#제로페이 ,0,0
18818415,필음악학원,"교육,학문 > 학원 > 음악학원",AC5,학원,,서울 종로구 종로2가 23,서울 종로구 종로 87-1,126.987294874849,37.570449253488,http://place.map.kakao.com/18818415,,unknown,unknown,,0,0
11964315,플랜티어학원,"교육,학문 > 학원 > 어학원",AC5,학원,02-735-3322,서울 종로구 낙원동 201,서울 종로구 수표로 105,126.989228236954,37.5706332487716,http://place.map.kakao.com/11964315,,unknown,unknown,#제로페이 ,0,0
27106398,미래보석감정원,"교육,학문 > 학원 > 보석감정,세공학원",AC5,학원,02-766-3331,서울 종로구 종로2가 40,서울 종로구 수표로 105,126.989155800185,37.5705719744581,http://place.map.kakao.com/27106398,,unknown,unknown,#제로페이 ,0,0
1412555473,유니티공인게임아카데미,"교육,학문 > 학원",AC5,학원,02-1833-9597,서울 종로구 종로2가 40,서울 종로구 수표로 105,126.989092415547,37.5705359288057,http://place.map.kakao.com/1412555473,,unknown,unknown,,0,0
41539986,고경희소리영어훈련소,"교육,학문 > 학원 > 어학원 > 영어학원",AC5,학원,010-6266-4847,서울 종로구 종로2가 40,서울 종로구 수표로 105,126.98915126867608,37.570597201910914,http://place.map.kakao.com/41539986,,unknown,unknown,,0,0
10377483,보석다이아감정금화당,"교육,학문 > 학원 > 보석감정,세공학원",AC5,학원,,서울 종로구 종로2가 40,서울 종로구 수표로 105,126.989087887174,37.5705395323685,http://place.map.kakao.com/10377483,,unknown,unknown,,0,0
1104739781,미래주얼리학원,"교육,학문 > 학원",AC5,학원,02-744-3331,서울 종로구 종로2가 40,서울 종로구 수표로 105,126.98911731897,37.5705341291133,http://place.map.kakao.com/1104739781,,unknown,unknown,,0,0
587942886,더조은컴퓨터아카데미,"교육,학문 > 학원 > 컴퓨터학원",AC5,학원,,서울 종로구 종로2가 40,서울 종로구 수표로 105,126.9891365655922,37.57051160600253,http://place.map.kakao.com/587942886,,unknown,unknown,,0,0
16990786,메가편입 종로캠퍼스,"교육,학문 > 학원 > 편입학원",AC5,학원,,서울 종로구 종로2가 40,서울 종로구 수표로 105,126.989151268153,37.5706008058922,http://place.map.kakao.com/16990786,,unknown,unknown,,0,0
8368738,서울요리학원 본관,"교육,학문 > 학원 > 요리학원",AC5,학원,02-766-1044,서울 종로구 종로3가 10,서울 종로구 종로 115,126.990496034492,37.5706441695854,http://place.map.kakao.com/8368738,,unknown,unknown,,3,1.0
11810295,드림스피치아카데미,"교육,학문 > 학원 > 웅변,스피치학원",AC5,학원,02-3672-6636,서울 종로구 종로3가 9,서울 종로구 종로 113-2,126.990319455653,37.5705864915375,http://place.map.kakao.com/11810295,,unknown,unknown,#제로페이 ,0,0
1647796717,딸기보석감정원,"교육,학문 > 학원 > 보석감정,세공학원",AC5,학원,02-3672-8610,서울 종로구 종로3가 9,서울 종로구 종로 113-2,126.99031945378674,37.57060090746251,http://place.map.kakao.com/1647796717,,unknown,unknown,,0,0
10328889,목조각전문학원,"교육,학문 > 학원",AC5,학원,02-765-4663,서울 종로구 낙원동 198,서울 종로구 수표로 108,126.989508928469,37.5708855527326,http://place.map.kakao.com/10328889,,unknown,unknown,,0,0
9326081,이상언보석감정학원,"교육,학문 > 학원 > 보석감정,세공학원",AC5,학원,,서울 종로구 낙원동 193,서울 종로구 돈화문로5길 32,126.990246976679,37.5708423682389,http://place.map.kakao.com/9326081,,unknown,unknown,,0,0
26538102,한솔요리학원 종로3가점,"교육,학문 > 학원 > 요리학원",AC5,학원,02-720-1400,서울 종로구 종로3가 16,서울 종로구 종로 123,126.991274823266,37.5706622496184,http://place.map.kakao.com/26538102,,unknown,unknown,,1,5.0
25448012,씨앗패션패턴학원,"교육,학문 > 학원 > 패션디자인학원",AC5,학원,02-6249-7000,서울 종로구 돈의동 170,서울 종로구 돈화문로5길 24,126.990704298304,37.5707847414355,http://place.map.kakao.com/25448012,,unknown,unknown,,0,0
1016296801,아리아케어 종로 요양보호사교육원,"교육,학문 > 학원",AC5,학원,02-744-6901,서울 종로구 종로3가 16,서울 종로구 종로 123,126.991261241596,37.5706460306981,http://place.map.kakao.com/1016296801,,unknown,unknown,#제로페이 ,0,0
12559044,한국인성개발원,"교육,학문 > 학원 > 웅변,스피치학원",AC5,학원,02-744-6900,서울 종로구 종로3가 16,서울 종로구 종로 123,126.991274823266,37.5706622496184,http://place.map.kakao.com/12559044,,unknown,unknown,,0,0
13201268,현대건축디자인학원,"교육,학문 > 학원",AC5,학원,02-582-9119,서울 종로구 종로3가 11,서울 종로구 종로 117,126.990600178303,37.5706189500545,http://place.map.kakao.com/13201268,,unknown,unknown,,4,5.0
1118334514,한솔요리유학연구소,"교육,학문 > 학원 > 요리학원",AC5,학원,,서울 종로구 종로3가 16,서울 종로구 종로 123,126.991274823266,37.5706622496184,http://place.map.kakao.com/1118334514,,unknown,unknown,,0,0
10995560,한미보석감정원,"교육,학문 > 학원 > 보석감정,세공학원",AC5,학원,02-3672-2800,서울 종로구 돈의동 137,서울 종로구 돈화문로5가길 1,126.99130309679738,37.57088209455733,http://place.map.kakao.com/10995560,,unknown,unknown,,0,0
1646212077,한국스피치평생교육원,"교육,학문 > 학원 > 웅변,스피치학원",AC5,학원,02-737-3477,서울 종로구 종로3가 16,서울 종로구 종로 123,126.991274823266,37.5706622496184,http://place.map.kakao.com/1646212077,,unknown,unknown,#제로페이 ,0,0
27224282,서울퀴진아트학원,"교육,학문 > 학원 > 요리학원",AC5,학원,02-766-1044,서울 종로구 돈의동 160,서울 종로구 돈화문로5길 20,126.990898992881,37.5708135884546,http://place.map.kakao.com/27224282,,unknown,unknown,,0,0
1320759787,플러디학원,"교육,학문 > 학원 > 입시학원",AC5,학원,02-720-9959,서울 종로구 홍파동 199-6,서울 종로구 송월길 110,126.964591802555,37.5714465339152,http://place.map.kakao.com/1320759787,,unknown,unknown,,1,5.0
1413858167,톡톡잉글리쉬,"교육,학문 > 학원 > 어학원 > 영어학원",AC5,학원,070-8119-1499,서울 종로구 홍파동 199-6,서울 종로구 송월길 110,126.9645929345308,37.57144653425474,http://place.map.kakao.com/1413858167,,unknown,unknown,,0,0
384094161,미도파홈레슨,"교육,학문 > 학원 > 음악학원",AC5,학원,,서울 종로구 당주동 145,서울 종로구 세종대로23길 47,126.973697434971,37.5713876461274,http://place.map.kakao.com/384094161,,unknown,unknown,,0,0
2109811588,제이바이올린스튜디오,"교육,학문 > 학원 > 음악학원",AC5,학원,02-722-2770,서울 종로구 세종로 159,서울 종로구 세종대로23길 5,126.976110765773,37.5715106944913,http://place.map.kakao.com/2109811588,,unknown,unknown,,0,0
9635962,현피아노,"교육,학문 > 학원 > 음악학원 > 피아노학원",AC5,학원,02-733-3943,서울 종로구 청진동 201-1,서울 종로구 종로3길 38,126.979511064317,37.5720915744578,http://place.map.kakao.com/9635962,,unknown,unknown,,0,0
20526185,박문각행정고시학원,"교육,학문 > 학원 > 공무원시험학원",AC5,학원,,서울 종로구 공평동 144,서울 종로구 삼봉로 94,126.98234677543392,37.57171992156883,http://place.map.kakao.com/20526185,,unknown,unknown,,0,0
1525057947,한국맥주교육원,"교육,학문 > 학원",AC5,학원,010-9241-8102,서울 종로구 인사동 153-3,서울 종로구 인사동3길 10,126.986099246905,37.5719429688507,http://place.map.kakao.com/1525057947,,unknown,unknown,,0,0
8897874,미래를여는교육 본사,"교육,학문 > 학원",AC5,학원,,서울 종로구 인사동 194-4,서울 종로구 인사동5길 25,126.985406446163,37.5720816384876,http://place.map.kakao.com/8897874,,unknown,unknown,,0,0
12673529,해커스어학원 종로캠퍼스,"교육,학문 > 학원 > 어학원",AC5,학원,02-502-2000,서울 종로구 인사동 43,서울 종로구 인사동길 12,126.98723236401212,37.57193138389895,http://place.map.kakao.com/12673529,,unknown,unknown,,4,3.0
338880018,하이미디어컴퓨터학원 종로캠퍼스,"교육,학문 > 학원 > 컴퓨터학원",AC5,학원,02-723-0008,서울 종로구 인사동 43,서울 종로구 인사동길 12,126.98723123833594,37.57189444297727,http://place.map.kakao.com/338880018,,unknown,unknown,,10,2.1
18377273,해커스편입 종로본원,"교육,학문 > 학원 > 편입학원",AC5,학원,02-735-1881,서울 종로구 인사동 43,서울 종로구 인사동길 12,126.98723123925888,37.57188903700662,http://place.map.kakao.com/18377273,,unknown,unknown,,0,0
1759701429,하이미디어컴퓨터학원 본점,"교육,학문 > 학원 > 컴퓨터학원",AC5,학원,,서울 종로구 인사동 43,서울 종로구 인사동길 12,126.987231239567,37.5718872350164,http://place.map.kakao.com/1759701429,,unknown,unknown,,2,1.0
327087363,영상학원,"교육,학문 > 학원",AC5,학원,,서울 종로구 인사동 43,서울 종로구 인사동길 12,126.987231239259,37.5718890370066,http://place.map.kakao.com/327087363,,unknown,unknown,,0,0
9545036,한국보석학원,"교육,학문 > 학원 > 보석감정,세공학원",AC5,학원,02-764-4500,서울 종로구 낙원동 211,서울 종로구 수표로 115-1,126.989042449243,37.5716279304204,http://place.map.kakao.com/9545036,,unknown,unknown,#제로페이 ,2,1.5
19622609,SMC아카데미 서울총본부,"교육,학문 > 학원 > 미용학원",AC5,학원,0507-1343-1206,서울 종로구 낙원동 141,서울 종로구 수표로 120,126.989205406273,37.5719595116447,http://place.map.kakao.com/19622609,,unknown,unknown,#제로페이 ,0,0
1532242102,한국반영구화장협회,"교육,학문 > 학원 > 미용학원",AC5,학원,02-512-9754,서울 종로구 낙원동 141,서울 종로구 수표로 120,126.989200877299,37.5719667191915,http://place.map.kakao.com/1532242102,,unknown,unknown,,0,0
208387523,하영노래교실,"교육,학문 > 학원 > 음악학원",AC5,학원,,서울 종로구 낙원동 173-1,서울 종로구 수표로 116,126.989391112383,37.5715306547888,http://place.map.kakao.com/208387523,,unknown,unknown,,0,0
9320756,예림미용학원,"교육,학문 > 학원 > 미용학원",AC5,학원,02-745-6688,서울 종로구 낙원동 151,서울 종로구 돈화문로9길 32,126.989943474948,37.5718442494486,http://place.map.kakao.com/9320756,,unknown,unknown,#제로페이 ,0,0
16501412,디자이너케익 종로본점,"교육,학문 > 학원 > 요리학원 > 제과기술학원",AC5,학원,02-762-8763,서울 종로구 돈의동 76-1,서울 종로구 수표로26길 12,126.98974422690534,37.57198478754656,http://place.map.kakao.com/16501412,,unknown,unknown,,0,0
12534434,랭귀지큐브 종로센터,"교육,학문 > 학원 > 어학원 > 영어학원",AC5,학원,02-734-1105,서울 종로구 수송동 68-1,서울 종로구 삼봉로 57,126.980475388807,37.5725782752084,http://place.map.kakao.com/12534434,,unknown,unknown,,2,5.0
17628075,차이나로중국어학원,"교육,학문 > 학원 > 어학원 > 중국어학원",AC5,학원,,서울 종로구 견지동 110,서울 종로구 삼봉로 95,126.982793743881,37.5724308726863,http://place.map.kakao.com/17628075,,unknown,unknown,,0,0
15963048,정심서예교습소,"교육,학문 > 학원 > 서예,한문학원",AC5,학원,,서울 종로구 견지동 110-43,서울 종로구 우정국로 43,126.982761951788,37.5728489297303,http://place.map.kakao.com/15963048,,unknown,unknown,,0,0
11367420,에스제이 중국어학원,"교육,학문 > 학원 > 어학원 > 중국어학원",AC5,학원,,서울 종로구 견지동 110-32,서울 종로구 우정국로 39,126.982657859895,37.5726254677277,http://place.map.kakao.com/11367420,,unknown,unknown,,0,0
727898380,프리미어뮤직 종로지사,"교육,학문 > 학원 > 음악학원",AC5,학원,02-736-0701,서울 종로구 견지동 110-32,서울 종로구 우정국로 39,126.982680499763,37.5726254710514,http://place.map.kakao.com/727898380,,unknown,unknown,,0,0
17048708,종로경매학원,"교육,학문 > 학원",AC5,학원,02-723-0600,서울 종로구 관훈동 198-36,서울 종로구 인사동5길 20,126.985166348784,37.5726690573343,http://place.map.kakao.com/17048708,,unknown,unknown,#제로페이 ,0,0
782794433,발레종로BSD학원,"교육,학문 > 학원 > 무용학원,발레학원",AC5,학원,,서울 종로구 인사동 170,서울 종로구 인사동길 23,126.9862304046676,37.57277009767875,http://place.map.kakao.com/782794433,,unknown,unknown,,0,0
1276617123,종로지엔앰뮤직,"교육,학문 > 학원 > 음악학원",AC5,학원,02-722-1895,서울 종로구 인사동 170,서울 종로구 인사동길 23,126.986225872702,37.5727917210297,http://place.map.kakao.com/1276617123,,unknown,unknown,,0,0
16991131,삼정피아노,"교육,학문 > 학원 > 음악학원 > 피아노학원",AC5,학원,,서울 종로구 낙원동 284-6,서울 종로구 삼일대로 428,126.987801646366,37.5725756555685,http://place.map.kakao.com/16991131,,unknown,unknown,,0,0
1457089131,피아노오르간아카데미,"교육,학문 > 학원 > 음악학원 > 피아노학원",AC5,학원,02-765-7678,서울 종로구 낙원동 238-5,서울 종로구 종로17길 52,126.988446898214,37.5724721060498,http://place.map.kakao.com/1457089131,,unknown,unknown,,0,0
1474868727,해금사랑,"교육,학문 > 학원 > 음악학원",AC5,학원,,서울 종로구 낙원동 235-5,서울 종로구 수표로 125,126.988585021623,37.5723378712243,http://place.map.kakao.com/1474868727,,unknown,unknown,,0,0
8351250,매직월드,"교육,학문 > 학원",AC5,학원,02-743-5373,서울 종로구 낙원동 127-3,서울 종로구 돈화문로11길 34,126.989608290705,37.572691155784,http://place.map.kakao.com/8351250,,unknown,unknown,#제로페이 ,0,0
1348124150,이동훈가요채널,"교육,학문 > 학원 > 음악학원",AC5,학원,,서울 종로구 낙원동 127-3,서울 종로구 돈화문로11길 34,126.989627533111,37.5727019694163,http://place.map.kakao.com/1348124150,,unknown,unknown,,0,0
91774616,피아노하임,"교육,학문 > 학원 > 음악학원 > 피아노학원",AC5,학원,,서울 종로구 내수동 72,서울 종로구 사직로8길 34,126.97241519629,37.5736740788045,http://place.map.kakao.com/91774616,,unknown,unknown,,0,0
11374274,창조E&P,"교육,학문 > 학원 > 컴퓨터학원",AC5,학원,02-744-1078,서울 종로구 내수동 74,서울 종로구 사직로8길 42,126.973107941228,37.5737985759275,http://place.map.kakao.com/11374274,,unknown,unknown,,0,0
760974074,은대학당,"교육,학문 > 학원",AC5,학원,070-8846-3915,서울 종로구 내수동 4,서울 종로구 새문안로5가길 11,126.9738236195,37.5730923568116,http://place.map.kakao.com/760974074,,unknown,unknown,,0,0
8536020,율당화실,"교육,학문 > 학원 > 미술학원",AC5,학원,,서울 종로구 관훈동 192-13,서울 종로구 인사동길 39,126.984971411875,37.5738331181073,http://place.map.kakao.com/8536020,,unknown,unknown,,0,0
1676054860,인사동예술교육원,"교육,학문 > 학원 > 서예,한문학원",AC5,학원,010-9009-1999,서울 종로구 관훈동 192-13,서울 종로구 인사동길 39,126.984948778894,37.5737970754308,http://place.map.kakao.com/1676054860,,unknown,unknown,,0,0
12890672,한성문화,"교육,학문 > 학원",AC5,학원,,서울 종로구 관훈동 197-28,서울 종로구 인사동7길 12,126.985125506681,37.5731231536592,http://place.map.kakao.com/12890672,,unknown,unknown,,0,0
14791123,송천서예학원,"교육,학문 > 학원 > 서예,한문학원",AC5,학원,02-734-4510,서울 종로구 관훈동 197-4,서울 종로구 인사동길 29,126.985641676987,37.5732385449175,http://place.map.kakao.com/14791123,,unknown,unknown,,0,0
11970462,고금서예사군자연구실 종로점,"교육,학문 > 학원 > 서예,한문학원",AC5,학원,02-737-5002,서울 종로구 관훈동 197-4,서울 종로구 인사동길 29,126.985818265995,37.5732565861615,http://place.map.kakao.com/11970462,,unknown,unknown,,0,0
126042464,우신모람,"교육,학문 > 학원",AC5,학원,,서울 종로구 관훈동 27-5,서울 종로구 인사동10길 2,126.985283835765,37.5738908211353,http://place.map.kakao.com/126042464,,unknown,unknown,,0,0
245323359,바움비엔아이,"교육,학문 > 학원",AC5,학원,02-738-2500,서울 종로구 관훈동 197-28,서울 종로구 인사동7길 12,126.985211545882,37.5730871246711,http://place.map.kakao.com/245323359,,unknown,unknown,,0,0
24725118,홍익민화실,"교육,학문 > 학원 > 미술학원",AC5,학원,02-734-8202,서울 종로구 인사동 12,서울 종로구 인사동4길 5,126.98647937269,37.5731629602573,http://place.map.kakao.com/24725118,,unknown,unknown,,0,0
71615182,글씨터,"교육,학문 > 학원 > 서예,한문학원",AC5,학원,,서울 종로구 경운동 47-1,서울 종로구 인사동4길 17,126.986542646588,37.5738197927533,http://place.map.kakao.com/71615182,,unknown,unknown,,0,0
9566816,한정혜요리학원,"교육,학문 > 학원 > 요리학원",AC5,학원,02-742-3567,서울 종로구 낙원동 55-1,서울 종로구 삼일대로30길 12,126.98861228086676,37.57366483737191,http://place.map.kakao.com/9566816,,unknown,unknown,,0,0
12138443,솔테스크채린,"교육,학문 > 학원",AC5,학원,02-6901-7042,서울 종로구 낙원동 58-5,서울 종로구 삼일대로28길 16,126.988924449168,37.5734803651776,http://place.map.kakao.com/12138443,,unknown,unknown,,0,0
829143615,CQ나래,"교육,학문 > 학원 > 논술학원",AC5,학원,010-7640-2885,서울 종로구 내수동 71,서울 종로구 사직로8길 24,126.971246847425,37.5739738312907,http://place.map.kakao.com/829143615,,unknown,unknown,,0,0
1366131177,차이나탄캠프 광화문을지로센터,"교육,학문 > 학원 > 어학원 > 중국어학원",AC5,학원,070-7777-7586,서울 종로구 중학동 19,서울 종로구 종로1길 50,126.97901225145198,37.57472599586643,http://place.map.kakao.com/1366131177,,unknown,unknown,,2,1.0
1426138056,뉴파인학원 안국중고등관,"교육,학문 > 학원",AC5,학원,02-737-0304,서울 종로구 경운동 70,서울 종로구 삼일대로 451,126.98659682214712,37.57471809069156,http://place.map.kakao.com/1426138056,,unknown,unknown,#제로페이 ,0,0
1987571612,그린그림,"교육,학문 > 학원 > 미술학원",AC5,학원,02-735-5009,서울 종로구 경운동 47-1,서울 종로구 인사동4길 17,126.98656526513,37.5739405286352,http://place.map.kakao.com/1987571612,,unknown,unknown,,0,0
23881313,에리제피아노학원,"교육,학문 > 학원 > 음악학원 > 피아노학원",AC5,학원,,서울 종로구 익선동 129,서울 종로구 삼일대로30길 34-6,126.989499434035,37.5740102026886,http://place.map.kakao.com/23881313,,unknown,unknown,,0,0
12215596,세종수학,"교육,학문 > 학원",AC5,학원,02-733-3450,서울 종로구 필운동 293,서울 종로구 사직로8길 7,126.96974753456,37.5752753939042,http://place.map.kakao.com/12215596,,unknown,unknown,,0,0
18500658,러닝웨이코리아,"교육,학문 > 학원 > 컴퓨터학원",AC5,학원,02-723-7230,서울 종로구 내자동 167-2,서울 종로구 사직로10길 17,126.97066229675978,37.57507380199278,http://place.map.kakao.com/18500658,,unknown,unknown,,1,5.0
1008842619,연세피아노음악교습소,"교육,학문 > 학원 > 음악학원 > 피아노학원",AC5,학원,02-735-3536,서울 종로구 내자동 175,서울 종로구 사직로8길 15-2,126.970574094821,37.5748287095007,http://place.map.kakao.com/1008842619,,unknown,unknown,,0,0
16988848,유니드플러스,"교육,학문 > 학원 > 어학원 > 영어학원",AC5,학원,02-722-0707,서울 종로구 수송동 85,서울 종로구 율곡로2길 7,126.981185641936,37.575115591945,http://place.map.kakao.com/16988848,,unknown,unknown,,0,0
1648132557,인사별채,"교육,학문 > 학원 > 요리학원",AC5,학원,02-732-1100,서울 종로구 관훈동 118-2,서울 종로구 인사동길 62-5,126.983857158375,37.5754727813495,http://place.map.kakao.com/1648132557,,unknown,unknown,,0,0
17209491,한국문화유산아카데미,"교육,학문 > 학원",AC5,학원,02-722-5958,서울 종로구 경운동 88,서울 종로구 삼일대로 457,126.986143895572,37.5753469326591,http://place.map.kakao.com/17209491,,unknown,unknown,,0,0
464144141,더본아카데미,"교육,학문 > 학원",AC5,학원,02-763-1206,서울 종로구 익선동 33-7,서울 종로구 삼일대로32가길 15,126.988842707051,37.5750733162161,http://place.map.kakao.com/464144141,,unknown,unknown,#제로페이 ,0,0
12119377,비전21자격정보원,"교육,학문 > 학원",AC5,학원,02-745-6722,서울 종로구 익선동 30-6,서울 종로구 삼일대로32길 36,126.989087197769,37.5752643499305,http://place.map.kakao.com/12119377,,unknown,unknown,,0,0
26425993,홍선생미술 종로지사,"교육,학문 > 학원 > 미술학원",AC5,학원,02-395-0888,서울 종로구 필운동 137-5,서울 종로구 사직로9길 6-1,126.96866931176298,37.57653290096344,http://place.map.kakao.com/26425993,,unknown,unknown,#제로페이 ,0,0
19928050,대치에스학원 광화문캠퍼스,"교육,학문 > 학원",AC5,학원,02-722-9898,서울 종로구 필운동 211,서울 종로구 사직로 101,126.970005224753,37.5763061973691,http://place.map.kakao.com/19928050,,unknown,unknown,,0,0
15464763,푸드앤컬쳐아카데미,"교육,학문 > 학원 > 요리학원",AC5,학원,,서울 종로구 필운동 214,서울 종로구 사직로 101,126.9699837281178,37.57627555809476,http://place.map.kakao.com/15464763,,unknown,unknown,,0,0
12098108,매경아이씨,"교육,학문 > 학원",AC5,학원,1544-4645,서울 종로구 필운동 214,서울 종로구 사직로 101,126.969968999184,37.5763061881592,http://place.map.kakao.com/12098108,,unknown,unknown,,0,0
512413352,문피아노연습실,"교육,학문 > 학원 > 음악학원 > 피아노학원",AC5,학원,,서울 종로구 내자동 125-3,서울 종로구 사직로12길 2,126.971065020687,37.5757946970355,http://place.map.kakao.com/512413352,,unknown,unknown,,1,5.0
11186520,예명원,"교육,학문 > 학원",AC5,학원,02-765-3767,서울 종로구 운니동 65-1,서울 종로구 율곡로6길 36,126.989050899881,37.5757616955727,http://place.map.kakao.com/11186520,,unknown,unknown,,0,0
20347613,둘리기타,"교육,학문 > 학원 > 음악학원",AC5,학원,,서울 종로구 필운동 106-1,서울 종로구 필운대로1길 3,126.969013145077,37.5772826189976,http://place.map.kakao.com/20347613,,unknown,unknown,,0,0
1061464652,행복한수학,"교육,학문 > 학원 > 수학학원",AC5,학원,010-8570-1580,서울 종로구 체부동 74,서울 종로구 자하문로1가길 15-18,126.971562559685,37.5772652407832,http://place.map.kakao.com/1061464652,,unknown,unknown,#제로페이 ,0,0
1922686843,금현국악원,"교육,학문 > 학원 > 음악학원",AC5,학원,,서울 종로구 안국동 175-61,서울 종로구 윤보선길 27,126.983800165786,37.5772765643994,http://place.map.kakao.com/1922686843,,unknown,unknown,,0,0
8099055,초상화클화실,"교육,학문 > 학원 > 미술학원",AC5,학원,02-734-2289,서울 종로구 안국동 73-1,서울 종로구 율곡로 지하 62,126.98582326945495,37.57672001019107,http://place.map.kakao.com/8099055,,unknown,unknown,#제로페이 ,0,0
2058712493,랩스어학원 종로점,"교육,학문 > 학원 > 어학원 > 영어학원",AC5,학원,,서울 종로구 운니동 98-78,서울 종로구 율곡로 84,126.98845297636,37.5770951103587,http://place.map.kakao.com/2058712493,,unknown,unknown,,2,3.0
12789806,미송국악원,"교육,학문 > 학원",AC5,학원,02-745-0910,서울 종로구 운니동 16,서울 종로구 율곡로6길 15,126.989440207964,37.5765690220853,http://place.map.kakao.com/12789806,,unknown,unknown,,0,0
728644146,해금쟁이,"교육,학문 > 학원 > 음악학원",AC5,학원,010-7630-2765,서울 종로구 권농동 134-1,서울 종로구 율곡로 110-16,126.99124919032944,37.57689893398738,http://place.map.kakao.com/728644146,,unknown,unknown,,0,0
24724976,주얼리캐드캠학원,"교육,학문 > 학원 > 컴퓨터학원",AC5,학원,02-3675-7848,서울 종로구 와룡동 27-2,서울 종로구 율곡로10길 20,126.990911870068,37.5766268081973,http://place.map.kakao.com/24724976,,unknown,unknown,,0,0
19616037,더기타랩,"교육,학문 > 학원 > 음악학원",AC5,학원,070-8950-0908,서울 종로구 필운동 33-1,서울 종로구 사직로9길 23,126.967532231922,37.5776822624224,http://place.map.kakao.com/19616037,,unknown,unknown,#제로페이 ,2,3.0
23752652,성장수학,"교육,학문 > 학원 > 수학학원",AC5,학원,,서울 종로구 필운동 41,서울 종로구 필운대로1길 36,126.967504951047,37.5779381372648,http://place.map.kakao.com/23752652,,unknown,unknown,,0,0
1367890125,플라톤아카데미 종로교실,"교육,학문 > 학원 > 논술학원",AC5,학원,010-8476-4470,서울 종로구 필운동 53,서울 종로구 필운대로1길 27-1,126.967971456501,37.5777256301303,http://place.map.kakao.com/1367890125,,unknown,unknown,,1,5.0
23288462,뮤즈음악,"교육,학문 > 학원 > 음악학원",AC5,학원,02-737-4372,서울 종로구 필운동 57-3,서울 종로구 필운대로1길 20,126.968342720701,37.5778554734402,http://place.map.kakao.com/23288462,,unknown,unknown,,0,0
18860799,오라클수학교습소,"교육,학문 > 학원",AC5,학원,,서울 종로구 체부동 118-1,서울 종로구 자하문로5가길 17-1,126.970747110155,37.578194867549,http://place.map.kakao.com/18860799,,unknown,unknown,,0,0
1645823861,숲울림,"교육,학문 > 학원 > 꽃꽂이학원",AC5,학원,,서울 종로구 체부동 135,서울 종로구 자하문로5길 13,126.971077892897,37.5776363326649,http://place.map.kakao.com/1645823861,,unknown,unknown,,0,0
22301618,세그루국어교습소,"교육,학문 > 학원",AC5,학원,,서울 종로구 통의동 64,서울 종로구 자하문로 18,126.972363904861,37.5776870964116,http://place.map.kakao.com/22301618,,unknown,unknown,,0,0
1639946134,북촌화실,"교육,학문 > 학원 > 미술학원",AC5,학원,02-962-2723,서울 종로구 사간동 62-2,서울 종로구 삼청로 22-5,126.9799860850315,37.57786522961565,http://place.map.kakao.com/1639946134,,unknown,unknown,,0,0
1435272151,쿠킹앤모어,"교육,학문 > 학원 > 요리학원",AC5,학원,02-6365-6010,서울 종로구 통인동 150-1,서울 종로구 자하문로7길 30,126.970565640081,37.5790525687935,http://place.map.kakao.com/1435272151,,unknown,unknown,#제로페이 ,0,0
1606729280,이강학원 경복궁지점,"교육,학문 > 학원",AC5,학원,,서울 종로구 통의동 102,서울 종로구 자하문로 30,126.97183369156213,37.57876095609936,http://place.map.kakao.com/1606729280,,unknown,unknown,,1,1.0
601930465,큐원홈메이드플라자,"교육,학문 > 학원 > 요리학원",AC5,학원,02-740-7608,서울 종로구 재동 55,서울 종로구 북촌로 18,126.985767478395,37.5784030607455,http://place.map.kakao.com/601930465,,unknown,unknown,,0,0
1593092446,한식문화공간이음,"교육,학문 > 학원 > 요리학원",AC5,학원,,서울 종로구 재동 54-5,서울 종로구 북촌로 18,126.985839930209,37.5784102774115,http://place.map.kakao.com/1593092446,,unknown,unknown,,0,0
1297618897,플라로마,"교육,학문 > 학원",AC5,학원,,서울 종로구 와룡동 3,서울 종로구 창덕궁길 30,126.989308554857,37.5789115952343,http://place.map.kakao.com/1297618897,,unknown,unknown,,0,0
14499241,도모도솔라,"교육,학문 > 학원 > 미술학원",AC5,학원,02-722-3141,서울 종로구 통인동 72,서울 종로구 자하문로7길 52,126.969564613781,37.5796866146913,http://place.map.kakao.com/14499241,,unknown,unknown,,0,0
910080172,퀸즈영어수학전문학원,"교육,학문 > 학원",AC5,학원,02-733-1377,서울 종로구 통인동 137-7,서울 종로구 자하문로9길 11,126.970565533676,37.5793228669617,http://place.map.kakao.com/910080172,,unknown,unknown,,0,0
10380814,베리타스연세학원,"교육,학문 > 학원 > 보습학원",AC5,학원,02-738-7048,서울 종로구 통인동 135-4,서울 종로구 자하문로9길 15,126.970366296432,37.5792939853077,http://place.map.kakao.com/10380814,,unknown,unknown,,0,0
1244424792,훈샘국어,"교육,학문 > 학원",AC5,학원,02-733-1947,서울 종로구 통인동 137-15,서울 종로구 자하문로 37-1,126.971104381517,37.5793986835837,http://place.map.kakao.com/1244424792,,unknown,unknown,,0,0
11166828,임이조전통춤전수원,"교육,학문 > 학원 > 무용학원,발레학원",AC5,학원,02-722-1477,서울 종로구 창성동 131,서울 종로구 자하문로10길 7,126.97192393198613,37.57963043679075,http://place.map.kakao.com/11166828,,unknown,unknown,,0,0
24480751,안국대치이강학원,"교육,학문 > 학원 > 입시학원",AC5,학원,02-747-5288,서울 종로구 계동 86,서울 종로구 계동길 61,126.98656417129,37.5800285472912,http://place.map.kakao.com/24480751,,unknown,unknown,,3,2.7
1655168691,쿠킹스튜디오,"교육,학문 > 학원 > 요리학원",AC5,학원,070-4133-8126,서울 종로구 계동 100-1,서울 종로구 계동길 57,126.986595899965,37.5798627680223,http://place.map.kakao.com/1655168691,,unknown,unknown,,0,0
27282033,레몬밤키친,"교육,학문 > 학원 > 요리학원",AC5,학원,,서울 종로구 계동 100-1,서울 종로구 계동길 57,126.986604955498,37.5798699770015,http://place.map.kakao.com/27282033,,unknown,unknown,,0,0
2061732230,준스잉글리쉬,"교육,학문 > 학원 > 어학원 > 영어학원",AC5,학원,010-7403-4804,서울 종로구 누상동 87,서울 종로구 필운대로5가길 43,126.966851705452,37.5805796699387,http://place.map.kakao.com/2061732230,,unknown,unknown,,0,0
2042977795,잉글리시버디 푸르넷영어교습소,"교육,학문 > 학원 > 어학원 > 영어학원",AC5,학원,,서울 종로구 옥인동 153-1,서울 종로구 옥인길 22-1,126.96743238638234,37.58079426808293,http://place.map.kakao.com/2042977795,,unknown,unknown,,0,0
27514303,은파피아노,"교육,학문 > 학원 > 음악학원 > 피아노학원",AC5,학원,02-736-3244,서울 종로구 누하동 83-3,서울 종로구 옥인길 11,126.967870655809,37.5804682284445,http://place.map.kakao.com/27514303,,unknown,unknown,,0,0
2090754997,디어버터,"교육,학문 > 학원 > 요리학원",AC5,학원,,서울 종로구 누하동 17,서울 종로구 필운대로 48,126.968765090568,37.5803098935933,http://place.map.kakao.com/2090754997,,unknown,unknown,,0,0
15450537,THEBEST영어교습소,"교육,학문 > 학원 > 어학원",AC5,학원,02-6408-5717,서울 종로구 통인동 46-28,서울 종로구 자하문로7길 78,126.968821541255,37.5806811179533,http://place.map.kakao.com/15450537,,unknown,unknown,,0,0
439565035,아이와나,"교육,학문 > 학원 > 미술학원",AC5,학원,070-8826-1027,서울 종로구 누하동 17,서울 종로구 필운대로 48,126.968767357799,37.5803026862427,http://place.map.kakao.com/439565035,,unknown,unknown,#제로페이 ,0,0
16993855,서울학문에듀학원,"교육,학문 > 학원",AC5,학원,,서울 종로구 옥인동 104,서울 종로구 옥인길 8,126.968060772114,37.5806520827653,http://place.map.kakao.com/16993855,,unknown,unknown,,0,0
1984001640,나래피아노교습소,"교육,학문 > 학원 > 음악학원 > 피아노학원",AC5,학원,,서울 종로구 누하동 1-11,서울 종로구 자하문로7길 68-2,126.969138700141,37.5802775560821,http://place.map.kakao.com/1984001640,,unknown,unknown,,0,0
23293477,신예진음악학원,"교육,학문 > 학원 > 음악학원",AC5,학원,,서울 종로구 통인동 46-33,서울 종로구 자하문로7길 68-4,126.969233769134,37.5803460564275,http://place.map.kakao.com/23293477,,unknown,unknown,,0,0
9357297,재동속셈학원,"교육,학문 > 학원",AC5,학원,,서울 종로구 가회동 208-7,서울 종로구 북촌로6길 1,126.98520108771,37.5801725432956,http://place.map.kakao.com/9357297,,unknown,unknown,,1,5.0
1492109659,호키포키타,"교육,학문 > 학원 > 음악학원",AC5,학원,,서울 종로구 원서동 123,서울 종로구 창덕궁길 61,126.988805711105,37.580223395813,http://place.map.kakao.com/1492109659,,unknown,unknown,,0,0
15816610,청명학원,"교육,학문 > 학원",AC5,학원,02-722-9034,서울 종로구 효자동 25,서울 종로구 자하문로 62,126.971067300952,37.5816043072801,http://place.map.kakao.com/15816610,,unknown,unknown,,0,0
