id,place_name,category_name,category_group_code,category_group_name,phone,address_name,road_address_name,x,y,place_url,distance,wheelchair,animal,keyword,evalnum,rate
19623767,충정리시온공인중개사사무소,부동산 > 부동산서비스 > 부동산중개업소,AG2,중개업소,02-363-1800,서울 서대문구 충정로3가 465,서울 서대문구 서소문로 27,126.96485059971,37.5603066966371,http://place.map.kakao.com/19623767,,unknown,unknown,,0,0
8060663,정도 공인중개사사무소,부동산 > 부동산서비스 > 부동산중개업소,AG2,중개업소,02-393-0127,서울 서대문구 충정로3가 465,서울 서대문구 서소문로 27,126.964864174623,37.5603211166274,http://place.map.kakao.com/8060663,,unknown,unknown,,0,0
22218355,롯데공인중개사사무소,부동산 > 부동산서비스 > 부동산중개업소,AG2,중개업소,02-393-1231,서울 중구 중림동 500,서울 중구 서소문로 38,126.96620419190738,37.56041521147357,http://place.map.kakao.com/22218355,,unknown,unknown,,0,0
856255532,미래앤부동산중개,부동산 > 부동산서비스 > 부동산중개업소,AG2,중개업소,02-2629-3700,서울 중구 중림동 500,서울 중구 서소문로 38,126.966186099258,37.5603791664194,http://place.map.kakao.com/856255532,,unknown,unknown,,0,0
499131007,뉴미래부동산중개,부동산 > 부동산서비스 > 부동산중개업소,AG2,중개업소,02-2629-3700,서울 중구 중림동 441,서울 중구 청파로 463,126.967195793654,37.5601019442368,http://place.map.kakao.com/499131007,,unknown,unknown,,0,0
11222610,포스코공인중개사사무소,부동산 > 부동산서비스 > 부동산중개업소,AG2,중개업소,02-3789-4222,서울 중구 순화동 151,서울 중구 칠패로 27,126.971926714765,37.5601536197327,http://place.map.kakao.com/11222610,,unknown,unknown,,0,0
14942745,남대문부동산 중개인사무소,부동산 > 부동산서비스 > 부동산중개업소,AG2,중개업소,02-777-4589,서울 중구 남대문로4가 20-1,서울 중구 남대문로 8-4,126.97685676169064,37.56045922598272,http://place.map.kakao.com/14942745,,unknown,unknown,,0,0
8691672,금촌 공인중개사사무소,부동산 > 부동산서비스 > 부동산중개업소,AG2,중개업소,,서울 중구 남대문로4가 20-14,서울 중구 남대문로 6-1,126.976471984494,37.5603384163523,http://place.map.kakao.com/8691672,,unknown,unknown,,0,0
17434202,일등공인중개사사무소,부동산 > 부동산서비스 > 부동산중개업소,AG2,중개업소,,서울 중구 남대문로4가 3-5,서울 중구 남대문시장길 31,126.9777260089397,37.56039992737758,http://place.map.kakao.com/17434202,,unknown,unknown,,0,0
9595535,현대부동산,부동산 > 부동산서비스 > 부동산중개업소,AG2,중개업소,02-753-9396,서울 중구 남대문로4가 3-4,서울 중구 남대문시장길 29,126.97760378334,37.5603674683684,http://place.map.kakao.com/9595535,,unknown,unknown,,0,0
23211604,신세계조선호텔 스테이트타워남산,부동산 > 부동산서비스 > 부동산중개업소,AG2,중개업소,02-6020-5528,서울 중구 회현동2가 88,서울 중구 퇴계로 100,126.982954999217,37.5602458265977,http://place.map.kakao.com/23211604,,unknown,unknown,,0,0
15992877,인주이앤이,부동산 > 부동산서비스 > 부동산중개업소,AG2,중개업소,02-771-2251,서울 중구 남산동1가 6-1,서울 중구 퇴계로18길 14,126.985109973855,37.56016683031,http://place.map.kakao.com/15992877,,unknown,unknown,,0,0
26644993,신세계공인중개사사무소,부동산 > 부동산서비스 > 부동산중개업소,AG2,중개업소,02-2277-3177,서울 중구 남산동2가 10-1,서울 중구 퇴계로20길 5,126.985933969853,37.5599434841131,http://place.map.kakao.com/26644993,,unknown,unknown,,0,0
10188098,남산부동산,부동산 > 부동산서비스 > 부동산중개업소,AG2,중개업소,02-752-2510,서울 중구 남산동1가 5-1,서울 중구 퇴계로18길 8,126.985458515842,37.5604443807953,http://place.map.kakao.com/10188098,,unknown,unknown,,0,0
11194910,행복한공인중개사사무소,부동산 > 부동산서비스 > 부동산중개업소,AG2,중개업소,02-365-7400,서울 서대문구 합동 117,서울 서대문구 서소문로 37,126.9655234335888,37.56085307929797,http://place.map.kakao.com/11194910,,unknown,unknown,,1,1.0
790913745,충정디오빌부동산,부동산 > 부동산서비스 > 부동산중개업소,AG2,중개업소,02-393-3651,서울 서대문구 합동 117,서울 서대문구 서소문로 37,126.965493219609,37.5608411773139,http://place.map.kakao.com/790913745,,unknown,unknown,,0,0
8128700,SK리쳄블하나공인중개사사무소,부동산 > 부동산서비스 > 부동산중개업소,AG2,중개업소,02-363-6223,서울 서대문구 합동 116,서울 서대문구 서소문로 45,126.966217373309,37.5613017960743,http://place.map.kakao.com/8128700,,unknown,unknown,,0,0
18887502,키움공인중개사사무소,부동산 > 부동산서비스 > 부동산중개업소,AG2,중개업소,02-2299-1312,서울 서대문구 합동 117,서울 서대문구 서소문로 37,126.965610942032,37.5608114787676,http://place.map.kakao.com/18887502,,unknown,unknown,,0,0
8067057,SK공인중개사사무소,부동산 > 부동산서비스 > 부동산중개업소,AG2,중개업소,02-363-4900,서울 서대문구 합동 116,서울 서대문구 서소문로 45,126.966199327655,37.5611612354212,http://place.map.kakao.com/8067057,,unknown,unknown,,1,1.0
18761048,알디스,부동산 > 부동산서비스 > 부동산중개업소,AG2,중개업소,,서울 서대문구 합동 117,서울 서대문구 서소문로 37,126.965597371857,37.5607862469043,http://place.map.kakao.com/18761048,,unknown,unknown,,0,0
8388821,브라운스톤공인중개사사무소,부동산 > 부동산서비스 > 부동산중개업소,AG2,중개업소,02-6383-8989,서울 중구 중림동 355,서울 중구 청파로 464,126.968141594936,37.5610104080349,http://place.map.kakao.com/8388821,,unknown,unknown,,2,1.0
10452804,브라운스톤명공인중개사사무소,부동산 > 부동산서비스 > 부동산중개업소,AG2,중개업소,02-364-3648,서울 중구 중림동 355,서울 중구 청파로 464,126.968128039224,37.5609491365964,http://place.map.kakao.com/10452804,,unknown,unknown,,0,0
1974573515,유림부동산,부동산 > 부동산서비스 > 부동산중개업소,AG2,중개업소,02-778-1154,서울 중구 남대문로3가 26-3,서울 중구 남대문로 26,126.978498877961,37.560943371742,http://place.map.kakao.com/1974573515,,unknown,unknown,,0,0
108363222,자유공인중개사사무소,부동산 > 부동산서비스 > 부동산중개업소,AG2,중개업소,02-753-2337,서울 중구 회현동1가 202-8,서울 중구 남대문시장길 73,126.97999403834427,37.56082920796529,http://place.map.kakao.com/108363222,,unknown,unknown,#제로페이 ,0,0
26884238,명동부동산 공인중개사사무소,부동산 > 부동산서비스 > 부동산중개업소,AG2,중개업소,02-777-3548,서울 중구 충무로1가 25-9,서울 중구 명동8나길 49,126.982162536467,37.5610782306096,http://place.map.kakao.com/26884238,,unknown,unknown,,0,0
10943368,명동한국공인중개사사무소,부동산 > 부동산서비스 > 부동산중개업소,AG2,중개업소,02-775-6600,서울 중구 충무로1가 25-11,서울 중구 소공로 66,126.981985971014,37.5610854117762,http://place.map.kakao.com/10943368,,unknown,unknown,,0,0
14963503,KB 부동산공인중개사사무소,부동산 > 부동산서비스 > 부동산중개업소,AG2,중개업소,,서울 중구 충무로1가 25-11,서울 중구 소공로 66,126.982026722551,37.5610601900772,http://place.map.kakao.com/14963503,,unknown,unknown,,0,0
21362451,명동 대운 부동산,부동산 > 부동산서비스 > 부동산중개업소,AG2,중개업소,02-775-9700,서울 중구 충무로1가 25-1,서울 중구 명동2길 50,126.983126819183,37.5611973039284,http://place.map.kakao.com/21362451,,unknown,unknown,,1,5.0
8676214,행복부동산,부동산 > 부동산서비스 > 부동산중개업소,AG2,중개업소,02-3789-2783,서울 중구 충무로1가 25-33,서울 중구 명동8나길 35,126.98298648983,37.5611252040493,http://place.map.kakao.com/8676214,,unknown,unknown,,0,0
27222219,빅스공인중개사사무소,부동산 > 부동산서비스 > 부동산중개업소,AG2,중개업소,02-318-1588,서울 중구 충무로1가 24-18,서울 중구 명동2길 49,126.983316961814,37.5612117468972,http://place.map.kakao.com/27222219,,unknown,unknown,,0,0
8486400,인터컴부동산,부동산 > 부동산서비스 > 부동산중개업소,AG2,중개업소,,서울 중구 충무로1가 22-6,서울 중구 명동8나길 22,126.983778681382,37.5615037341775,http://place.map.kakao.com/8486400,,unknown,unknown,,0,0
11988750,부동산저널,부동산 > 부동산서비스 > 부동산중개업소,AG2,중개업소,,서울 중구 충무로1가 24-6,서울 중구 명동8나길 9,126.984398966653,37.5612875785559,http://place.map.kakao.com/11988750,,unknown,unknown,,0,0
7870236,명동골드공인중개사사무소,부동산 > 부동산서비스 > 부동산중개업소,AG2,중개업소,02-777-6977,서울 중구 충무로2가 65-6,서울 중구 퇴계로 127,126.985847724573,37.5611508095965,http://place.map.kakao.com/7870236,,unknown,unknown,,0,0
1140712269,성심부동산컨설팅공인중개사사무소,부동산 > 부동산서비스 > 부동산중개업소,AG2,중개업소,02-753-4959,서울 중구 충무로2가 65-6,서울 중구 퇴계로 127,126.985847723891,37.5611544135835,http://place.map.kakao.com/1140712269,,unknown,unknown,,0,0
8099274,웰씨 공인중개사사무소,부동산 > 부동산서비스 > 부동산중개업소,AG2,중개업소,02-756-3027,서울 중구 충무로2가 62-8,서울 중구 퇴계로 141,126.987513742907,37.5612735331019,http://place.map.kakao.com/8099274,,unknown,unknown,,0,0
1765461337,에스에이치이앤씨개발,부동산 > 부동산서비스 > 부동산중개업소,AG2,중개업소,,서울 중구 태평로2가 150,서울 중구 세종대로 55,126.97497757077,37.5616175245165,http://place.map.kakao.com/1765461337,,unknown,unknown,,0,0
10819657,코리아공인중개사사무소,부동산 > 부동산서비스 > 부동산중개업소,AG2,중개업소,,서울 중구 남대문로4가 17-4,서울 중구 세종대로 62,126.976417227216,37.5617043165353,http://place.map.kakao.com/10819657,,unknown,unknown,,0,0
10798153,제일부동산,부동산 > 부동산서비스 > 부동산중개업소,AG2,중개업소,,서울 중구 태평로2가 69-13,서울 중구 세종대로 68,126.976688691917,37.5622629883544,http://place.map.kakao.com/10798153,,unknown,unknown,,0,0
14953137,앳서울컨설팅 공인중개사사무소,부동산 > 부동산서비스 > 부동산중개업소,AG2,중개업소,02-310-9009,서울 중구 태평로2가 70-5,서울 중구 세종대로 64,126.976738583489,37.5619710752944,http://place.map.kakao.com/14953137,,unknown,unknown,,0,0
10320051,대호부동산,부동산 > 부동산서비스 > 부동산중개업소,AG2,중개업소,02-755-2991,서울 중구 북창동 97,서울 중구 남대문로1길 26-4,126.977630399357,37.5621982987792,http://place.map.kakao.com/10320051,,unknown,unknown,,0,0
516498246,거상부동산공인중개사사무소,부동산 > 부동산서비스 > 부동산중개업소,AG2,중개업소,02-452-8578,서울 중구 명동2가 105,서울 중구 남대문로 52-13,126.982239250326,37.562130606311,http://place.map.kakao.com/516498246,,unknown,unknown,,0,0
48364609,비오스,부동산 > 부동산서비스 > 부동산중개업소,AG2,중개업소,,서울 중구 충무로1가 21-17,서울 중구 명동2길 34,126.982701136348,37.5617090084602,http://place.map.kakao.com/48364609,,unknown,unknown,,0,0
24725642,라이프부동산공인중개사사무소,부동산 > 부동산서비스 > 부동산중개업소,AG2,중개업소,02-319-5050,서울 중구 충무로1가 21-17,서울 중구 명동2길 34,126.98268301792,37.5617486496577,http://place.map.kakao.com/24725642,,unknown,unknown,,0,0
26088600,명동명진공인중개사사무소,부동산 > 부동산서비스 > 부동산중개업소,AG2,중개업소,02-777-8128,서울 중구 충무로1가 22-1,서울 중구 명동4길 40,126.983914415942,37.5618965873006,http://place.map.kakao.com/26088600,,unknown,unknown,,0,0
7823805,대명공인중개사,부동산 > 부동산서비스 > 부동산중개업소,AG2,중개업소,02-754-6064,서울 중구 충무로1가 22-12,서울 중구 명동4길 42,126.983932536849,37.5618425299688,http://place.map.kakao.com/7823805,,unknown,unknown,,0,0
14946905,명동KS부동산컨설팅,부동산 > 부동산서비스 > 부동산중개업소,AG2,중개업소,02-776-8945,서울 중구 충무로1가 22-2,서울 중구 명동4길 46,126.983950672419,37.5617199968888,http://place.map.kakao.com/14946905,,unknown,unknown,,0,0
10425713,삼성공인중개사사무소,부동산 > 부동산서비스 > 부동산중개업소,AG2,중개업소,010-2417-0506,서울 중구 충무로1가 23-19,서울 중구 명동8길 46,126.984828971276,37.5617201130139,http://place.map.kakao.com/10425713,,unknown,unknown,#제로페이 ,1,5.0
14953741,양지부동산,부동산 > 부동산서비스 > 부동산중개업소,AG2,중개업소,02-757-0012,서울 중구 명동2가 52-8,서울 중구 명동6길 29,126.98454368350482,37.56204443480561,http://place.map.kakao.com/14953741,,unknown,unknown,,0,0
1127459449,명동엠케이부동산공인중개사사무소,부동산 > 부동산서비스 > 부동산중개업소,AG2,중개업소,02-777-7727,서울 중구 충무로2가 66-8,서울 중구 명동8가길 9,126.98549900252992,37.56177786099642,http://place.map.kakao.com/1127459449,,unknown,unknown,,5,5.0
10608856,신한 공인중개사사무소,부동산 > 부동산서비스 > 부동산중개업소,AG2,중개업소,02-771-8959,서울 중구 충무로2가 65-2,서울 중구 명동8가길 6,126.985403977381,37.5615291742011,http://place.map.kakao.com/10608856,,unknown,unknown,,0,0
22871355,성모부동산중개,부동산 > 부동산서비스 > 부동산중개업소,AG2,중개업소,,서울 중구 충무로2가 66-9,서울 중구 명동8가길 7,126.985390354658,37.5617382037486,http://place.map.kakao.com/22871355,,unknown,unknown,,0,0
1560698580,명동라온공인중개사사무소,부동산 > 부동산서비스 > 부동산중개업소,AG2,중개업소,02-755-8924,서울 중구 명동2가 1-21,서울 중구 명동8가길 39-1,126.987251047895,37.5619330346107,http://place.map.kakao.com/1560698580,,unknown,unknown,,4,5.0
7955956,세종부동산,부동산 > 부동산서비스 > 부동산중개업소,AG2,중개업소,02-754-1718,서울 중구 충무로2가 12-14,서울 중구 명동8가길 37,126.987124283989,37.5619258128813,http://place.map.kakao.com/7955956,,unknown,unknown,,0,0
382274397,명동세원공인중개사사무소,부동산 > 부동산서비스 > 부동산중개업소,AG2,중개업소,,서울 중구 충무로2가 62-6,서울 중구 명동8가길 42-1,126.987491035373,37.5616988011481,http://place.map.kakao.com/382274397,,unknown,unknown,,0,0
7926803,삼일 부동산중개컨설팅,부동산 > 부동산서비스 > 부동산중개업소,AG2,중개업소,,서울 중구 충무로2가 12-3,서울 중구 삼일대로 305,126.988613763345,37.5619980456536,http://place.map.kakao.com/7926803,,unknown,unknown,,0,0
14943338,명동 부동산,부동산 > 부동산서비스 > 부동산중개업소,AG2,중개업소,02-730-7030,서울 중구 충무로2가 50-5,서울 중구 삼일대로6길 14,126.989854210879,37.5623008936291,http://place.map.kakao.com/14943338,,unknown,unknown,,0,0
17057452,써브부동산중개법인,부동산 > 부동산서비스 > 부동산중개업소,AG2,중개업소,02-6430-2111,서울 중구 충무로2가 51-3,서울 중구 수표로 7,126.990266261525,37.5618252020986,http://place.map.kakao.com/17057452,,unknown,unknown,,0,0
90582209,영화공인중개사사무소,부동산 > 부동산서비스 > 부동산중개업소,AG2,중개업소,02-2277-4939,서울 중구 충무로2가 50-2,서울 중구 수표로 11,126.990288853335,37.5621702856721,http://place.map.kakao.com/90582209,,unknown,unknown,,0,0
90198818,대한공인중개사사무소,부동산 > 부동산서비스 > 부동산중개업소,AG2,중개업소,02-2277-7775,서울 중구 충무로2가 50-2,서울 중구 수표로 11,126.99026621698168,37.562167580818176,http://place.map.kakao.com/90198818,,unknown,unknown,,0,0
8207330,극동부동산,부동산 > 부동산서비스 > 부동산중개업소,AG2,중개업소,02-2279-9576,서울 중구 충무로3가 59-8,서울 중구 수표로2길 9,126.991044913575,37.5622180982593,http://place.map.kakao.com/8207330,,unknown,unknown,,0,0
12917745,브라이트유니온,부동산 > 부동산서비스 > 부동산중개업소,AG2,중개업소,02-6327-2700,서울 중구 충무로3가 60-1,서울 중구 퇴계로 173,126.991081173141,37.5618757222835,http://place.map.kakao.com/12917745,,unknown,unknown,,0,0
14954696,뱅가즈 부동산중개사무소,부동산 > 부동산서비스 > 부동산중개업소,AG2,중개업소,02-360-9557,서울 서대문구 충정로3가 222,서울 서대문구 충정로 50,126.96510288391,37.5629665136,http://place.map.kakao.com/14954696,,unknown,unknown,,0,0
26341699,자수성가,부동산 > 부동산서비스 > 부동산중개업소,AG2,중개업소,070-5030-4567,서울 중구 순화동 5-2,서울 중구 서소문로 89,126.970825652104,37.5625860439095,http://place.map.kakao.com/26341699,,unknown,unknown,,0,0
24211844,제이원부동산중개법인,부동산 > 부동산서비스 > 부동산중개업소,AG2,중개업소,02-733-6111,서울 중구 서소문동 55-4,서울 중구 서소문로 103,126.972686240214,37.5630225713115,http://place.map.kakao.com/24211844,,unknown,unknown,,0,0
629404475,대건상사,부동산 > 부동산서비스 > 부동산중개업소,AG2,중개업소,02-752-3469,서울 중구 서소문동 57-7,서울 중구 서소문로 101,126.972401077326,37.5628522166624,http://place.map.kakao.com/629404475,,unknown,unknown,,0,0
17089479,제네스알엠,부동산 > 부동산서비스 > 부동산중개업소,AG2,중개업소,02-757-3694,서울 중구 서소문동 58-7,서울 중구 서소문로 106,126.973044067809,37.5625685513177,http://place.map.kakao.com/17089479,,unknown,unknown,,0,0
14946950,권용안 공인중개사사무소,부동산 > 부동산서비스 > 부동산중개업소,AG2,중개업소,,서울 중구 서소문동 57-7,서울 중구 서소문로 101,126.972342187721,37.5629432035259,http://place.map.kakao.com/14946950,,unknown,unknown,,0,0
127452709,비알장유,부동산 > 부동산서비스 > 부동산중개업소,AG2,중개업소,070-5133-7530,서울 중구 태평로2가 310,서울 중구 세종대로 73,126.975943733991,37.5629142594091,http://place.map.kakao.com/127452709,,unknown,unknown,,0,0
10728823,전국부동산,부동산 > 부동산서비스 > 부동산중개업소,AG2,중개업소,02-778-4728,서울 중구 태평로2가 69-11,서울 중구 세종대로 70-1,126.976688640263,37.5624287717132,http://place.map.kakao.com/10728823,,unknown,unknown,,0,0
599682039,광화문세종부동산,부동산 > 부동산서비스 > 부동산중개업소,AG2,중개업소,,서울 중구 북창동 18-4,서울 중구 남대문로1길 46,126.97752483956178,37.56319387988461,http://place.map.kakao.com/599682039,,unknown,unknown,,0,0
9815885,삼호 부동산중개인사무소,부동산 > 부동산서비스 > 부동산중개업소,AG2,중개업소,02-753-0909,서울 중구 태평로2가 69-7,서울 중구 세종대로 72,126.976792750455,37.562490059989,http://place.map.kakao.com/9815885,,unknown,unknown,,0,0
1824901879,태솔공인중개사사무소,부동산 > 부동산서비스 > 부동산중개업소,AG2,중개업소,02-755-0000,서울 중구 명동2가 95-1,서울 중구 남대문로 64,126.98221646286392,37.56276490446125,http://place.map.kakao.com/1824901879,,unknown,unknown,,0,0
233196768,명동국제부동산공인중개사사무소,부동산 > 부동산서비스 > 부동산중개업소,AG2,중개업소,02-774-8949,서울 중구 명동2가 54-2,서울 중구 명동8길 8-11,126.98393903577148,37.563203035649146,http://place.map.kakao.com/233196768,,unknown,unknown,#제로페이 ,1,5.0
25589051,명동모닝공인중개사사무소,부동산 > 부동산서비스 > 부동산중개업소,AG2,중개업소,02-754-8944,서울 중구 명동2가 55-11,서울 중구 명동4길 12-1,126.98359384793405,37.56308135366467,http://place.map.kakao.com/25589051,,unknown,unknown,,0,0
1269941802,엠퍼스트부동산중개,부동산 > 부동산서비스 > 부동산중개업소,AG2,중개업소,02-2291-5999,서울 중구 저동2가 61-8,서울 중구 삼일대로8길 15-1,126.98988128394528,37.56297394036915,http://place.map.kakao.com/1269941802,,y,y,,0,0
816155289,나인부동산,부동산 > 부동산서비스 > 부동산중개업소,AG2,중개업소,02-2273-2773,서울 중구 충무로3가 58-18,서울 중구 수표로6길 14,126.991139922924,37.5627659113388,http://place.map.kakao.com/816155289,,unknown,unknown,,0,0
26794607,삼우사부동산,부동산 > 부동산서비스 > 부동산중개업소,AG2,중개업소,02-2268-3839,서울 중구 충무로3가 58-12,서울 중구 수표로6길 12,126.991022213282,37.5627478825162,http://place.map.kakao.com/26794607,,unknown,unknown,,0,0
7853945,디오빌부동산 공인중개사,부동산 > 부동산서비스 > 부동산중개업소,AG2,중개업소,02-313-5111,서울 서대문구 충정로2가 192,서울 서대문구 충정로 59,126.964898605262,37.5641305403431,http://place.map.kakao.com/7853945,,unknown,unknown,,0,0
8195965,그린 공인중개사사무소,부동산 > 부동산서비스 > 부동산중개업소,AG2,중개업소,02-365-7931,서울 서대문구 충정로2가 191,서울 서대문구 충정로 53,126.96465430127,37.5637520490096,http://place.map.kakao.com/8195965,,unknown,unknown,,0,0
1675788550,덕수궁롯데캐슬 부동산공인중개사,부동산 > 부동산서비스 > 부동산중개업소,AG2,중개업소,02-755-2500,서울 중구 순화동 217,서울 중구 서소문로9길 28,126.97063407843537,37.56333112049235,http://place.map.kakao.com/1675788550,,unknown,unknown,,0,0
715638174,지우택공인중개사사무소,부동산 > 부동산서비스 > 부동산중개업소,AG2,중개업소,,서울 중구 서소문동 37,서울 중구 서소문로11길 24,126.973016464272,37.5637866921947,http://place.map.kakao.com/715638174,,unknown,unknown,,0,0
14957356,치우부동산공인중개사사무소,부동산 > 부동산서비스 > 부동산중개업소,AG2,중개업소,02-757-8751,서울 중구 서소문동 89,서울 중구 서소문로 128-3,126.975556512694,37.5633115193108,http://place.map.kakao.com/14957356,,unknown,unknown,,0,0
22537984,해냄디앤씨플러스,부동산 > 부동산서비스 > 부동산중개업소,AG2,중개업소,,서울 중구 태평로2가 340-6,서울 중구 서소문로 138,126.976289833147,37.5636900873422,http://place.map.kakao.com/22537984,,unknown,unknown,,0,0
20346674,한양자산홀딩스,부동산 > 부동산서비스 > 부동산중개업소,AG2,중개업소,02-3789-4864,서울 중구 태평로2가 340-6,서울 중구 서소문로 138,126.976298900572,37.5636504453226,http://place.map.kakao.com/20346674,,unknown,unknown,,0,0
135289817,시청부동산,부동산 > 부동산서비스 > 부동산중개업소,AG2,중개업소,02-6954-7703,서울 중구 태평로2가 344-3,서울 중구 세종대로 83,126.9764913073,37.563679315675,http://place.map.kakao.com/135289817,,unknown,unknown,,0,0
173439797,명문공인중개사사무소,부동산 > 부동산서비스 > 부동산중개업소,AG2,중개업소,02-318-7770,서울 중구 태평로2가 52-3,서울 중구 세종대로18길 8-1,126.977557503497,37.5637263749714,http://place.map.kakao.com/173439797,,unknown,unknown,,0,0
681376950,씨티공인중개사사무소,부동산 > 부동산서비스 > 부동산중개업소,AG2,중개업소,,서울 중구 북창동 11-4,서울 중구 세종대로18길 16-3,126.97825818532516,37.56351567293117,http://place.map.kakao.com/681376950,,unknown,unknown,,0,0
7934646,삼일 공인중개사사무소,부동산 > 부동산서비스 > 부동산중개업소,AG2,중개업소,02-778-1530,서울 중구 명동1가 79,서울 중구 명동길 1-6,126.982474274292,37.5638281188043,http://place.map.kakao.com/7934646,,unknown,unknown,,0,0
26882994,(주)소공쇼핑센터,부동산 > 부동산서비스 > 부동산중개업소,AG2,중개업소,02-752-9214,서울 중구 남대문로2가 130-2,서울 중구 남대문로 지하 72,126.981980771047,37.5638785003111,http://place.map.kakao.com/26882994,,unknown,unknown,,0,0
10417672,미래명동부동산중개,부동산 > 부동산서비스 > 부동산중개업소,AG2,중개업소,02-755-2222,서울 중구 명동2가 55-5,서울 중구 명동4길 2,126.983438700651,37.5634606515042,http://place.map.kakao.com/10417672,,unknown,unknown,,0,0
9032356,부림부동산,부동산 > 부동산서비스 > 부동산중개업소,AG2,중개업소,02-776-8949,서울 중구 명동1가 31-4,서울 중구 명동9길 5,126.984923556825,37.5641420037012,http://place.map.kakao.com/9032356,,unknown,unknown,,0,0
1693428824,명동리더스부동산중개컨설팅,부동산 > 부동산서비스 > 부동산중개업소,AG2,중개업소,02-310-9643,서울 중구 명동2가 50-3,서울 중구 명동길 36-1,126.984301142967,37.563608532742,http://place.map.kakao.com/1693428824,,unknown,unknown,,0,0
756563999,명동부동산공인중개사사무소,부동산 > 부동산서비스 > 부동산중개업소,AG2,중개업소,02-774-5454,서울 중구 명동1가 28-2,서울 중구 명동길 49,126.98500282319635,37.5639633462264,http://place.map.kakao.com/756563999,,unknown,unknown,,0,0
7877206,명동현대 공인중개사사무소,부동산 > 부동산서비스 > 부동산중개업소,AG2,중개업소,02-776-8004,서울 중구 명동2가 50-3,서울 중구 명동길 36-1,126.984335095659,37.5636229531939,http://place.map.kakao.com/7877206,,unknown,unknown,,0,0
715039606,경진컨설팅부동산중개,부동산 > 부동산서비스 > 부동산중개업소,AG2,중개업소,,서울 중구 명동1가 5-1,서울 중구 명동길 65,126.985936573862,37.5641538416677,http://place.map.kakao.com/715039606,,unknown,unknown,,0,0
10280095,동우사 부동산중개인사무소,부동산 > 부동산서비스 > 부동산중개업소,AG2,중개업소,,서울 중구 명동2가 3-1,서울 중구 명동10길 7-4,126.985444368319,37.5633527962408,http://place.map.kakao.com/10280095,,unknown,unknown,,0,0
10844966,충우부동산,부동산 > 부동산서비스 > 부동산중개업소,AG2,중개업소,02-2272-1500,서울 중구 저동2가 48-7,서울 중구 수표로 26,126.99041092144223,37.56349746351153,http://place.map.kakao.com/10844966,,unknown,unknown,,0,0
8347953,삼미부동산,부동산 > 부동산서비스 > 부동산중개업소,AG2,중개업소,02-2277-4999,서울 중구 저동2가 46-5,서울 중구 퇴계로27길 59,126.991049245167,37.5638543081982,http://place.map.kakao.com/8347953,,unknown,unknown,,0,0
27090227,허브부동산,부동산 > 부동산서비스 > 부동산중개업소,AG2,중개업소,02-363-3366,서울 서대문구 충정로2가 98-25,서울 서대문구 충정로 67-1,126.965495970533,37.5646929380832,http://place.map.kakao.com/27090227,,unknown,unknown,,0,0
14670185,한마음부동산공인중개사,부동산 > 부동산서비스 > 부동산중개업소,AG2,중개업소,02-313-7111,서울 서대문구 충정로2가 192,서울 서대문구 충정로 59,126.96505081278168,37.56419113244709,http://place.map.kakao.com/14670185,,unknown,unknown,,7,1.3
10352271,로타리부동산,부동산 > 부동산서비스 > 부동산중개업소,AG2,중개업소,02-313-9433,서울 서대문구 충정로2가 99-22,서울 서대문구 충정로9길 6,126.965061433884,37.5644729672154,http://place.map.kakao.com/10352271,,unknown,unknown,,0,0
7820351,대우부동산타운공인중개사사무소,부동산 > 부동산서비스 > 부동산중개업소,AG2,중개업소,02-392-9030,서울 서대문구 충정로2가 98-2,서울 서대문구 충정로 67,126.96559779023303,37.5647992853456,http://place.map.kakao.com/7820351,,unknown,unknown,,0,0
632543597,광장공인중개사사무소,부동산 > 부동산서비스 > 부동산중개업소,AG2,중개업소,070-4454-2932,서울 서대문구 충정로2가 157,서울 서대문구 통일로 107-39,126.966111933235,37.56419937056,http://place.map.kakao.com/632543597,,unknown,unknown,,0,0
14959143,포스코 공인중개사사무소,부동산 > 부동산서비스 > 부동산중개업소,AG2,중개업소,,서울 중구 의주로1가 32-2,서울 중구 통일로 102,126.968479738775,37.5643369778877,http://place.map.kakao.com/14959143,,unknown,unknown,,0,0
897789126,리오공인중개사무소,부동산 > 부동산서비스 > 부동산중개업소,AG2,중개업소,,서울 중구 태평로2가 23,서울 중구 소공로 119,126.978132230165,37.5646076571972,http://place.map.kakao.com/897789126,,unknown,unknown,,0,0
9578300,한주홀딩스코리아,부동산 > 부동산서비스 > 부동산중개업소,AG2,중개업소,02-776-0700,서울 중구 명동1가 59-1,서울 중구 명동7길 13,126.983950111118,37.5643364905798,http://place.map.kakao.com/9578300,,unknown,unknown,,0,0
27383630,모건공인중개사사무소,부동산 > 부동산서비스 > 부동산중개업소,AG2,중개업소,,서울 중구 을지로2가 199-40,서울 중구 명동7길 21,126.983868535801,37.5647112939009,http://place.map.kakao.com/27383630,,unknown,unknown,,0,0
527884184,명동아르누보부동산,부동산 > 부동산서비스 > 부동산중개업소,AG2,중개업소,02-779-5003,서울 중구 을지로2가 199-40,서울 중구 명동7길 21,126.983814192999,37.5647707522134,http://place.map.kakao.com/527884184,,unknown,unknown,,0,0
27289089,부동산플러스공인중개사사무소,부동산 > 부동산서비스 > 부동산중개업소,AG2,중개업소,02-777-4778,서울 중구 을지로2가 199-57,서울 중구 명동7길 23,126.984203546818,37.5648230627299,http://place.map.kakao.com/27289089,,unknown,unknown,#제로페이 ,1,5.0
8996428,명동신세계공인중개사사무소,부동산 > 부동산서비스 > 부동산중개업소,AG2,중개업소,02-777-4466,서울 중구 을지로2가 195-3,서울 중구 명동9길 23,126.984497820971,37.5648879734626,http://place.map.kakao.com/8996428,,unknown,unknown,,0,0
26603136,성심공인중개사,부동산 > 부동산서비스 > 부동산중개업소,AG2,중개업소,02-774-7070,서울 중구 을지로2가 199-41,서울 중구 명동7길 19,126.984221691029,37.5646608858376,http://place.map.kakao.com/26603136,,unknown,unknown,,0,0
1335462595,명동경진부동산중개사무소,부동산 > 부동산서비스 > 부동산중개업소,AG2,중개업소,02-758-9011,서울 중구 명동1가 5-1,서울 중구 명동길 65,126.98591958825192,37.56419438447679,http://place.map.kakao.com/1335462595,,unknown,unknown,,0,0
510370102,서울공인중개사사무소,부동산 > 부동산서비스 > 부동산중개업소,AG2,중개업소,,서울 중구 명동1가 1-3,서울 중구 명동길 73,126.98621836864,37.5643692130115,http://place.map.kakao.com/510370102,,unknown,unknown,,0,0
1537367174,을지로부자공인중개사사무소,부동산 > 부동산서비스 > 부동산중개업소,AG2,중개업소,,서울 중구 초동 107-10,서울 중구 을지로12길 27-1,126.990858949005,37.5650291927491,http://place.map.kakao.com/1537367174,,unknown,unknown,,5,4.2
7874222,문화공인중개사,부동산 > 부동산서비스 > 부동산중개업소,AG2,중개업소,02-313-4285,서울 서대문구 충정로2가 124,서울 서대문구 충정로 73,126.96598239210296,37.56531746956522,http://place.map.kakao.com/7874222,,unknown,unknown,,0,0
22803396,바비엥공인중개사사무소,부동산 > 부동산서비스 > 부동산중개업소,AG2,중개업소,02-319-2977,서울 중구 의주로1가 25-10,서울 중구 통일로 114,126.967931526954,37.5652414304184,http://place.map.kakao.com/22803396,,unknown,unknown,,0,0
9290920,우리자산관리,부동산 > 부동산서비스 > 부동산중개업소,AG2,중개업소,,서울 중구 을지로1가 192-11,서울 중구 을지로 6,126.979214090083,37.5653628874155,http://place.map.kakao.com/9290920,,unknown,unknown,,0,0
1868319495,대구우리네공인중개사,부동산 > 부동산서비스 > 부동산중개업소,AG2,중개업소,,서울 중구 을지로1가 188-3,서울 중구 을지로 16,126.979417760695,37.56561159802,http://place.map.kakao.com/1868319495,,unknown,unknown,,0,0
26304282,명동베스트공인중개사사무소,부동산 > 부동산서비스 > 부동산중개업소,AG2,중개업소,02-313-1002,서울 중구 을지로2가 199-7,서울 중구 명동9길 45,126.98398601459,37.5658141291629,http://place.map.kakao.com/26304282,,unknown,unknown,,0,0
827344046,명동공인중개사사무소,부동산 > 부동산서비스 > 부동산중개업소,AG2,중개업소,02-774-5457,서울 중구 을지로2가 163-5,서울 중구 을지로 78,126.986498798854,37.565882918959,http://place.map.kakao.com/827344046,,unknown,unknown,,1,5.0
8341487,명보부동산,부동산 > 부동산서비스 > 부동산중개업소,AG2,중개업소,02-2265-6825,서울 중구 을지로2가 167,서울 중구 명동13길 27,126.986847499982,37.5654360642665,http://place.map.kakao.com/8341487,,unknown,unknown,,0,0
91651928,가이아 공인중개사사무소,부동산 > 부동산서비스 > 부동산중개업소,AG2,중개업소,,서울 중구 저동1가 114,서울 중구 삼일대로 343,126.986960746869,37.5651009062655,http://place.map.kakao.com/91651928,,unknown,unknown,,0,0
1678461739,제이매크로공인중개사사무소,부동산 > 부동산서비스 > 부동산중개업소,AG2,중개업소,02-557-0009,서울 중구 저동2가 7-2,서울 중구 을지로12길 28,126.99056011716014,37.565155308696944,http://place.map.kakao.com/1678461739,,unknown,unknown,#제로페이 ,0,0
14950254,소망 공인중개사 사무소,부동산 > 부동산서비스 > 부동산중개업소,AG2,중개업소,02-2278-6632,서울 중구 저동2가 78,서울 중구 수표로 45,126.989659099993,37.5654471559636,http://place.map.kakao.com/14950254,,unknown,unknown,,0,0
11682604,법인보험씨에스,부동산 > 부동산서비스 > 부동산중개업소,AG2,중개업소,02-2266-4110,서울 중구 저동2가 78,서울 중구 수표로 45,126.989672682113,37.5654507611369,http://place.map.kakao.com/11682604,,unknown,unknown,,0,0
1346505888,매크로부동산,부동산 > 부동산서비스 > 부동산중개업소,AG2,중개업소,02-2268-8949,서울 중구 저동2가 7-2,서울 중구 을지로12길 28,126.990569169023,37.5651805373127,http://place.map.kakao.com/1346505888,,unknown,unknown,,0,0
8307825,미래부동산 중개인사무소,부동산 > 부동산서비스 > 부동산중개업소,AG2,중개업소,,서울 중구 을지로3가 322-1,서울 중구 을지로12길 14,126.990994698071,37.5656635044556,http://place.map.kakao.com/8307825,,unknown,unknown,,0,0
10283519,상지문화사,부동산 > 부동산서비스 > 부동산중개업소,AG2,중개업소,,서울 중구 을지로3가 326,서울 중구 을지로 114-10,126.990768307996,37.5657643985304,http://place.map.kakao.com/10283519,,unknown,unknown,,0,0
1346505888,매크로부동산,부동산 > 부동산서비스 > 부동산중개업소,AG2,중개업소,02-2268-8949,서울 중구 저동2가 7-2,서울 중구 을지로12길 28,126.990569169023,37.5651805373127,http://place.map.kakao.com/1346505888,,unknown,unknown,,0,0
818848855,스마일공인중개사사무소,부동산 > 부동산서비스 > 부동산중개업소,AG2,중개업소,02-392-7778,서울 서대문구 냉천동 183-4,서울 서대문구 경기대로 86,126.964612296209,37.5664117769929,http://place.map.kakao.com/818848855,,unknown,unknown,,0,0
20957656,한성부동산,부동산 > 부동산서비스 > 부동산중개업소,AG2,중개업소,02-2278-9972,서울 중구 을지로2가 101-15,서울 중구 을지로 99-1,126.989083957875,37.5664381998255,http://place.map.kakao.com/20957656,,unknown,unknown,#제로페이 ,0,0
14953966,참사랑컨설팅 공인중개사사무소,부동산 > 부동산서비스 > 부동산중개업소,AG2,중개업소,,서울 중구 을지로2가 101-46,서울 중구 을지로 95,126.988490852901,37.5663696678032,http://place.map.kakao.com/14953966,,unknown,unknown,,0,0
781811675,한강부동산,부동산 > 부동산서비스 > 부동산중개업소,AG2,중개업소,02-302-0302,서울 중구 을지로3가 5-7,서울 중구 수표로 58,126.98984460031,37.5663959208949,http://place.map.kakao.com/781811675,,unknown,unknown,,0,0
7496281,세운부동산,부동산 > 부동산서비스 > 부동산중개업소,AG2,중개업소,02-467-8949,서울 중구 을지로3가 5-7,서울 중구 수표로 58,126.989854786303,37.5664040307343,http://place.map.kakao.com/7496281,,unknown,unknown,,0,0
181804034,을지부동산,부동산 > 부동산서비스 > 부동산중개업소,AG2,중개업소,02-2263-4985,서울 중구 을지로3가 5-26,서울 중구 을지로 113,126.990421858977,37.5664734547912,http://place.map.kakao.com/181804034,,unknown,unknown,,0,0
228544590,현대부동산,부동산 > 부동산서비스 > 부동산중개업소,AG2,중개업소,02-2278-0011,서울 중구 을지로3가 346-3,서울 중구 을지로 108,126.989954438573,37.5660679677509,http://place.map.kakao.com/228544590,,unknown,unknown,,0,0
8604886,한보부동산,부동산 > 부동산서비스 > 부동산중개업소,AG2,중개업소,,서울 중구 을지로3가 5-22,서울 중구 을지로 113-3,126.99058259211832,37.566447338839154,http://place.map.kakao.com/8604886,,unknown,unknown,,0,0
26821819,경희궁자이교남공인중개사사무소,부동산 > 부동산서비스 > 부동산중개업소,AG2,중개업소,02-730-3456,서울 종로구 교남동 16-1,서울 종로구 통일로 148,126.965259208644,37.5675616398151,http://place.map.kakao.com/26821819,,unknown,unknown,#제로페이 ,0,0
7938255,돈의문센트레빌공인중개사사무소,부동산 > 부동산서비스 > 부동산중개업소,AG2,중개업소,02-364-3366,서울 서대문구 냉천동 160-2,서울 서대문구 통일로9길 5,126.964702491028,37.5671686405207,http://place.map.kakao.com/7938255,,unknown,unknown,,3,5.0
1878689002,영원한컨설팅공인중개사사무소,부동산 > 부동산서비스 > 부동산중개업소,AG2,중개업소,02-766-4700,서울 서대문구 냉천동 237,서울 서대문구 통일로 147,126.964883525679,37.5673200618015,http://place.map.kakao.com/1878689002,,unknown,unknown,,0,0
14944765,대신부동산,부동산 > 부동산서비스 > 부동산중개업소,AG2,중개업소,02-393-0002,서울 서대문구 냉천동 238,서울 서대문구 통일로 147-1,126.964824635698,37.5673849159663,http://place.map.kakao.com/14944765,,unknown,unknown,,0,0
2124839445,이오공감부동산중개,부동산 > 부동산서비스 > 부동산중개업소,AG2,중개업소,02-755-2282,서울 중구 무교동 25-1,서울 중구 세종대로20길 23,126.978801580999,37.5671395781342,http://place.map.kakao.com/2124839445,,unknown,unknown,,0,0
779945458,하나공인중개사무소,부동산 > 부동산서비스 > 부동산중개업소,AG2,중개업소,02-777-1279,서울 중구 다동 117,서울 중구 남대문로9길 12,126.981742352385,37.5668607608243,http://place.map.kakao.com/779945458,,unknown,unknown,,0,0
26545915,터브먼아시아매니지먼트리미티드(영업소),부동산 > 부동산서비스 > 부동산중개업소,AG2,중개업소,,서울 중구 수하동 66,서울 중구 을지로5길 19,126.984130641198,37.5670178792918,http://place.map.kakao.com/26545915,,unknown,unknown,,0,0
759243227,커머셜 공인중개사사무소,부동산 > 부동산서비스 > 부동산중개업소,AG2,중개업소,02-6956-2257,서울 중구 수표동 99,서울 중구 청계천로 100,126.988179394081,37.5675508426271,http://place.map.kakao.com/759243227,,unknown,unknown,,0,0
14961069,천일 부동산중개사무소,부동산 > 부동산서비스 > 부동산중개업소,AG2,중개업소,02-777-7232,서울 중구 수표동 56-14,서울 중구 을지로9길 26,126.988717129377,37.5670544465421,http://place.map.kakao.com/14961069,,unknown,unknown,,0,0
1475947468,상경공인중개사사무소,부동산 > 부동산서비스 > 부동산중개업소,AG2,중개업소,02-735-9700,서울 종로구 교남동 27,서울 종로구 통일로 152-1,126.964937590592,37.5678895071792,http://place.map.kakao.com/1475947468,,unknown,unknown,#제로페이 ,0,0
1683169728,종로자이공인중개사사무소,부동산 > 부동산서비스 > 부동산중개업소,AG2,중개업소,02-722-0588,서울 종로구 교남동 27,서울 종로구 통일로 152-1,126.964942109833,37.5679075284352,http://place.map.kakao.com/1683169728,,unknown,unknown,,1,5.0
1624998905,경희궁다주공인중개사사무소,부동산 > 부동산서비스 > 부동산중개업소,AG2,중개업소,02-722-1616,서울 종로구 평동 233,서울 종로구 경교장길 35,126.96544337432135,37.56829059938123,http://place.map.kakao.com/1624998905,,unknown,unknown,,0,0
1163458024,일등자이공인중개사사무소,부동산 > 부동산서비스 > 부동산중개업소,AG2,중개업소,02-720-2800,서울 종로구 교남동 30,서울 종로구 통일로 156,126.964801673511,37.5680732698544,http://place.map.kakao.com/1163458024,,unknown,unknown,,0,0
397697568,경희궁명가공인중개사사무소,부동산 > 부동산서비스 > 부동산중개업소,AG2,중개업소,02-732-7772,서울 종로구 평동 43,서울 종로구 경교장길 35,126.965793395841,37.567731182998,http://place.map.kakao.com/397697568,,unknown,unknown,,0,0
2033417962,경희궁더잘나가는 공인중개사사무소,부동산 > 부동산서비스 > 부동산중개업소,AG2,중개업소,02-739-5757,서울 종로구 평동 233,서울 종로구 경교장길 35,126.96560072345548,37.568266318451336,http://place.map.kakao.com/2033417962,,unknown,unknown,,0,0
2034349691,행복드림부동산,부동산 > 부동산서비스 > 부동산중개업소,AG2,중개업소,02-738-8990,서울 종로구 평동 233,서울 종로구 경교장길 35,126.96560072345548,37.568266318451336,http://place.map.kakao.com/2034349691,,unknown,unknown,,0,0
2035694432,자이골드부동산,부동산 > 부동산서비스 > 부동산중개업소,AG2,중개업소,02-722-1114,서울 종로구 평동 233,서울 종로구 경교장길 35,126.96560072345548,37.568266318451336,http://place.map.kakao.com/2035694432,,unknown,unknown,,0,0
990935749,궁공인중개사사무소,부동산 > 부동산서비스 > 부동산중개업소,AG2,중개업소,,서울 종로구 평동 233,서울 종로구 경교장길 35,126.96568017084924,37.567803229795246,http://place.map.kakao.com/990935749,,unknown,unknown,,0,0
2116157278,위랜드부동산중개사무소,부동산 > 부동산서비스 > 부동산중개업소,AG2,중개업소,,서울 중구 태평로1가 62-9,서울 중구 세종대로 135-7,126.976247583801,37.5684221098534,http://place.map.kakao.com/2116157278,,unknown,unknown,,0,0
11952713,스카이랜,부동산 > 부동산서비스 > 부동산중개업소,AG2,중개업소,02-2022-0900,서울 중구 태평로1가 84,서울 중구 세종대로 136,126.978072257778,37.5684116509146,http://place.map.kakao.com/11952713,,unknown,unknown,,0,0
1832526359,프론트레인지공인중개사사무소,부동산 > 부동산서비스 > 부동산중개업소,AG2,중개업소,02-318-0231,서울 중구 태평로1가 84,서울 중구 세종대로 136,126.978257891095,37.5684224971952,http://place.map.kakao.com/1832526359,,unknown,unknown,,0,0
8145874,한일부동산,부동산 > 부동산서비스 > 부동산중개업소,AG2,중개업소,02-777-2335,서울 중구 무교동 10-2,서울 중구 을지로1길 47,126.97968303084838,37.568274987764944,http://place.map.kakao.com/8145874,,unknown,unknown,,0,0
10708907,우석부동산 중개사무소,부동산 > 부동산서비스 > 부동산중개업소,AG2,중개업소,02-777-1334,서울 중구 다동 51-21,서울 중구 다동길 21,126.980485686907,37.5678174173495,http://place.map.kakao.com/10708907,,unknown,unknown,,0,0
10704499,우신사부동산 중개인사무소,부동산 > 부동산서비스 > 부동산중개업소,AG2,중개업소,,서울 중구 다동 50,서울 중구 다동길 17,126.980313613152,37.5679002803889,http://place.map.kakao.com/10704499,,unknown,unknown,,0,0
917911387,호텔황제공인중개사사무소,부동산 > 부동산서비스 > 부동산중개업소,AG2,중개업소,010-5766-5766,서울 중구 다동 88,서울 중구 남대문로 117,126.982305823002,37.5677852683272,http://place.map.kakao.com/917911387,,unknown,unknown,,0,0
769516959,마시멜로,부동산 > 부동산서비스 > 부동산중개업소,AG2,중개업소,,서울 중구 다동 88,서울 중구 남대문로 117,126.982296764229,37.5677996829011,http://place.map.kakao.com/769516959,,unknown,unknown,,0,0
1337324091,청계부동산,부동산 > 부동산서비스 > 부동산중개업소,AG2,중개업소,02-723-4383,서울 종로구 관수동 162,서울 종로구 종로16길 35,126.988934249874,37.5684474065352,http://place.map.kakao.com/1337324091,,unknown,unknown,,0,0
14683831,두레에셋 공인중개사사무소,부동산 > 부동산서비스 > 부동산중개업소,AG2,중개업소,,서울 종로구 관수동 152-1,서울 종로구 청계천로 105,126.989319100749,37.5684852837977,http://place.map.kakao.com/14683831,,unknown,unknown,,0,0
26864398,자이좋은집공인중개사사무소,부동산 > 부동산서비스 > 부동산중개업소,AG2,중개업소,02-722-5530,서울 종로구 평동 9-8,서울 종로구 경교장길 35,126.96479681506864,37.56877604498609,http://place.map.kakao.com/26864398,,unknown,unknown,,0,0
1364592482,경희궁자이베스트공인중개사사무소,부동산 > 부동산서비스 > 부동산중개업소,AG2,중개업소,02-737-8008,서울 종로구 평동 233,서울 종로구 경교장길 35,126.96511371989286,37.56885542666609,http://place.map.kakao.com/1364592482,,unknown,unknown,,0,0
1175259823,경희궁자이공인중개사사무소,부동산 > 부동산서비스 > 부동산중개업소,AG2,중개업소,02-722-3500,서울 종로구 평동 233,서울 종로구 경교장길 35,126.9649564212823,37.56876888450593,http://place.map.kakao.com/1175259823,,unknown,unknown,,0,0
1975730626,이삭부동산공인중개사사무소,부동산 > 부동산서비스 > 부동산중개업소,AG2,중개업소,02-793-4909,서울 종로구 신문로2가 171,서울 종로구 새문안로2길 10,126.972014070812,37.5686770649531,http://place.map.kakao.com/1975730626,,unknown,unknown,,0,0
2015369023,더블유파트너즈부동산중개,부동산 > 부동산서비스 > 부동산중개업소,AG2,중개업소,02-730-5665,서울 종로구 서린동 88,서울 종로구 청계천로 35,126.981377261739,37.5693384419671,http://place.map.kakao.com/2015369023,,unknown,unknown,,0,0
14954184,스타부동산,부동산 > 부동산서비스 > 부동산중개업소,AG2,중개업소,02-725-4949,서울 종로구 관철동 155,서울 종로구 청계천로 67,126.985121853338,37.5687262962838,http://place.map.kakao.com/14954184,,unknown,unknown,,2,5.0
10358199,리치 공인중개사사무소,부동산 > 부동산서비스 > 부동산중개업소,AG2,중개업소,02-736-5566,서울 종로구 관철동 155,서울 종로구 청계천로 67,126.985094670394,37.5688091844501,http://place.map.kakao.com/10358199,,unknown,unknown,,0,0
8436764,신세계 공인중개사사무소,부동산 > 부동산서비스 > 부동산중개업소,AG2,중개업소,02-962-2543,서울 종로구 관철동 19-16,서울 종로구 삼일대로17길 46,126.984931564928,37.5693389491295,http://place.map.kakao.com/8436764,,unknown,unknown,,0,0
785477347,굿모닝공인중개사사무소,부동산 > 부동산서비스 > 부동산중개업소,AG2,중개업소,02-732-3999,서울 종로구 관철동 43-12,서울 종로구 종로8길 21,126.984121149854,37.5690721482321,http://place.map.kakao.com/785477347,,unknown,unknown,,0,0
13008686,코아토탈시스템,부동산 > 부동산서비스 > 부동산중개업소,AG2,중개업소,02-730-8196,서울 종로구 관철동 13-13,서울 종로구 종로12길 15,126.986022753949,37.5693643112364,http://place.map.kakao.com/13008686,,unknown,unknown,,0,0
7928576,21세기공인중개사,부동산 > 부동산서비스 > 부동산중개업소,AG2,중개업소,02-760-6070,서울 종로구 관철동 12-13,서울 종로구 종로12길 23,126.98590058347,37.5689426307956,http://place.map.kakao.com/7928576,,unknown,unknown,,0,0
12984599,글로벌 트러스트네트웍스,부동산 > 부동산서비스 > 부동산중개업소,AG2,중개업소,,서울 종로구 관철동 32-7,서울 종로구 청계천로 71,126.985497647884,37.5687659868513,http://place.map.kakao.com/12984599,,unknown,unknown,,0,0
14962393,혜명지공인중개사사무소,부동산 > 부동산서비스 > 부동산중개업소,AG2,중개업소,,서울 종로구 관수동 4,서울 종로구 종로16길 13,126.98870318343,37.5694583016856,http://place.map.kakao.com/14962393,,unknown,unknown,,0,0
24128105,혜명공인중개사사무소,부동산 > 부동산서비스 > 부동산중개업소,AG2,중개업소,02-720-8803,서울 종로구 관철동 22,서울 종로구 삼일대로 390-10,126.98850850541,37.5693501634359,http://place.map.kakao.com/24128105,,unknown,unknown,,0,0
7953365,성진 공인중개사사무소,부동산 > 부동산서비스 > 부동산중개업소,AG2,중개업소,02-2269-1721,서울 종로구 관수동 15,서울 종로구 수표로 90-1,126.98974005394,37.5693971286554,http://place.map.kakao.com/7953365,,unknown,unknown,,0,0
23078581,한양부동산공인중개사사무소,부동산 > 부동산서비스 > 부동산중개업소,AG2,중개업소,,서울 종로구 관수동 147-5,서울 종로구 수표로 82,126.989699409648,37.5686294768939,http://place.map.kakao.com/23078581,,unknown,unknown,,0,0
1551270045,인앤박공인중개사사무소,부동산 > 부동산서비스 > 부동산중개업소,AG2,중개업소,010-3246-8076,서울 종로구 신문로1가 115,서울 종로구 새문안로 76,126.973177296945,37.5697972723864,http://place.map.kakao.com/1551270045,,unknown,unknown,,0,0
9947101,오피시아부동산공인중개사,부동산 > 부동산서비스 > 부동산중개업소,AG2,중개업소,02-739-8222,서울 종로구 신문로1가 163,서울 종로구 새문안로 92,126.974920515016,37.5697553087924,http://place.map.kakao.com/9947101,,unknown,unknown,,1,5.0
23610843,LB공인중개사사무소,부동산 > 부동산서비스 > 부동산중개업소,AG2,중개업소,02-720-4020,서울 종로구 신문로1가 163,서울 종로구 새문안로 92,126.974906937662,37.5697372859986,http://place.map.kakao.com/23610843,,unknown,unknown,#제로페이 ,0,0
408808792,엘리얼티부동산중개,부동산 > 부동산서비스 > 부동산중개업소,AG2,중개업소,02-6324-2727,서울 종로구 신문로1가 163,서울 종로구 새문안로 92,126.97490694975272,37.56970124618359,http://place.map.kakao.com/408808792,,unknown,unknown,,0,0
8115197,가원 공인중개사사무소,부동산 > 부동산서비스 > 부동산중개업소,AG2,중개업소,02-722-7400,서울 종로구 신문로1가 163,서울 종로구 새문안로 92,126.974875246703,37.5697264673132,http://place.map.kakao.com/8115197,,unknown,unknown,,0,0
10517327,엠엔케이 프로퍼티파트너즈,부동산 > 부동산서비스 > 부동산중개업소,AG2,중개업소,,서울 종로구 신문로1가 163,서울 종로구 새문안로 92,126.974902413491,37.5697264730916,http://place.map.kakao.com/10517327,,unknown,unknown,,0,0
18488723,두승인베스트먼트,부동산 > 부동산서비스 > 부동산중개업소,AG2,중개업소,02-738-3288,서울 종로구 신문로1가 163,서울 종로구 새문안로 92,126.974906949753,37.5697012461836,http://place.map.kakao.com/18488723,,unknown,unknown,,0,0
608729369,그래비티인베스트,부동산 > 부동산서비스 > 부동산중개업소,AG2,중개업소,,서울 종로구 서린동 33,서울 종로구 청계천로 41,126.982178598864,37.5696701319907,http://place.map.kakao.com/608729369,,unknown,unknown,,0,0
26217852,대신공인중개사사무소,부동산 > 부동산서비스 > 부동산중개업소,AG2,중개업소,02-720-0889,서울 종로구 관철동 18-7,서울 종로구 우정국로2길 35,126.985035637414,37.5696705287061,http://place.map.kakao.com/26217852,,unknown,unknown,,0,0
22895322,탑부동산 공인중개사사무소,부동산 > 부동산서비스 > 부동산중개업소,AG2,중개업소,,서울 종로구 관철동 45-1,서울 종로구 우정국로2길 21,126.984279488094,37.569706470257,http://place.map.kakao.com/22895322,,unknown,unknown,,0,0
7973101,신동아 공인중개사사무소,부동산 > 부동산서비스 > 부동산중개업소,AG2,중개업소,02-732-7587,서울 종로구 관철동 45-1,서울 종로구 우정국로2길 21,126.984279488094,37.569706470257,http://place.map.kakao.com/7973101,,unknown,unknown,,1,4.0
1876117510,다함께공인중개사사무소,부동산 > 부동산서비스 > 부동산중개업소,AG2,중개업소,02-732-7586,서울 종로구 관철동 45-1,서울 종로구 우정국로2길 21,126.984288545202,37.5696992634991,http://place.map.kakao.com/1876117510,,unknown,unknown,,0,0
10855621,천일 부동산중개인사무소,부동산 > 부동산서비스 > 부동산중개업소,AG2,중개업소,,서울 종로구 관철동 18-7,서울 종로구 우정국로2길 35,126.985008479313,37.5696272774783,http://place.map.kakao.com/10855621,,unknown,unknown,,0,0
8539203,은좌부동산,부동산 > 부동산서비스 > 부동산중개업소,AG2,중개업소,02-732-8988,서울 종로구 관철동 43-1,서울 종로구 종로8길 13,126.984121061869,37.5694866061596,http://place.map.kakao.com/8539203,,unknown,unknown,,0,0
8454728,세진 부동산중개인사무소,부동산 > 부동산서비스 > 부동산중개업소,AG2,중개업소,,서울 종로구 관철동 14-11,서울 종로구 종로12길 9,126.9859253525036,37.56965261822033,http://place.map.kakao.com/8454728,,unknown,unknown,,0,0
7920342,삼성공인중개사,부동산 > 부동산서비스 > 부동산중개업소,AG2,중개업소,,서울 종로구 종로2가 75-5,서울 종로구 종로 82,126.986547870357,37.5699518212819,http://place.map.kakao.com/7920342,,unknown,unknown,,0,0
8134577,한국리얼부동산중개,부동산 > 부동산서비스 > 부동산중개업소,AG2,중개업소,,서울 종로구 종로2가 71-6,서울 종로구 종로 86,126.987000652806,37.5699446640431,http://place.map.kakao.com/8134577,,unknown,unknown,,0,0
7920018,삼미부동산,부동산 > 부동산서비스 > 부동산중개업소,AG2,중개업소,02-739-3434,서울 종로구 관철동 14-5,서울 종로구 삼일대로19길 20,126.986448310732,37.5696634913541,http://place.map.kakao.com/7920018,,unknown,unknown,,0,0
14965251,하나 공인중개사사무소,부동산 > 부동산서비스 > 부동산중개업소,AG2,중개업소,02-720-3335,서울 종로구 관철동 14-3,서울 종로구 삼일대로19길 18,126.986579616126,37.5696671103354,http://place.map.kakao.com/14965251,,unknown,unknown,,0,0
12984418,종로공인중개사사무소,부동산 > 부동산서비스 > 부동산중개업소,AG2,중개업소,02-2266-0273,서울 종로구 관수동 3-5,서울 종로구 삼일대로20길 13,126.988675972542,37.5697502216125,http://place.map.kakao.com/12984418,,unknown,unknown,,0,0
14076447,모텔114부동산,부동산 > 부동산서비스 > 부동산중개업소,AG2,중개업소,,서울 종로구 관수동 20,서울 종로구 수표로 96,126.989979983228,37.569717903655,http://place.map.kakao.com/14076447,,unknown,unknown,,0,0
23925735,대한디앤씨부동산중개(주),부동산 > 부동산서비스 > 부동산중개업소,AG2,중개업소,02-6416-9369,서울 종로구 관수동 20,서울 종로구 수표로 96,126.989979979848,37.5697431315274,http://place.map.kakao.com/23925735,,unknown,unknown,,0,0
9458469,테라칸,부동산 > 부동산서비스 > 부동산중개업소,AG2,중개업소,,서울 종로구 관수동 20,서울 종로구 수표로 96,126.989979979848,37.5697431315274,http://place.map.kakao.com/9458469,,unknown,unknown,,0,0
1327535353,대한부동산공인중개사사무소,부동산 > 부동산서비스 > 부동산중개업소,AG2,중개업소,02-6416-9377,서울 종로구 관수동 20,서울 종로구 수표로 96,126.989979979848,37.5697431315274,http://place.map.kakao.com/1327535353,,unknown,unknown,,0,0
8135523,한국공인중개사사무소,부동산 > 부동산서비스 > 부동산중개업소,AG2,중개업소,02-2285-1011,서울 종로구 종로3가 124,서울 종로구 종로 126,126.991528447236,37.5700964430056,http://place.map.kakao.com/8135523,,unknown,unknown,,0,0
10303803,동아 부동산중개인사무소,부동산 > 부동산서비스 > 부동산중개업소,AG2,중개업소,02-739-9466,서울 종로구 당주동 168,서울 종로구 새문안로5길 5-27,126.974571434568,37.5710490634194,http://place.map.kakao.com/10303803,,unknown,unknown,,0,0
18541262,경진부동산중개,부동산 > 부동산서비스 > 부동산중개업소,AG2,중개업소,,서울 종로구 신문로1가 24,서울 종로구 새문안로 91,126.974730095382,37.5705012923587,http://place.map.kakao.com/18541262,,unknown,unknown,,0,0
8139906,한일부동산,부동산 > 부동산서비스 > 부동산중개업소,AG2,중개업소,02-733-7165,서울 종로구 당주동 22-1,서울 종로구 새문안로9길 19-1,126.975689804053,37.571099754746,http://place.map.kakao.com/8139906,,unknown,unknown,,0,0
26458827,광화문포시즌부동산중개,부동산 > 부동산서비스 > 부동산중개업소,AG2,중개업소,02-6262-1100,서울 종로구 청진동 136,서울 종로구 종로5길 13,126.980493904871,37.5710285666467,http://place.map.kakao.com/26458827,,unknown,unknown,,0,0
24855291,르메이에르공인중개사사무소,부동산 > 부동산서비스 > 부동산중개업소,AG2,중개업소,02-3210-3215,서울 종로구 청진동 146,서울 종로구 종로 19,126.97991893488852,37.57076628062271,http://place.map.kakao.com/24855291,,unknown,unknown,,0,0
26875259,모텔지킴이,부동산 > 부동산서비스 > 부동산중개업소,AG2,중개업소,010-9076-9504,서울 종로구 청진동 136,서울 종로구 종로5길 13,126.980493904871,37.5710285666467,http://place.map.kakao.com/26875259,,unknown,unknown,,0,0
24225644,미래공인중개사사무소,부동산 > 부동산서비스 > 부동산중개업소,AG2,중개업소,02-725-8544,서울 종로구 종로1가 24,서울 종로구 종로 19,126.97990082756016,37.57075096062142,http://place.map.kakao.com/24225644,,unknown,unknown,,1,5.0
8074834,종로타운공인중개사사무소,부동산 > 부동산서비스 > 부동산중개업소,AG2,중개업소,02-720-5599,서울 종로구 종로1가 24,서울 종로구 종로 19,126.9799154697961,37.571023964679775,http://place.map.kakao.com/8074834,,unknown,unknown,,0,0
8939790,드림공인중개사사무소,부동산 > 부동산서비스 > 부동산중개업소,AG2,중개업소,02-737-8949,서울 종로구 청진동 146,서울 종로구 종로 19,126.979914392752,37.5708194385717,http://place.map.kakao.com/8939790,,unknown,unknown,#제로페이 ,0,0
14960193,종로1번가 123부동산중개사무소,부동산 > 부동산서비스 > 부동산중개업소,AG2,중개업소,02-2075-6699,서울 종로구 청진동 146,서울 종로구 종로 19,126.979905307975,37.5709275564582,http://place.map.kakao.com/14960193,,unknown,unknown,,0,0
11119563,신화공인중개사,부동산 > 부동산서비스 > 부동산중개업소,AG2,중개업소,02-2075-7400,서울 종로구 청진동 146,서울 종로구 종로 19,126.979900794632,37.5708734959739,http://place.map.kakao.com/11119563,,unknown,unknown,,0,0
1624283588,호텔링크부동산중개,부동산 > 부동산서비스 > 부동산중개업소,AG2,중개업소,010-2069-6262,서울 종로구 청진동 136,서울 종로구 종로5길 13,126.980466736668,37.5710321661356,http://place.map.kakao.com/1624283588,,unknown,unknown,,0,0
8234644,광화문공인중개사사무소,부동산 > 부동산서비스 > 부동산중개업소,AG2,중개업소,02-737-1124,서울 종로구 청진동 146,서울 종로구 종로 19,126.97990984455836,37.57089512140079,http://place.map.kakao.com/8234644,,unknown,unknown,,1,1.0
14735798,우리 공인중개사사무소,부동산 > 부동산서비스 > 부동산중개업소,AG2,중개업소,02-737-8805,서울 종로구 청진동 146,서울 종로구 종로 19,126.979896254171,37.5709203469547,http://place.map.kakao.com/14735798,,unknown,unknown,,0,0
865070214,에이트리공인중개사사무소,부동산 > 부동산서비스 > 부동산중개업소,AG2,중개업소,,서울 종로구 종로1가 24,,126.97985109974,37.5704590296637,http://place.map.kakao.com/865070214,,unknown,unknown,,0,0
24845263,세진 공인중개사사무소,부동산 > 부동산서비스 > 부동산중개업소,AG2,중개업소,,서울 종로구 청진동 146,서울 종로구 종로 19,126.97998235798,37.5706428550382,http://place.map.kakao.com/24845263,,unknown,unknown,,0,0
19325349,신한부동산,부동산 > 부동산서비스 > 부동산중개업소,AG2,중개업소,02-720-4900,서울 종로구 종로2가 8-4,서울 종로구 종로 65,126.984713998992,37.5704777793763,http://place.map.kakao.com/19325349,,unknown,unknown,,0,0
10473450,세계부동산,부동산 > 부동산서비스 > 부동산중개업소,AG2,중개업소,02-928-0435,서울 종로구 인사동 235,서울 종로구 종로11길 11,126.985429312651,37.5709175555371,http://place.map.kakao.com/10473450,,unknown,unknown,,0,0
582530578,종로대박부동산공인중개사사무소,부동산 > 부동산서비스 > 부동산중개업소,AG2,중개업소,02-723-0880,서울 종로구 종로2가 20,서울 종로구 종로 83-1,126.986855676068,37.5704383934607,http://place.map.kakao.com/582530578,,unknown,unknown,,0,0
8943665,두꺼비부동산,부동산 > 부동산서비스 > 부동산중개업소,AG2,중개업소,02-265-5044,서울 종로구 종로2가 22-2,서울 종로구 종로 85-1,126.987122809404,37.5704924826214,http://place.map.kakao.com/8943665,,unknown,unknown,,0,0
1447215939,문화부동산공인중개사무소,부동산 > 부동산서비스 > 부동산중개업소,AG2,중개업소,02-741-8000,서울 종로구 낙원동 207,서울 종로구 수표로 111,126.98905382968488,37.57121347368541,http://place.map.kakao.com/1447215939,,unknown,unknown,,0,0
12917488,르네상스산업,부동산 > 부동산서비스 > 부동산중개업소,AG2,중개업소,02-2277-3093,서울 종로구 종로2가 39,서울 종로구 종로17길 12,126.988983685104,37.5709575845102,http://place.map.kakao.com/12917488,,unknown,unknown,,0,0
11035615,금성부동산,부동산 > 부동산서비스 > 부동산중개업소,AG2,중개업소,02-765-0001,서울 종로구 종로3가 8,서울 종로구 종로 113,126.99013381331,37.5705900801502,http://place.map.kakao.com/11035615,,unknown,unknown,,0,0
1489555954,웰컴컨설팅부동산중개,부동산 > 부동산서비스 > 부동산중개업소,AG2,중개업소,,서울 종로구 종로3가 10,서울 종로구 종로 115,126.99046434411,37.5706081272171,http://place.map.kakao.com/1489555954,,unknown,unknown,,0,0
23774206,종로코리아 부동산중개법인,부동산 > 부동산서비스 > 부동산중개업소,AG2,중개업소,070-7435-7488,서울 종로구 종로3가,,126.990219844357,37.5705756713835,http://place.map.kakao.com/23774206,,unknown,unknown,,0,0
8988862,문정산업개발,부동산 > 부동산서비스 > 부동산중개업소,AG2,중개업소,,서울 종로구 낙원동 195-1,서울 종로구 수표로22길 12,126.99005226023,37.5709793032741,http://place.map.kakao.com/8988862,,unknown,unknown,,0,0
611298749,종로부동산공인중개사사무소,부동산 > 부동산서비스 > 부동산중개업소,AG2,중개업소,02-766-8404,서울 종로구 종로3가 15,서울 종로구 종로 121-2,126.99108012679,37.5706514231246,http://place.map.kakao.com/611298749,,unknown,unknown,,0,0
26794490,선진부동산,부동산 > 부동산서비스 > 부동산중개업소,AG2,중개업소,02-711-9949,서울 종로구 종로3가 15,서울 종로구 종로 121-2,126.991084655933,37.5706406115229,http://place.map.kakao.com/26794490,,unknown,unknown,,0,0
8074302,종로랜드 공인중개사사무소,부동산 > 부동산서비스 > 부동산중개업소,AG2,중개업소,02-741-4774,서울 종로구 돈의동 160,,126.990894464139,37.5708207960677,http://place.map.kakao.com/8074302,,unknown,unknown,,0,0
8234643,광화문부동산중개인사무소,부동산 > 부동산서비스 > 부동산중개업소,AG2,중개업소,02-735-5600,서울 종로구 당주동 100,서울 종로구 세종대로23길 54,126.972990909708,37.5718668160169,http://place.map.kakao.com/8234643,,unknown,unknown,,0,0
17295614,메리트 공인중개사사무소,부동산 > 부동산서비스 > 부동산중개업소,AG2,중개업소,,서울 종로구 당주동 145,서울 종로구 세종대로23길 47,126.973701961602,37.5713912511166,http://place.map.kakao.com/17295614,,unknown,unknown,,0,0
246529988,조선부동산 R&C 오이소,부동산 > 부동산서비스 > 부동산중개업소,AG2,중개업소,,서울 종로구 당주동 145,서울 종로구 세종대로23길 47,126.973706508506,37.5713371924182,http://place.map.kakao.com/246529988,,unknown,unknown,,0,0
26504550,명가공인중개사사무소,부동산 > 부동산서비스 > 부동산중개업소,AG2,중개업소,02-738-4989,서울 종로구 당주동 145,서울 종로구 세종대로23길 47,126.973742713956,37.5713876562068,http://place.map.kakao.com/26504550,,unknown,unknown,,0,0
12657549,세종공인중개사사무소,부동산 > 부동산서비스 > 부동산중개업소,AG2,중개업소,02-737-6880,서울 종로구 당주동 145,서울 종로구 세종대로23길 47,126.973697437506,37.5713804381665,http://place.map.kakao.com/12657549,,unknown,unknown,,0,0
1252272853,두산컨설팅공인중개사사무소,부동산 > 부동산서비스 > 부동산중개업소,AG2,중개업소,02-735-1043,서울 종로구 당주동 5,서울 종로구 새문안로5길 19,126.974294897098,37.5720292862647,http://place.map.kakao.com/1252272853,,unknown,unknown,,0,0
882845479,광화문로얄공인중개사사무소,부동산 > 부동산서비스 > 부동산중개업소,AG2,중개업소,02-722-8945,서울 종로구 당주동 5,서울 종로구 새문안로5길 19,126.974326606268,37.5719896493809,http://place.map.kakao.com/882845479,,unknown,unknown,,0,0
759345768,로얄부동산공인중개사사무소,부동산 > 부동산서비스 > 부동산중개업소,AG2,중개업소,02-739-7888,서울 종로구 당주동 5,서울 종로구 새문안로5길 19,126.974326606268,37.5719896493809,http://place.map.kakao.com/759345768,,unknown,unknown,,0,0
1509902102,내일파트너스부동산중개법인,부동산 > 부동산서비스 > 부동산중개업소,AG2,중개업소,02-722-8259,서울 종로구 청진동 140,서울 종로구 종로3길 24-20,126.980411168702,37.571419584872,http://place.map.kakao.com/1509902102,,unknown,unknown,#건물토지매매 #광화문부동산 #광화문사무실상가 #빌딩매매임대 #상업용부동산 ,3,5.0
11505443,에셋 공인중개사사무소,부동산 > 부동산서비스 > 부동산중개업소,AG2,중개업소,02-741-8944,서울 종로구 인사동 194-4,서울 종로구 인사동5길 25,126.985433612404,37.5720888498034,http://place.map.kakao.com/11505443,,unknown,unknown,,0,0
26980476,삼정부동산,부동산 > 부동산서비스 > 부동산중개업소,AG2,중개업소,02-733-6428,서울 종로구 인사동 220-29,서울 종로구 종로11길 25,126.985574115528,37.5713788828809,http://place.map.kakao.com/26980476,,unknown,unknown,,0,0
7838373,동아부동산,부동산 > 부동산서비스 > 부동산중개업소,AG2,중개업소,,서울 종로구 인사동 156,서울 종로구 인사동길 15,126.986647092956,37.5721322410587,http://place.map.kakao.com/7838373,,unknown,unknown,,0,0
24725222,포인트 공인중개사사무소,부동산 > 부동산서비스 > 부동산중개업소,AG2,중개업소,02-389-5858,서울 종로구 낙원동 144-1,서울 종로구 수표로 118-1,126.989232590997,37.5718405827709,http://place.map.kakao.com/24725222,,unknown,unknown,,0,0
14958636,에이스플러스 공인중개사사무소,부동산 > 부동산서비스 > 부동산중개업소,AG2,중개업소,1666-4825,서울 종로구 낙원동 141,서울 종로구 수표로 120,126.989209932127,37.5719739279803,http://place.map.kakao.com/14958636,,unknown,unknown,,0,0
23774149,예스부동산,부동산 > 부동산서비스 > 부동산중개업소,AG2,중개업소,,서울 종로구 낙원동 146,서울 종로구 수표로 118,126.989305057917,37.5717000341157,http://place.map.kakao.com/23774149,,unknown,unknown,,0,0
14936503,대교 공인중개사사무소,부동산 > 부동산서비스 > 부동산중개업소,AG2,중개업소,,서울 종로구 낙원동 213-2,서울 종로구 수표로 115-4,126.9889066236,37.5715486301602,http://place.map.kakao.com/14936503,,unknown,unknown,,0,0
983271668,낙원공인중개사사무소,부동산 > 부동산서비스 > 부동산중개업소,AG2,중개업소,02-2233-3487,서울 종로구 낙원동 146,서울 종로구 수표로 118,126.989382012566,37.5718405963046,http://place.map.kakao.com/983271668,,unknown,unknown,,0,0
10528654,신라 공인중개사사무소,부동산 > 부동산서비스 > 부동산중개업소,AG2,중개업소,02-2285-3333,서울 종로구 낙원동 172,서울 종로구 수표로 114,126.989409240854,37.5714117250514,http://place.map.kakao.com/10528654,,unknown,unknown,,0,0
8159218,행운공인중개사사무소,부동산 > 부동산서비스 > 부동산중개업소,AG2,중개업소,02-725-3006,서울 종로구 내수동 73,서울 종로구 새문안로3길 23,126.9724394449532,37.57238115674551,http://place.map.kakao.com/8159218,,unknown,unknown,,0,0
8182492,경희랜드공인중개사사무소,부동산 > 부동산서비스 > 부동산중개업소,AG2,중개업소,02-733-8544,서울 종로구 내수동 73,서울 종로구 새문안로3길 23,126.972519740407,37.5725875033214,http://place.map.kakao.com/8182492,,unknown,unknown,,0,0
12915469,티씨엠,부동산 > 부동산서비스 > 부동산중개업소,AG2,중개업소,02-722-2037,서울 종로구 내수동 73,서울 종로구 새문안로3길 23,126.972239102516,37.5723279510974,http://place.map.kakao.com/12915469,,unknown,unknown,,0,0
19194419,서울부동산,부동산 > 부동산서비스 > 부동산중개업소,AG2,중개업소,02-730-4343,서울 종로구 당주동 2-2,서울 종로구 새문안로5가길 3-1,126.974267574474,37.5724797778375,http://place.map.kakao.com/19194419,,unknown,unknown,,0,0
12858127,한국부동산중개,부동산 > 부동산서비스 > 부동산중개업소,AG2,중개업소,02-739-7339,서울 종로구 도렴동 117-3,,126.974348907258,37.5729771447655,http://place.map.kakao.com/12858127,,unknown,unknown,,0,0
1893279611,태평양공인중개사사무소,부동산 > 부동산서비스 > 부동산중개업소,AG2,중개업소,02-739-5503,서울 종로구 청진동 217,서울 종로구 삼봉로 40,126.97944532670968,37.57239159438567,http://place.map.kakao.com/1893279611,,unknown,unknown,#제로페이 ,0,0
2055830274,청진공인중개사,부동산 > 부동산서비스 > 부동산중개업소,AG2,중개업소,02-730-8949,서울 종로구 청진동 2-2,서울 종로구 삼봉로 60,126.9804120791002,37.57226561944378,http://place.map.kakao.com/2055830274,,unknown,unknown,,0,0
19873834,고려 공인중개사사무소,부동산 > 부동산서비스 > 부동산중개업소,AG2,중개업소,,서울 종로구 수송동 58,서울 종로구 삼봉로 81,126.981788529311,37.5724595537389,http://place.map.kakao.com/19873834,,unknown,unknown,,0,0
1346155240,광화문부동산공인중개사사무소,부동산 > 부동산서비스 > 부동산중개업소,AG2,중개업소,02-736-7977,서울 종로구 수송동 58,서울 종로구 삼봉로 81,126.981811175265,37.5724343293692,http://place.map.kakao.com/1346155240,,unknown,unknown,#제로페이 ,2,3.0
1240592661,종로시티부동산공인중개사사무소,부동산 > 부동산서비스 > 부동산중개업소,AG2,중개업소,02-725-2727,서울 종로구 수송동 58,서울 종로구 삼봉로 81,126.981390069406,37.5724558876184,http://place.map.kakao.com/1240592661,,unknown,unknown,,0,0
7988026,CA공인중개사사무소,부동산 > 부동산서비스 > 부동산중개업소,AG2,중개업소,02-737-7399,서울 종로구 수송동 58,서울 종로구 삼봉로 81,126.9817942081275,37.5723820690416,http://place.map.kakao.com/7988026,,unknown,unknown,#제로페이 ,0,0
8037983,위브공인중개사사무소,부동산 > 부동산서비스 > 부동산중개업소,AG2,중개업소,02-734-8943,서울 종로구 수송동 58,서울 종로구 삼봉로 81,126.981815697093,37.5724595579267,http://place.map.kakao.com/8037983,,unknown,unknown,,0,0
14965334,승마 공인중개사사무소,부동산 > 부동산서비스 > 부동산중개업소,AG2,중개업소,,서울 종로구 수송동 58,서울 종로구 삼봉로 81,126.981806641165,37.5724595565315,http://place.map.kakao.com/14965334,,unknown,unknown,,0,0
14940648,대성스카이렉스공인중개사사무소,부동산 > 부동산서비스 > 부동산중개업소,AG2,중개업소,02-722-5677,서울 종로구 견지동 110,서울 종로구 삼봉로 95,126.98256172154444,37.57227766948316,http://place.map.kakao.com/14940648,,unknown,unknown,,1,5.0
8205658,에이원 부동산중개법인,부동산 > 부동산서비스 > 부동산중개업소,AG2,중개업소,,서울 종로구 관훈동 198-36,서울 종로구 인사동5길 20,126.985148235447,37.572676263017,http://place.map.kakao.com/8205658,,unknown,unknown,,0,0
7838373,동아부동산,부동산 > 부동산서비스 > 부동산중개업소,AG2,중개업소,,서울 종로구 인사동 156,서울 종로구 인사동길 15,126.986647092956,37.5721322410587,http://place.map.kakao.com/7838373,,unknown,unknown,,0,0
12789055,이레공인중개사사무소,부동산 > 부동산서비스 > 부동산중개업소,AG2,중개업소,,서울 종로구 낙원동 285,서울 종로구 삼일대로 423,126.987398700684,37.5723161266738,http://place.map.kakao.com/12789055,,unknown,unknown,,0,0
7839045,동산부동산공인중개사사무소,부동산 > 부동산서비스 > 부동산중개업소,AG2,중개업소,02-3673-1293,서울 종로구 낙원동 108-1,서울 종로구 돈화문로11길 44,126.988929086562,37.572741549763,http://place.map.kakao.com/7839045,,unknown,unknown,,0,0
8154561,현대부동산,부동산 > 부동산서비스 > 부동산중개업소,AG2,중개업소,02-765-1956,서울 종로구 낙원동 236-1,서울 종로구 종로17길 52,126.988539730462,37.5724135504205,http://place.map.kakao.com/8154561,,unknown,unknown,,0,0
964353700,탁월한부동산 공인중개사사무소,부동산 > 부동산서비스 > 부동산중개업소,AG2,중개업소,02-6324-4989,서울 종로구 돈의동 41-1,서울 종로구 돈화문로11길 23,126.990092831598,37.5723344034092,http://place.map.kakao.com/964353700,,unknown,unknown,,3,5.0
1990483752,서울부동산,부동산 > 부동산서비스 > 부동산중개업소,AG2,중개업소,02-6325-4989,서울 종로구 돈의동 41-1,서울 종로구 돈화문로11길 23,126.990083774969,37.5723398086191,http://place.map.kakao.com/1990483752,,unknown,unknown,,0,0
10153367,광개토부동산,부동산 > 부동산서비스 > 부동산중개업소,AG2,중개업소,02-744-1055,서울 종로구 돈의동 37,서울 종로구 돈화문로11길 26,126.989952417989,37.5726839776142,http://place.map.kakao.com/10153367,,unknown,unknown,,0,0
20596386,에스앤에스원,부동산 > 부동산서비스 > 부동산중개업소,AG2,중개업소,02-2163-3540,서울 종로구 돈의동 68,서울 종로구 수표로26길 28,126.990495822452,37.5723128126591,http://place.map.kakao.com/20596386,,unknown,unknown,,0,0
7941432,성도 공인중개사사무소,부동산 > 부동산서비스 > 부동산중개업소,AG2,중개업소,02-741-0400,서울 종로구 돈의동 55,서울 종로구 돈화문로11길 6,126.99109572306232,37.5727615549548,http://place.map.kakao.com/7941432,,unknown,unknown,,0,0
11316477,동해종합부동산중개,부동산 > 부동산서비스 > 부동산중개업소,AG2,중개업소,02-744-7600,서울 종로구 묘동 177-1,서울 종로구 돈화문로 41-1,126.991437639971,37.5722876568632,http://place.map.kakao.com/11316477,,unknown,unknown,,0,0
11166881,정림사 부동산중개인사무소,부동산 > 부동산서비스 > 부동산중개업소,AG2,중개업소,02-765-2876,서울 종로구 묘동 175,서울 종로구 돈화문로 45,126.991383294564,37.5723741484348,http://place.map.kakao.com/11166881,,unknown,unknown,,0,0
8110479,태양공인중개사,부동산 > 부동산서비스 > 부동산중개업소,AG2,중개업소,,서울 종로구 사직동 311-12,서울 종로구 경희궁3나길 3,126.967072102612,37.5736961352614,http://place.map.kakao.com/8110479,,unknown,unknown,,0,0
11134103,건국공인중개사사무소,부동산 > 부동산서비스 > 부동산중개업소,AG2,중개업소,02-739-3344,서울 종로구 내수동 72,서울 종로구 사직로8길 34,126.97248427868794,37.57359300539114,http://place.map.kakao.com/11134103,,unknown,unknown,,0,0
12810937,씨티공인중개사사무소,부동산 > 부동산서비스 > 부동산중개업소,AG2,중개업소,02-6263-3500,서울 종로구 내수동 72,서울 종로구 사직로8길 34,126.97252737475756,37.573375875667104,http://place.map.kakao.com/12810937,,unknown,unknown,#제로페이 ,1,5.0
907558959,이화공인중개사사무소,부동산 > 부동산서비스 > 부동산중개업소,AG2,중개업소,02-722-0033,서울 종로구 내수동 72,서울 종로구 사직로8길 34,126.97242422777964,37.57374075453147,http://place.map.kakao.com/907558959,,unknown,unknown,,0,0
12809180,빌딩매매전문곰 공인중개사,부동산 > 부동산서비스 > 부동산중개업소,AG2,중개업소,02-1600-3015,서울 종로구 내수동 72,서울 종로구 사직로8길 34,126.972424372628,37.5733479208109,http://place.map.kakao.com/12809180,,unknown,unknown,,0,0
8002500,열린공인중개사사무소,부동산 > 부동산서비스 > 부동산중개업소,AG2,중개업소,02-720-4999,서울 종로구 내수동 72,서울 종로구 사직로8길 34,126.97251942887382,37.57343533947919,http://place.map.kakao.com/8002500,,unknown,unknown,,1,5.0
407190239,아침공인중개사사무소,부동산 > 부동산서비스 > 부동산중개업소,AG2,중개업소,,서울 종로구 내수동 72,서울 종로구 사직로8길 34,126.972523931739,37.5735038161367,http://place.map.kakao.com/407190239,,unknown,unknown,,0,0
102712096,아침부동산공인중개사사무소,부동산 > 부동산서비스 > 부동산중개업소,AG2,중개업소,02-734-8989,서울 종로구 내수동 72,서울 종로구 사직로8길 34,126.972439007997,37.5735668659803,http://place.map.kakao.com/102712096,,unknown,unknown,,0,0
11375068,명성공인중개사사무소,부동산 > 부동산서비스 > 부동산중개업소,AG2,중개업소,02-730-5300,서울 종로구 내수동 72,서울 종로구 사직로8길 34,126.972478655783,37.5734920926572,http://place.map.kakao.com/11375068,,unknown,unknown,,0,0
8085816,조경재세무사공인중개사사무소,부동산 > 부동산서비스 > 부동산중개업소,AG2,중개업소,02-723-0670,서울 종로구 내수동 72,서울 종로구 사직로8길 34,126.972383548608,37.5735425261587,http://place.map.kakao.com/8085816,,unknown,unknown,,0,0
18718460,탑부동산,부동산 > 부동산서비스 > 부동산중개업소,AG2,중개업소,02-736-8899,서울 종로구 내수동 75,서울 종로구 새문안로3길 36,126.973239423456,37.573326484505,http://place.map.kakao.com/18718460,,unknown,unknown,,0,0
8193960,광화문114부동산,부동산 > 부동산서비스 > 부동산중개업소,AG2,중개업소,02-730-7575,서울 종로구 내수동 75,서울 종로구 새문안로3길 36,126.973257532942,37.5733336965678,http://place.map.kakao.com/8193960,,unknown,unknown,,2,5.0
8827622,굿모닝 공인중개사사무소,부동산 > 부동산서비스 > 부동산중개업소,AG2,중개업소,02-737-9955,서울 종로구 내수동 74,서울 종로구 사직로8길 42,126.973198505992,37.5737877845854,http://place.map.kakao.com/8827622,,unknown,unknown,,0,0
17627722,하늘공인중개사사무소,부동산 > 부동산서비스 > 부동산중개업소,AG2,중개업소,02-733-4242,서울 종로구 내수동 75,서울 종로구 새문안로3길 36,126.973252973991,37.5734201910431,http://place.map.kakao.com/17627722,,unknown,unknown,,0,0
1377207179,제이앤컴퍼니(주),부동산 > 부동산서비스 > 부동산중개업소,AG2,중개업소,,서울 종로구 관훈동 5,서울 종로구 인사동6길 5,126.986157839547,37.5734043896301,http://place.map.kakao.com/1377207179,,unknown,unknown,,0,0
25450636,인사부동산,부동산 > 부동산서비스 > 부동산중개업소,AG2,중개업소,02-734-2047(팩스),서울 종로구 낙원동 280-4,서울 종로구 삼일대로 437,126.987276247239,37.5734838030197,http://place.map.kakao.com/25450636,,unknown,unknown,,0,0
8123718,풍림 공인중개사사무소,부동산 > 부동산서비스 > 부동산중개업소,AG2,중개업소,,서울 종로구 낙원동 59-10,서울 종로구 삼일대로28길 6,126.98831318317,37.5733685828807,http://place.map.kakao.com/8123718,,unknown,unknown,,0,0
1790903518,세종공인중개사사무소,부동산 > 부동산서비스 > 부동산중개업소,AG2,중개업소,,서울 종로구 익선동 166-32,서울 종로구 수표로28길 33-5,126.99011986412,37.5733579359718,http://place.map.kakao.com/1790903518,,unknown,unknown,,0,0
19265104,김연주공인중개사사무소,부동산 > 부동산서비스 > 부동산중개업소,AG2,중개업소,02-730-4589,서울 종로구 사직동 311-35,서울 종로구 사직로 68,126.967130794452,37.5740889853436,http://place.map.kakao.com/19265104,,unknown,unknown,#제로페이 ,0,0
10379864,본공인중개사사무소,부동산 > 부동산서비스 > 부동산중개업소,AG2,중개업소,02-739-0072,서울 종로구 사직동 9,서울 종로구 사직로8길 4,126.969906268694,37.5746555501724,http://place.map.kakao.com/10379864,,unknown,unknown,,0,0
1396316799,경복궁 공인중개사사무소,부동산 > 부동산서비스 > 부동산중개업소,AG2,중개업소,02-720-2230,서울 종로구 사직동 9,서울 종로구 사직로8길 4,126.96968774678348,37.57475730666182,http://place.map.kakao.com/1396316799,,unknown,unknown,#제로페이 ,0,0
14752160,스페이스본공인중개사사무소,부동산 > 부동산서비스 > 부동산중개업소,AG2,중개업소,02-720-3224,서울 종로구 사직동 9,서울 종로구 사직로8길 4,126.968883017927,37.5744174222926,http://place.map.kakao.com/14752160,,unknown,unknown,#제로페이 ,0,0
20226752,광화문스페이스공인중개사사무소,부동산 > 부동산서비스 > 부동산중개업소,AG2,중개업소,02-720-8808,서울 종로구 사직동 9,서울 종로구 사직로8길 4,126.968878486846,37.5744246290558,http://place.map.kakao.com/20226752,,unknown,unknown,,0,0
12334916,스페이스부동산,부동산 > 부동산서비스 > 부동산중개업소,AG2,중개업소,02-737-7220,서울 종로구 사직동 9,서울 종로구 사직로8길 4,126.969707031001,37.5746591031933,http://place.map.kakao.com/12334916,,unknown,unknown,,0,0
7951741,소나무 공인중개사사무소,부동산 > 부동산서비스 > 부동산중개업소,AG2,중개업소,,서울 종로구 사직동 9,서울 종로구 사직로8길 4,126.969720613831,37.5746627106567,http://place.map.kakao.com/7951741,,unknown,unknown,,0,0
8020571,우리부동산,부동산 > 부동산서비스 > 부동산중개업소,AG2,중개업소,,서울 종로구 내자동 196,서울 종로구 사직로8길 21,126.970929614244,37.574666618544,http://place.map.kakao.com/8020571,,unknown,unknown,,0,0
15225467,경희궁공인중개사사무소,부동산 > 부동산서비스 > 부동산중개업소,AG2,중개업소,02-739-1112,서울 종로구 내자동 199,서울 종로구 사직로8길 23,126.97121944435,37.5745837980485,http://place.map.kakao.com/15225467,,unknown,unknown,,3,2.3
8495336,에이스 공인중개사사무소,부동산 > 부동산서비스 > 부동산중개업소,AG2,중개업소,02-736-7333,서울 종로구 내수동 71,서울 종로구 사직로8길 24,126.971364506131,37.5741585638166,http://place.map.kakao.com/8495336,,unknown,unknown,,2,3.0
12578937,부동산멘토공인중개사사무소,부동산 > 부동산서비스 > 부동산중개업소,AG2,중개업소,02-725-1127,서울 종로구 내수동 71,서울 종로구 사직로8길 24,126.97137357123056,37.57413514015154,http://place.map.kakao.com/12578937,,unknown,unknown,#제로페이 ,0,0
2062857900,하늘부동산,부동산 > 부동산서비스 > 부동산중개업소,AG2,중개업소,,서울 종로구 내수동 71,,126.97128749545132,37.57424594160175,http://place.map.kakao.com/2062857900,,unknown,unknown,,0,0
1353421159,경희궁의아침 부동산공인중개사사무소,부동산 > 부동산서비스 > 부동산중개업소,AG2,중개업소,02-738-8949,서울 종로구 내수동 71,서울 종로구 사직로8길 24,126.971105308562,37.5740699328747,http://place.map.kakao.com/1353421159,,unknown,unknown,,0,0
14952733,일성 공인중개사사무소,부동산 > 부동산서비스 > 부동산중개업소,AG2,중개업소,02-735-1566,서울 종로구 내수동 71,서울 종로구 사직로8길 24,126.971115512602,37.5740287599108,http://place.map.kakao.com/14952733,,unknown,unknown,,0,0
1399489220,키움부동산,부동산 > 부동산서비스 > 부동산중개업소,AG2,중개업소,02-738-3313,서울 종로구 적선동 156,서울 종로구 새문안로5가길 28,126.97359673591,37.5744618184064,http://place.map.kakao.com/1399489220,,unknown,unknown,,0,0
892514801,익선공인중개사사무소,부동산 > 부동산서비스 > 부동산중개업소,AG2,중개업소,02-722-8855,서울 종로구 낙원동 6,서울 종로구 삼일대로 440,126.987751611739,37.5739613805647,http://place.map.kakao.com/892514801,,unknown,unknown,,0,0
8223567,늘푸른부동산,부동산 > 부동산서비스 > 부동산중개업소,AG2,중개업소,02-744-0049,서울 종로구 익선동 34,서울 종로구 삼일대로30길 23,126.988761291305,37.5744714440442,http://place.map.kakao.com/8223567,,unknown,unknown,#제로페이 ,3,2.3
10803644,종로 공인중개사사무소,부동산 > 부동산서비스 > 부동산중개업소,AG2,중개업소,02-744-4955,서울 종로구 낙원동 58-1,서울 종로구 삼일대로30길 21,126.988562094123,37.5742191463825,http://place.map.kakao.com/10803644,,unknown,unknown,,0,0
7923294,상산 공인중개사사무소,부동산 > 부동산서비스 > 부동산중개업소,AG2,중개업소,02-766-7411,서울 종로구 낙원동 58-1,서울 종로구 삼일대로30길 21,126.988598318686,37.5742191498867,http://place.map.kakao.com/7923294,,unknown,unknown,,0,0
8054628,송정공인중개사사무소,부동산 > 부동산서비스 > 부동산중개업소,AG2,중개업소,02-763-3070,서울 종로구 익선동 97,서울 종로구 삼일대로30길 43,126.99006991523,37.5744175016898,http://place.map.kakao.com/8054628,,unknown,unknown,,2,5.0
8358743,삼중부동산,부동산 > 부동산서비스 > 부동산중개업소,AG2,중개업소,02-744-0480,서울 종로구 익선동 127-5,서울 종로구 삼일대로30길 36,126.989685057558,37.5742048339274,http://place.map.kakao.com/8358743,,unknown,unknown,,0,0
62079243,리츠공인중개사사무소,부동산 > 부동산서비스 > 부동산중개업소,AG2,중개업소,02-762-3300,서울 종로구 묘동 135-1,서울 종로구 돈화문로 64,126.991221215183,37.5741193636522,http://place.map.kakao.com/62079243,,unknown,unknown,,0,0
24691844,사직부동산,부동산 > 부동산서비스 > 부동산중개업소,AG2,중개업소,02-738-8898,서울 종로구 사직동 228,서울 종로구 사직로 73,126.967447446595,37.5748062648658,http://place.map.kakao.com/24691844,,unknown,unknown,,0,0
7883707,미래부동산중개사무소,부동산 > 부동산서비스 > 부동산중개업소,AG2,중개업소,02-722-6100,서울 종로구 필운동 290,서울 종로구 사직로8길 5-2,126.969634313656,37.5753186125749,http://place.map.kakao.com/7883707,,unknown,unknown,,0,0
236579160,광화문홈즈공인중개사사무소,부동산 > 부동산서비스 > 부동산중개업소,AG2,중개업소,02-737-3456,서울 종로구 필운동 290,서울 종로구 사직로8길 5-2,126.969654701603,37.5752906869857,http://place.map.kakao.com/236579160,,unknown,unknown,,0,0
8139094,풍림 공인중개사사무소,부동산 > 부동산서비스 > 부동산중개업소,AG2,중개업소,02-722-9449,서울 종로구 필운동 290,서울 종로구 사직로8길 5-2,126.969625250063,37.5753366301346,http://place.map.kakao.com/8139094,,unknown,unknown,,0,0
7817410,대덕공인중개사사무소,부동산 > 부동산서비스 > 부동산중개업소,AG2,중개업소,02-733-3555,서울 종로구 내자동 175,서울 종로구 사직로8길 15-2,126.9705763620648,37.57482060111398,http://place.map.kakao.com/7817410,,unknown,unknown,,0,0
12652320,라프,부동산 > 부동산서비스 > 부동산중개업소,AG2,중개업소,,서울 종로구 수송동 5,서울 종로구 우정국로 69,126.982421788576,37.5752491296862,http://place.map.kakao.com/12652320,,unknown,unknown,,0,0
1472101067,SK허브공인중개사사무소,부동산 > 부동산서비스 > 부동산중개업소,AG2,중개업소,02-737-7500,서울 종로구 경운동 89-4,서울 종로구 삼일대로 461,126.985826878741,37.5755955695265,http://place.map.kakao.com/1472101067,,unknown,unknown,,0,0
8233818,골드부동산공인중개사사무소,부동산 > 부동산서비스 > 부동산중개업소,AG2,중개업소,02-747-0049,서울 종로구 익선동 55,서울 종로구 돈화문로11가길 59,126.99007321597207,37.5751355947309,http://place.map.kakao.com/8233818,,unknown,unknown,,0,0
8068521,제일공인중개사무소,부동산 > 부동산서비스 > 부동산중개업소,AG2,중개업소,02-763-0705,서울 종로구 익선동 55,서울 종로구 돈화문로11가길 59,126.99012414215755,37.575250926313686,http://place.map.kakao.com/8068521,,unknown,unknown,,0,0
7834699,대흥 부동산중개인사무소,부동산 > 부동산서비스 > 부동산중개업소,AG2,중개업소,,서울 종로구 운니동 57,서울 종로구 삼일대로32길 57,126.990115034084,37.5756428581945,http://place.map.kakao.com/7834699,,unknown,unknown,,0,0
10600834,씨티부동산,부동산 > 부동산서비스 > 부동산중개업소,AG2,중개업소,02-747-7164,서울 종로구 와룡동 93-1,서울 종로구 돈화문로 80-1,126.990835015396,37.5756068765043,http://place.map.kakao.com/10600834,,unknown,unknown,,0,0
11243051,청기와 공인중개사사무소,부동산 > 부동산서비스 > 부동산중개업소,AG2,중개업소,02-737-0909,서울 종로구 필운동 240-14,서울 종로구 사직로 94,126.969339816344,37.5757293899658,http://place.map.kakao.com/11243051,,unknown,unknown,,0,0
27237324,세종마을공인중개사사무소,부동산 > 부동산서비스 > 부동산중개업소,AG2,중개업소,02-736-9203,서울 종로구 체부동 195,서울 종로구 자하문로1길 24-1,126.97097870021874,37.57652988731414,http://place.map.kakao.com/27237324,,unknown,unknown,,0,0
27514467,훈민정음 공인중개사사무소,부동산 > 부동산서비스 > 부동산중개업소,AG2,중개업소,02-730-8941,서울 종로구 내자동 30,서울 종로구 사직로 103-4,126.970589313869,37.5764288795729,http://place.map.kakao.com/27514467,,unknown,unknown,,0,0
10190344,내자 공인중개사사무소,부동산 > 부동산서비스 > 부동산중개업소,AG2,중개업소,02-735-2513,서울 종로구 내자동 21-1,서울 종로구 사직로 111,126.97112370035,37.5762776444372,http://place.map.kakao.com/10190344,,unknown,unknown,,0,0
26328844,서촌상가 공인중개사사무소,부동산 > 부동산서비스 > 부동산중개업소,AG2,중개업소,02-733-9115,서울 종로구 통의동 35-87,서울 종로구 효자로 5,126.973980905852,37.5765233792444,http://place.map.kakao.com/26328844,,unknown,unknown,,0,0
21685790,운현궁sk공인중개사사무소,부동산 > 부동산서비스 > 부동산중개업소,AG2,중개업소,02-722-2030,서울 종로구 경운동 89-4,서울 종로구 삼일대로 461,126.98550082337964,37.57574149104632,http://place.map.kakao.com/21685790,,unknown,unknown,,1,5.0
19878102,메트로공인중개사사무소,부동산 > 부동산서비스 > 부동산중개업소,AG2,중개업소,02-720-6025,서울 종로구 경운동 89-4,서울 종로구 삼일대로 461,126.98550082337964,37.57574149104632,http://place.map.kakao.com/19878102,,unknown,unknown,,0,0
12582470,코리아랜드공인중개사사무소,부동산 > 부동산서비스 > 부동산중개업소,AG2,중개업소,02-737-4774,서울 종로구 경운동 89-4,서울 종로구 삼일대로 461,126.985822334189,37.5756820644575,http://place.map.kakao.com/12582470,,unknown,unknown,,1,5.0
13499724,월드공인중개사사무소,부동산 > 부동산서비스 > 부동산중개업소,AG2,중개업소,02-766-2749,서울 종로구 운니동 65-1,서울 종로구 율곡로6길 36,126.98907580188562,37.57578151975943,http://place.map.kakao.com/13499724,,unknown,unknown,,1,5.0
242627468,한솔공인중개사사무소,부동산 > 부동산서비스 > 부동산중개업소,AG2,중개업소,02-723-5377,서울 종로구 필운동 184-3,서울 종로구 자하문로1길 54,126.96955209697208,37.57706291663133,http://place.map.kakao.com/242627468,,unknown,unknown,#제로페이 ,1,1.0
14949989,서촌 공인중개사사무소,부동산 > 부동산서비스 > 부동산중개업소,AG2,중개업소,02-733-3389(팩스),서울 종로구 필운동 155,서울 종로구 자하문로1길 55,126.969393673408,37.5769043006637,http://place.map.kakao.com/14949989,,unknown,unknown,,0,0
11183319,우리공인중개사사무소,부동산 > 부동산서비스 > 부동산중개업소,AG2,중개업소,02-733-3389(팩스),서울 종로구 필운동 155,서울 종로구 자하문로1길 55,126.969393658657,37.576940340433,http://place.map.kakao.com/11183319,,unknown,unknown,,0,0
1615682353,누리부동산행정사,부동산 > 부동산서비스 > 부동산중개업소,AG2,중개업소,02-6954-7203,서울 종로구 필운동 202,서울 종로구 자하문로1길 39,126.970125108926,37.5765891400108,http://place.map.kakao.com/1615682353,,unknown,unknown,,0,0
10662066,여러분의공인중개사정태순사무소,부동산 > 부동산서비스 > 부동산중개업소,AG2,중개업소,02-733-3388,서울 종로구 통의동 47,서울 종로구 자하문로2길 3,126.97291219750578,37.576663693979015,http://place.map.kakao.com/10662066,,unknown,unknown,,0,0
11096900,동진 부동산중개인사무소,부동산 > 부동산서비스 > 부동산중개업소,AG2,중개업소,02-734-3147,서울 종로구 안국동 90,서울 종로구 윤보선길 16-1,126.984201011189,37.57682792355,http://place.map.kakao.com/11096900,,unknown,unknown,,0,0
2037237254,동진사공인중개개사무소,부동산 > 부동산서비스 > 부동산중개업소,AG2,중개업소,02-723-1447,서울 종로구 안국동 90,서울 종로구 윤보선길 16-1,126.984172711097,37.5768216127985,http://place.map.kakao.com/2037237254,,unknown,unknown,,0,0
562423809,월드공인중개사사무소,부동산 > 부동산서비스 > 부동산중개업소,AG2,중개업소,,서울 종로구 필운동 44,서울 종로구 필운대로1길 32,126.967790258465,37.5778805518295,http://place.map.kakao.com/562423809,,unknown,unknown,,1,1.0
2061086970,온누리부동산,부동산 > 부동산서비스 > 부동산중개업소,AG2,중개업소,02-723-8949,서울 종로구 체부동 34,서울 종로구 자하문로 21,126.971643816792,37.5779283920814,http://place.map.kakao.com/2061086970,,unknown,unknown,,0,0
8018267,온누리 공인중개사사무소,부동산 > 부동산서비스 > 부동산중개업소,AG2,중개업소,02-723-8949,서울 종로구 체부동 32-2,서울 종로구 자하문로 21,126.97160756991,37.5779824430194,http://place.map.kakao.com/8018267,,unknown,unknown,,0,0
19934344,부동산카페공인중개사사무소,부동산 > 부동산서비스 > 부동산중개업소,AG2,중개업소,02-742-4500,서울 종로구 계동 146-1,서울 종로구 계동길 5,126.986628001681,37.5776102864739,http://place.map.kakao.com/19934344,,unknown,unknown,,0,0
7872680,미래공인중개사사무소,부동산 > 부동산서비스 > 부동산중개업소,AG2,중개업소,02-735-5199,서울 종로구 통인동 147-8,서울 종로구 자하문로 35,126.971272045252,37.5791031984821,http://place.map.kakao.com/7872680,,unknown,unknown,,0,0
8085538,진솔부동산공인중개사무소,부동산 > 부동산서비스 > 부동산중개업소,AG2,중개업소,,서울 종로구 통인동 147-9,서울 종로구 자하문로 33,126.97130377977288,37.57900950282436,http://place.map.kakao.com/8085538,,unknown,unknown,,0,0
10527083,신영 부동산중개개설사무소,부동산 > 부동산서비스 > 부동산중개업소,AG2,중개업소,02-734-6706,서울 종로구 화동 138-23,서울 종로구 율곡로3길 78,126.982289554299,37.5791269894229,http://place.map.kakao.com/10527083,,unknown,unknown,,2,1.0
7830866,대일부동산,부동산 > 부동산서비스 > 부동산중개업소,AG2,중개업소,02-762-2259,서울 종로구 재동 38-2,서울 종로구 북촌로 23,126.984916036501,37.5789831952081,http://place.map.kakao.com/7830866,,unknown,unknown,,0,0
2039680511,조은부동산,부동산 > 부동산서비스 > 부동산중개업소,AG2,중개업소,02-745-4596,서울 종로구 재동 49-7,서울 종로구 북촌로 20,126.98543912440086,37.578662507003024,http://place.map.kakao.com/2039680511,,unknown,unknown,,1,1.0
1484881355,화목공인중개사사무소,부동산 > 부동산서비스 > 부동산중개업소,AG2,중개업소,02-766-3940,서울 종로구 재동 62,서울 종로구 북촌로4길 6,126.985529605748,37.5791040052146,http://place.map.kakao.com/1484881355,,unknown,unknown,,0,0
12922907,옥인 행정사 공인중개사사무소,부동산 > 부동산서비스 > 부동산중개업소,AG2,중개업소,02-725-8818,서울 종로구 통인동 72,서울 종로구 자하문로7길 52,126.9695600853802,37.57968661352372,http://place.map.kakao.com/12922907,,unknown,unknown,,4,5.0
7921827,삼성 공인중개사사무소,부동산 > 부동산서비스 > 부동산중개업소,AG2,중개업소,02-736-5041,서울 종로구 통인동 76-3,서울 종로구 자하문로7길 42,126.969890786358,37.5793695484735,http://place.map.kakao.com/7921827,,unknown,unknown,,0,0
109761197,광화문공인중개사사무소,부동산 > 부동산서비스 > 부동산중개업소,AG2,중개업소,02-725-7088,서울 종로구 누하동 32,서울 종로구 자하문로7길 57,126.969263422159,37.5798153787789,http://place.map.kakao.com/109761197,,unknown,unknown,,0,0
8363707,샛별부동산,부동산 > 부동산서비스 > 부동산중개업소,AG2,중개업소,02-725-7475,서울 종로구 통인동 46-14,서울 종로구 자하문로7길 62,126.969301817082,37.5800505481687,http://place.map.kakao.com/8363707,,unknown,unknown,,0,0
12263976,ksk공인중개사,부동산 > 부동산서비스 > 부동산중개업소,AG2,중개업소,02-723-9222,서울 종로구 창성동 138-2,서울 종로구 자하문로 42,126.97158878024,37.579762802707,http://place.map.kakao.com/12263976,,unknown,unknown,,0,0
26777260,청운공인중개사사무소,부동산 > 부동산서비스 > 부동산중개업소,AG2,중개업소,02-732-9777,서울 종로구 창성동 136,서울 종로구 자하문로 40-1,126.971552602358,37.5796330508717,http://place.map.kakao.com/26777260,,unknown,unknown,#제로페이 ,0,0
8074086,종로부동산,부동산 > 부동산서비스 > 부동산중개업소,AG2,중개업소,02-722-0506,서울 종로구 창성동 133,서울 종로구 자하문로10길 3,126.9717745162942,37.57957363854224,http://place.map.kakao.com/8074086,,unknown,unknown,,0,0
26822856,LS뚜공인중개사사무소,부동산 > 부동산서비스 > 부동산중개업소,AG2,중개업소,02-732-2334,서울 종로구 통인동 147-2,서울 종로구 자하문로 35-2,126.971131622783,37.5792148874798,http://place.map.kakao.com/26822856,,unknown,unknown,,0,0
590460015,가회부동산,부동산 > 부동산서비스 > 부동산중개업소,AG2,중개업소,02-763-2204,서울 종로구 재동 32-4,서울 종로구 북촌로5길 10,126.984442729092,37.5794345317749,http://place.map.kakao.com/590460015,,unknown,unknown,,1,1.0
14944734,대성부동산,부동산 > 부동산서비스 > 부동산중개업소,AG2,중개업소,02-762-4441,서울 종로구 가회동 162-1,서울 종로구 북촌로 33,126.984866072828,37.5797328158035,http://place.map.kakao.com/14944734,,unknown,unknown,,0,0
7987030,안국부동산,부동산 > 부동산서비스 > 부동산중개업소,AG2,중개업소,02-742-4600,서울 종로구 계동 120-1,서울 종로구 계동길 60,126.9868370245833,37.57993847864312,http://place.map.kakao.com/7987030,,unknown,unknown,,1,5.0
19854314,한옥마을부동산,부동산 > 부동산서비스 > 부동산중개업소,AG2,중개업소,02-765-2259,서울 종로구 계동 140-67,서울 종로구 창덕궁1길 39,126.986999034544,37.5792537411994,http://place.map.kakao.com/19854314,,unknown,unknown,,0,0
8643325,계동부동산,부동산 > 부동산서비스 > 부동산중개업소,AG2,중개업소,02-763-3940,서울 종로구 계동 140-24,서울 종로구 계동길 54,126.98685064279164,37.57975107342833,http://place.map.kakao.com/8643325,,unknown,unknown,,0,0
8143428,한성부동산,부동산 > 부동산서비스 > 부동산중개업소,AG2,중개업소,02-745-4006,서울 종로구 계동 140-49,서울 종로구 창덕궁1길 29,126.98760583442976,37.57926822237304,http://place.map.kakao.com/8143428,,unknown,unknown,,0,0
11233403,크로바공인중개사사무소,부동산 > 부동산서비스 > 부동산중개업소,AG2,중개업소,02-722-4988,서울 종로구 옥인동 98-3,서울 종로구 필운대로 53,126.96842522937833,37.58085039943541,http://place.map.kakao.com/11233403,,unknown,unknown,,0,0
7886990,배화 공인중개사사무소,부동산 > 부동산서비스 > 부동산중개업소,AG2,중개업소,02-730-4989,서울 종로구 누하동 77-2,서울 종로구 필운대로 49,126.968513704554,37.5804467778658,http://place.map.kakao.com/7886990,,unknown,unknown,,0,0
2043309705,세종마을부동산,부동산 > 부동산서비스 > 부동산중개업소,AG2,중개업소,02-732-2828,서울 종로구 옥인동 100-1,서울 종로구 필운대로 51,126.96847848336,37.5807449974012,http://place.map.kakao.com/2043309705,,unknown,unknown,,0,0
925272447,씨티공인중개사사무소,부동산 > 부동산서비스 > 부동산중개업소,AG2,중개업소,,서울 종로구 누하동 77-13,서울 종로구 필운대로 49-8,126.968192177161,37.5804647115425,http://place.map.kakao.com/925272447,,unknown,unknown,,0,0
12948207,서울 공인중개사사무소,부동산 > 부동산서비스 > 부동산중개업소,AG2,중개업소,02-725-4049,서울 종로구 옥인동 98-3,서울 종로구 필운대로 53,126.968441085113,37.5808359877759,http://place.map.kakao.com/12948207,,unknown,unknown,,0,0
1677957873,중앙공인중개사사무소,부동산 > 부동산서비스 > 부동산중개업소,AG2,중개업소,02-734-1557,서울 종로구 누하동 1-25,서울 종로구 자하문로7길 66,126.969184017186,37.5801982804648,http://place.map.kakao.com/1677957873,,unknown,unknown,,0,0
1602945388,서촌의봄 부동산,부동산 > 부동산서비스 > 부동산중개업소,AG2,중개업소,02-734-7755,서울 종로구 누하동 1-16,서울 종로구 자하문로7길 76,126.968916686883,37.580565815844,http://place.map.kakao.com/1602945388,,unknown,y,,1,5.0
843608786,경기공인중개사사무소,부동산 > 부동산서비스 > 부동산중개업소,AG2,중개업소,02-720-8800,서울 종로구 통인동 115-2,서울 종로구 자하문로 47,126.971013499483,37.5802095558024,http://place.map.kakao.com/843608786,,unknown,unknown,,2,5.0
843608786,경기공인중개사사무소,부동산 > 부동산서비스 > 부동산중개업소,AG2,중개업소,02-720-8800,서울 종로구 통인동 115-2,서울 종로구 자하문로 47,126.971013499483,37.5802095558024,http://place.map.kakao.com/843608786,,unknown,unknown,,2,5.0
611128279,한양부동산,부동산 > 부동산서비스 > 부동산중개업소,AG2,중개업소,02-725-8999,서울 종로구 소격동 106-2,서울 종로구 북촌로5가길 19,126.981864712161,37.5803955243502,http://place.map.kakao.com/611128279,,unknown,unknown,,1,2.0
23931414,경성공인중개사사무소,부동산 > 부동산서비스 > 부동산중개업소,AG2,중개업소,02-764-2363,서울 종로구 가회동 205,서울 종로구 북촌로 42,126.985210089678,37.5804500505244,http://place.map.kakao.com/23931414,,unknown,unknown,,0,0
2074464004,중앙사공인중개사사무소,부동산 > 부동산서비스 > 부동산중개업소,AG2,중개업소,02-763-1587,서울 종로구 계동 131-2,서울 종로구 계동길 82,126.986835709096,37.5809800273434,http://place.map.kakao.com/2074464004,,unknown,unknown,,0,0
11169425,인왕 부동산중개인사무소,부동산 > 부동산서비스 > 부동산중개업소,AG2,중개업소,02-735-1520,서울 종로구 옥인동 41,서울 종로구 필운대로 61,126.968327607704,37.5814630489829,http://place.map.kakao.com/11169425,,unknown,unknown,,0,0
14947819,소나무 공인중개사사무소,부동산 > 부동산서비스 > 부동산중개업소,AG2,중개업소,02-734-5711,서울 종로구 옥인동 19-50,서울 종로구 자하문로17길 12,126.97000655402472,37.58145898255148,http://place.map.kakao.com/14947819,,unknown,unknown,,0,0
8215995,굿모닝 공인중개사사무소,부동산 > 부동산서비스 > 부동산중개업소,AG2,중개업소,02-720-0808,서울 종로구 옥인동 19-33,서울 종로구 자하문로 63,126.97059631108,37.5816654584661,http://place.map.kakao.com/8215995,,unknown,unknown,,0,0
8446949,세종 공인중개사무소,부동산 > 부동산서비스 > 부동산중개업소,AG2,중개업소,02-3210-3392,서울 종로구 효자동 25,서울 종로구 자하문로 62,126.971067296768,37.5816151192025,http://place.map.kakao.com/8446949,,unknown,unknown,,0,0
2074464004,중앙사공인중개사사무소,부동산 > 부동산서비스 > 부동산중개업소,AG2,중개업소,02-763-1587,서울 종로구 계동 131-2,서울 종로구 계동길 82,126.986835709096,37.5809800273434,http://place.map.kakao.com/2074464004,,unknown,unknown,,0,0
7859352,럭키 공인중개사사무소,부동산 > 부동산서비스 > 부동산중개업소,AG2,중개업소,,서울 종로구 원서동 92-4,서울 종로구 창덕궁길 85,126.989226697076,37.5813226473793,http://place.map.kakao.com/7859352,,unknown,unknown,,0,0
1570263870,북촌창덕공인중개사사무소,부동산 > 부동산서비스 > 부동산중개업소,AG2,중개업소,02-3675-0280,서울 종로구 원서동 92,서울 종로구 창덕궁길 87,126.989258385188,37.5814019377106,http://place.map.kakao.com/1570263870,,unknown,unknown,,0,0
