id,place_name,category_name,category_group_code,category_group_name,phone,address_name,road_address_name,x,y,place_url,distance,wheelchair,animal,keyword,evalnum,rate
1150336545,CU ATM 충정로역점,"금융,보험 > 금융서비스 > 은행 > ATM",BK9,은행,,서울 서대문구 충정로3가 465,서울 서대문구 서소문로 27,126.964760084016,37.5602454018686,http://place.map.kakao.com/1150336545,,unknown,unknown,,0,0
8028865,우리은행 한경미디어지점,"금융,보험 > 금융서비스 > 은행 > 우리은행",BK9,은행,02-365-8141,서울 중구 중림동 441,서울 중구 청파로 463,126.967204837027,37.5601271746621,http://place.map.kakao.com/8028865,,unknown,unknown,,0,0
25631073,우리은행 365코너 한경미디어지점,"금융,보험 > 금융서비스 > 은행 > ATM",BK9,은행,02-365-8141,서울 중구 중림동 441,서울 중구 청파로 463,126.96726818653,37.5601992719923,http://place.map.kakao.com/25631073,,unknown,unknown,,0,0
26370016,HSBC은행 서울지점,"금융,보험 > 금융서비스 > 은행 > 외국은행",BK9,은행,02-2004-0800,서울 중구 봉래동1가 25,서울 중구 칠패로 37,126.972999704581,37.5600457503565,http://place.map.kakao.com/26370016,,unknown,unknown,,1,2.0
115245938,우리은행 365코너 삼성타운금융센터,"금융,보험 > 금융서비스 > 은행 > ATM",BK9,은행,,서울 중구 순화동 175,서울 중구 세종대로7길 25,126.972768671173,37.5604457399134,http://place.map.kakao.com/115245938,,unknown,unknown,,0,0
1198504376,신한은행 365코너 에스원빌딩,"금융,보험 > 금융서비스 > 은행 > ATM",BK9,은행,,서울 중구 순화동 175,서울 중구 세종대로7길 25,126.972850166657,37.560431342732,http://place.map.kakao.com/1198504376,,unknown,unknown,,0,0
8651359,하나은행 상공회의소지점,"금융,보험 > 금융서비스 > 은행 > 하나은행",BK9,은행,02-752-1111,서울 중구 남대문로4가 45,서울 중구 세종대로 39,126.973859697341,37.5605541061316,http://place.map.kakao.com/8651359,,unknown,unknown,,2,3.0
8238489,IBK기업은행 남대문시장지점,"금융,보험 > 금융서비스 > 은행 > 기업은행",BK9,은행,02-755-8233,서울 중구 남대문로4가 18-1,서울 중구 남대문로 12,126.977246069567,37.5605728272554,http://place.map.kakao.com/8238489,,unknown,unknown,,1,5.0
26779559,우리은행 남대문시장지점,"금융,보험 > 금융서비스 > 은행 > 우리은행",BK9,은행,02-756-1371,서울 중구 남대문로4가 3-3,서울 중구 남대문시장길 25-8,126.97749506474,37.5605836869414,http://place.map.kakao.com/26779559,,unknown,unknown,,0,0
58739141,IBK기업은행365 남대문시장점365,"금융,보험 > 금융서비스 > 은행 > ATM",BK9,은행,,서울 중구 남대문로4가 18-1,서울 중구 남대문로 12,126.977214382151,37.5605620091822,http://place.map.kakao.com/58739141,,unknown,unknown,,0,0
8212655,KB국민은행 퇴계로지점,"금융,보험 > 금융서비스 > 은행 > KB국민은행",BK9,은행,,서울 중구 남창동 31-1,서울 중구 남대문시장8길 2,126.978450393313,37.560306358139,http://place.map.kakao.com/8212655,,unknown,unknown,,1,5.0
18956453,남대문충무로새마을금고 본점,"금융,보험 > 금융서비스 > 은행 > 새마을금고",BK9,은행,02-752-0419,서울 중구 남창동 31-10,서울 중구 남대문시장8길 10,126.978482166825,37.5600180449236,http://place.map.kakao.com/18956453,,unknown,unknown,,0,0
1980049856,남대문충무로새마을금고 365코너 본점,"금융,보험 > 금융서비스 > 은행 > ATM",BK9,은행,02-752-0419,서울 중구 남창동 31-10,서울 중구 남대문시장8길 10,126.978507055095,37.5600576933216,http://place.map.kakao.com/1980049856,,unknown,unknown,,0,0
962157469,우리은행 365코너 남대문시장지점,"금융,보험 > 금융서비스 > 은행 > ATM",BK9,은행,,서울 중구 남창동 32-50,서울 중구 남대문시장4길 3,126.977685335851,37.5601584525313,http://place.map.kakao.com/962157469,,unknown,unknown,,0,0
1719304692,SC제일은행 365코너 제일지점,"금융,보험 > 금융서비스 > 은행 > ATM",BK9,은행,,서울 중구 회현동1가 204,서울 중구 남대문시장10길 2,126.9796002905616,37.56037503818132,http://place.map.kakao.com/1719304692,,unknown,unknown,,0,0
964300380,우리은행 365코너 삼익패션타운 정문,"금융,보험 > 금융서비스 > 은행 > ATM",BK9,은행,,서울 중구 남창동 5,서울 중구 남대문시장8길 7,126.978993698111,37.5601731085121,http://place.map.kakao.com/964300380,,unknown,unknown,,0,0
8079421,SC제일은행 제일지점,"금융,보험 > 금융서비스 > 은행 > SC제일은행",BK9,은행,02-771-7000,서울 중구 회현동1가 204,서울 중구 남대문시장10길 2,126.9798662290859,37.560510233360816,http://place.map.kakao.com/8079421,,unknown,unknown,,0,0
489106841,우리은행 365코너 신세계백화점신관,"금융,보험 > 금융서비스 > 은행 > ATM",BK9,은행,,서울 중구 충무로1가 54,서울 중구 퇴계로 77,126.9807773839,37.5603247798671,http://place.map.kakao.com/489106841,,unknown,unknown,,0,0
1360590146,우리은행 365코너 신세계백화점 신관 지하1층 출입구,"금융,보험 > 금융서비스 > 은행 > ATM",BK9,은행,,서울 중구 충무로1가 54,,126.980777374641,37.5603608197409,http://place.map.kakao.com/1360590146,,unknown,unknown,,0,0
1754520386,SC제일은행 365코너 신세계백화점본점면세점,"금융,보험 > 금융서비스 > 은행 > ATM",BK9,은행,,서울 중구 충무로1가 54,서울 중구 퇴계로 77,126.980809084672,37.5602851411609,http://place.map.kakao.com/1754520386,,unknown,unknown,,0,0
2073618322,우리은행 365코너 본점영업부앞,"금융,보험 > 금융서비스 > 은행 > ATM",BK9,은행,,서울 중구 회현동2가 86,서울 중구 소공로 51,126.981904802554,37.5597519239918,http://place.map.kakao.com/2073618322,,unknown,unknown,,0,0
24575546,비엔피파리바은행 서울지점,"금융,보험 > 금융서비스 > 은행 > 외국은행",BK9,은행,02-317-1777,서울 중구 회현동2가 88,서울 중구 퇴계로 100,126.982927833403,37.5602566346355,http://place.map.kakao.com/24575546,,unknown,unknown,,0,0
1360581194,우리은행 365코너 우리금융남산타워,"금융,보험 > 금융서비스 > 은행 > ATM",BK9,은행,,서울 중구 회현동2가 10-1,,126.983072802447,37.559824176981,http://place.map.kakao.com/1360581194,,unknown,unknown,,0,0
1320352363,IBK기업은행365 정화예술대학,"금융,보험 > 금융서비스 > 은행 > ATM",BK9,은행,,서울 중구 남산동1가 8-1,서울 중구 퇴계로16길 21,126.984743316823,37.5599325242973,http://place.map.kakao.com/1320352363,,unknown,unknown,,0,0
467339874,하나은행365 정화예술대학교 명동캠퍼스,"금융,보험 > 금융서비스 > 은행 > ATM",BK9,은행,,서울 중구 남산동1가 8-1,서울 중구 퇴계로16길 21,126.984784077064,37.5598568458129,http://place.map.kakao.com/467339874,,unknown,unknown,,0,0
2002930765,명동새마을금고365 본점,"금융,보험 > 금융서비스 > 은행 > ATM",BK9,은행,02-776-3066,서울 중구 남산동2가 31-1,서울 중구 퇴계로20길 2,126.985365826971,37.5598334934314,http://place.map.kakao.com/2002930765,,unknown,unknown,,0,0
1869879654,롯데ATM 세븐일레븐 명동역(CD),"금융,보험 > 금융서비스 > 은행 > ATM",BK9,은행,,서울 중구 남산동1가 4-1,서울 중구 퇴계로18길 6,126.985440390765,37.5605272702733,http://place.map.kakao.com/1869879654,,unknown,unknown,,0,0
783162447,신한은행 365코너 센트럴플레이스,"금융,보험 > 금융서비스 > 은행 > ATM",BK9,은행,,서울 중구 중림동 419,서울 중구 서소문로 50,126.96706074289465,37.56093352671167,http://place.map.kakao.com/783162447,,unknown,unknown,,0,0
17695616,신한은행 신한PWM패밀리오피스서울센터,"금융,보험 > 금융서비스 > 은행 > 신한은행",BK9,은행,02-6050-8000,서울 중구 남대문로4가 45,서울 중구 세종대로 39,126.97359361752584,37.56084957387693,http://place.map.kakao.com/17695616,,unknown,unknown,,0,0
1848267143,KB희망금융플라자 중앙,"금융,보험 > 금융서비스 > 은행 > KB국민은행",BK9,은행,02-2021-7575,서울 중구 남대문로4가 45,서울 중구 세종대로 39,126.973782662232,37.5607595163265,http://place.map.kakao.com/1848267143,,unknown,unknown,,0,0
25160247,OK저축은행 영업부,"금융,보험 > 금융서비스 > 은행 > 저축은행 > OK저축은행",BK9,은행,1899-7979,서울 중구 남대문로4가 45,서울 중구 세종대로 39,126.97396832358412,37.56063341785308,http://place.map.kakao.com/25160247,,unknown,unknown,,2,1.0
1137713946,인도네시아느가라은행 서울지점,"금융,보험 > 금융서비스 > 은행 > 외국은행",BK9,은행,02-6050-1932,서울 중구 남대문로4가 45,서울 중구 세종대로 39,126.9737736241437,37.560712662485024,http://place.map.kakao.com/1137713946,,unknown,unknown,,2,5.0
1241412132,신한은행 대기업영업2부,"금융,보험 > 금융서비스 > 은행 > 신한은행",BK9,은행,02-2010-2237,서울 중구 태평로2가 120,서울 중구 세종대로9길 20,126.97457480943822,37.56112008828234,http://place.map.kakao.com/1241412132,,unknown,unknown,,0,0
13565428,신한은행 영업부,"금융,보험 > 금융서비스 > 은행 > 신한은행",BK9,은행,02-2151-5050,서울 중구 태평로2가 120,서울 중구 세종대로9길 20,126.974565756109,37.5611164823454,http://place.map.kakao.com/13565428,,unknown,unknown,,0,0
13055295,신한은행 신한PWM태평로센터,"금융,보험 > 금융서비스 > 은행 > 신한은행",BK9,은행,02-2151-5500,서울 중구 태평로2가 120,서울 중구 세종대로9길 20,126.974583866441,37.5611128822583,http://place.map.kakao.com/13055295,,unknown,unknown,,0,0
500128695,신한은행 기업영업부,"금융,보험 > 금융서비스 > 은행 > 신한은행",BK9,은행,02-756-0505,서울 중구 태평로2가 120,서울 중구 세종대로9길 20,126.974583865217,37.5611164862451,http://place.map.kakao.com/500128695,,unknown,unknown,,0,0
1947617769,신한은행 대기업영업1부,"금융,보험 > 금융서비스 > 은행 > 신한은행",BK9,은행,02-756-0505,서울 중구 태평로2가 120,서울 중구 세종대로9길 20,126.974570283386,37.5611164833206,http://place.map.kakao.com/1947617769,,unknown,unknown,,0,0
708546932,신한은행 대기업영업3부,"금융,보험 > 금융서비스 > 은행 > 신한은행",BK9,은행,02-2151-2250,서울 중구 태평로2가 120,서울 중구 세종대로9길 20,126.97457480943822,37.56112008828234,http://place.map.kakao.com/708546932,,unknown,unknown,,0,0
866126421,신한은행 대기업강북센터,"금융,보험 > 금융서비스 > 은행 > 신한은행",BK9,은행,02-2151-5615,서울 중구 태평로2가 120,서울 중구 세종대로9길 20,126.974574809438,37.5611200882823,http://place.map.kakao.com/866126421,,unknown,unknown,,0,0
1631224890,신한은행 디지털SOHO영업부,"금융,보험 > 금융서비스 > 은행 > 신한은행",BK9,은행,02-756-0505,서울 중구 태평로2가 120,서울 중구 세종대로9길 20,126.974574809438,37.5611200882823,http://place.map.kakao.com/1631224890,,unknown,unknown,,0,0
460150365,신한은행 365코너 영업부Green,"금융,보험 > 금융서비스 > 은행 > ATM",BK9,은행,,서울 중구 태평로2가 120,,126.97525398742611,37.56085894352257,http://place.map.kakao.com/460150365,,unknown,unknown,,0,0
282645738,KB국민은행 남대문종합금융센터,"금융,보험 > 금융서비스 > 은행 > KB국민은행",BK9,은행,,서울 중구 남대문로4가 17-12,서울 중구 세종대로 50,126.976200205112,37.5607960682759,http://place.map.kakao.com/282645738,,unknown,unknown,,2,1.0
25651738,KB국민은행ATM 남대문종합금융센터점,"금융,보험 > 금융서비스 > 은행 > ATM",BK9,은행,,서울 중구 남대문로4가 17-12,서울 중구 세종대로 50,126.976123242883,37.5607924487496,http://place.map.kakao.com/25651738,,unknown,unknown,,0,0
18956427,회현동새마을금고 본점,"금융,보험 > 금융서비스 > 은행 > 새마을금고",BK9,은행,02-755-1400,서울 중구 남창동 3-1,서울 중구 남대문시장길 45-10,126.978404971247,37.5608253240229,http://place.map.kakao.com/18956427,,unknown,unknown,,0,0
1979299266,회현동새마을금고 365코너 본점,"금융,보험 > 금융서비스 > 은행 > ATM",BK9,은행,02-755-1400,서울 중구 남창동 3-1,서울 중구 남대문시장길 45-10,126.978393645813,37.5608505498614,http://place.map.kakao.com/1979299266,,unknown,unknown,,0,0
2000435038,롯데ATM 세븐일레븐 남대문카페,"금융,보험 > 금융서비스 > 은행 > ATM",BK9,은행,,서울 중구 회현동1가 202-6,서울 중구 남대문시장길 73,126.979984987681,37.5608147904824,http://place.map.kakao.com/2000435038,,unknown,unknown,,0,0
562794057,신한은행 365코너 신세계본점신관 13층,"금융,보험 > 금융서비스 > 은행 > ATM",BK9,은행,,서울 중구 충무로1가 52-5,서울 중구 소공로 63,126.980985502723,37.5608509957257,http://place.map.kakao.com/562794057,,unknown,unknown,,0,0
510819664,하나은행 충무로지점,"금융,보험 > 금융서비스 > 은행 > 하나은행",BK9,은행,02-775-0350,서울 중구 충무로1가 25-5,서울 중구 퇴계로 97,126.982560987051,37.5608620509056,http://place.map.kakao.com/510819664,,unknown,unknown,,2,3.0
1767635695,365코너,"금융,보험 > 금융서비스 > 은행 > ATM",BK9,은행,,서울 중구 충무로1가 21-1,서울 중구 소공로 70,126.982171542495,37.5612818572369,http://place.map.kakao.com/1767635695,,unknown,unknown,,0,0
69364389,우체국365코너,"금융,보험 > 금융서비스 > 은행 > ATM",BK9,은행,,서울 중구 충무로1가 21-1,서울 중구 소공로 70,126.982185126502,37.56127284932,http://place.map.kakao.com/69364389,,unknown,unknown,,0,0
897097334,IBK기업은행 명동역지점,"금융,보험 > 금융서비스 > 은행 > 기업은행",BK9,은행,02-775-4703,서울 중구 충무로1가 24-31,서울 중구 퇴계로 109,126.983778786084,37.5610207999358,http://place.map.kakao.com/897097334,,unknown,unknown,,2,3.0
1028434905,CU ATM 중구명동점,"금융,보험 > 금융서비스 > 은행 > ATM",BK9,은행,,서울 중구 충무로1가 24-41,서울 중구 퇴계로 105,126.983461911343,37.5608657845263,http://place.map.kakao.com/1028434905,,unknown,unknown,,0,0
1205849651,IBK기업은행365 명동역점365,"금융,보험 > 금융서비스 > 은행 > ATM",BK9,은행,,서울 중구 충무로1가 24-31,서울 중구 퇴계로 109,126.983864819007,37.5609523359687,http://place.map.kakao.com/1205849651,,unknown,unknown,,2,1.0
2008428971,하나은행365 밀리오레 명동점 정문,"금융,보험 > 금융서비스 > 은행 > ATM",BK9,은행,,서울 중구 충무로1가 24-1,서울 중구 퇴계로 115,126.98479288773238,37.56105607378307,http://place.map.kakao.com/2008428971,,unknown,unknown,,0,0
8214592,KB국민은행 명동역지점,"금융,보험 > 금융서비스 > 은행 > KB국민은행",BK9,은행,02-754-7713,서울 중구 충무로2가 64-5,서울 중구 퇴계로 131,126.986359282164,37.561287821314,http://place.map.kakao.com/8214592,,unknown,unknown,,1,3.0
9689773,SC제일은행 명동역지점,"금융,보험 > 금융서비스 > 은행 > SC제일은행",BK9,은행,02-752-3535,서울 중구 충무로2가 64-5,서울 중구 퇴계로 131,126.986572075677,37.5612265779283,http://place.map.kakao.com/9689773,,unknown,unknown,,0,0
14606842,IBK저축은행 서울영업부,"금융,보험 > 금융서비스 > 은행 > 저축은행 > IBK저축은행",BK9,은행,1522-7900,서울 중구 충무로2가 64-5,서울 중구 퇴계로 131,126.986581106975,37.5613563224863,http://place.map.kakao.com/14606842,,unknown,unknown,,0,0
25632394,SC제일은행 365코너 명동역,"금융,보험 > 금융서비스 > 은행 > ATM",BK9,은행,,서울 중구 충무로2가 64-5,서울 중구 퇴계로 131,126.986585662051,37.5612013515635,http://place.map.kakao.com/25632394,,unknown,unknown,,0,0
8124663,하나은행 충무로역지점,"금융,보험 > 금융서비스 > 은행 > 하나은행",BK9,은행,02-2268-1111,서울 중구 주자동 43-1,서울 중구 퇴계로 166,126.990279974115,37.560819690863,http://place.map.kakao.com/8124663,,unknown,unknown,,1,5.0
1245974614,NH농협은행 365코너 서소문로지점,"금융,보험 > 금융서비스 > 은행 > ATM",BK9,은행,,서울 서대문구 미근동 267,서울 서대문구 통일로 81,126.968602812383,37.5623548185976,http://place.map.kakao.com/1245974614,,unknown,unknown,,0,0
8664691,KB국민은행 서소문지점,"금융,보험 > 금융서비스 > 은행 > KB국민은행",BK9,은행,,서울 중구 서소문동 58-9,서울 중구 서소문로 100,126.972722768138,37.5621756430232,http://place.map.kakao.com/8664691,,unknown,unknown,,1,1.0
25658531,KB국민은행ATM 서소문점,"금융,보험 > 금융서비스 > 은행 > ATM",BK9,은행,,서울 중구 서소문동 58-9,서울 중구 서소문로 100,126.972618591814,37.5623053624163,http://place.map.kakao.com/25658531,,unknown,unknown,,0,0
8186783,경남은행 서울영업부,"금융,보험 > 금융서비스 > 은행 > 경남은행",BK9,은행,02-3455-1900,서울 중구 서소문동 120-23,서울 중구 세종대로9길 42,126.97383215007406,37.561651514077816,http://place.map.kakao.com/8186783,,unknown,unknown,,1,5.0
1626396753,신한은행 디지털영업부,"금융,보험 > 금융서비스 > 은행 > 신한은행",BK9,은행,02-6261-3007,서울 중구 태평로2가 150,서울 중구 세종대로 55,126.97497757077,37.5616175245165,http://place.map.kakao.com/1626396753,,unknown,unknown,,0,0
1631322134,신한은행 디지털WM영업부,"금융,보험 > 금융서비스 > 은행 > 신한은행",BK9,은행,02-756-0505,서울 중구 태평로2가 150,서울 중구 세종대로 55,126.97497757077,37.5616175245165,http://place.map.kakao.com/1631322134,,unknown,unknown,,0,0
1360114904,우리은행 365코너 태평로자동화점,"금융,보험 > 금융서비스 > 은행 > ATM",BK9,은행,,서울 중구 태평로2가 150,,126.97497757077,37.5616175245165,http://place.map.kakao.com/1360114904,,unknown,unknown,,0,0
145111114,KB국민은행ATM 삼성생명빌딩 지하1층,"금융,보험 > 금융서비스 > 은행 > ATM",BK9,은행,,서울 중구 태평로2가 150,서울 중구 세종대로 55,126.975077193139,37.5615526738268,http://place.map.kakao.com/145111114,,unknown,unknown,,0,0
742146616,한국은행,"금융,보험 > 금융서비스 > 은행 > 한국은행",BK9,은행,02-759-4114,서울 중구 태평로2가 250,서울 중구 세종대로 67,126.975561343836,37.5623816919311,http://place.map.kakao.com/742146616,,unknown,unknown,,1,5.0
464049926,SC제일은행 365코너 한국은행(출),"금융,보험 > 금융서비스 > 은행 > ATM",BK9,은행,,서울 중구 태평로2가 250,서울 중구 세종대로 67,126.975556815305,37.5623852949799,http://place.map.kakao.com/464049926,,unknown,unknown,,0,0
1224533265,SC제일은행 365코너 한국은행식당내,"금융,보험 > 금융서비스 > 은행 > ATM",BK9,은행,,서울 중구 태평로2가 250,서울 중구 세종대로 67,126.975561343836,37.5623816919311,http://place.map.kakao.com/1224533265,,unknown,unknown,,0,0
1188489470,하나은행365 구.태평로동출장소무인점,"금융,보험 > 금융서비스 > 은행 > ATM",BK9,은행,,서울 중구 태평로2가 70-5,서울 중구 세종대로 64,126.97692763196967,37.5618656957832,http://place.map.kakao.com/1188489470,,unknown,unknown,,0,0
18956430,명동새마을금고 소공지점,"금융,보험 > 금융서비스 > 은행 > 새마을금고",BK9,은행,02-755-0038,서울 중구 북창동 96,서울 중구 남대문로1길 26-6,126.97771642637736,37.56217308714255,http://place.map.kakao.com/18956430,,unknown,unknown,,0,0
2002839754,명동새마을금고365 소공지점,"금융,보험 > 금융서비스 > 은행 > ATM",BK9,은행,02-755-0038,서울 중구 북창동 96,서울 중구 남대문로1길 26-6,126.977714151435,37.5622109285702,http://place.map.kakao.com/2002839754,,unknown,unknown,,0,0
1588876231,롯데ATM 세븐일레븐 명동이화(CD),"금융,보험 > 금융서비스 > 은행 > ATM",BK9,은행,,서울 중구 충무로2가 60-3,,126.988473482169,37.561569157626,http://place.map.kakao.com/1588876231,,unknown,unknown,,0,0
999361734,CU ATM 충무로2가점,"금융,보험 > 금융서비스 > 은행 > ATM",BK9,은행,,서울 중구 충무로2가 51-3,서울 중구 수표로 7,126.990261729514,37.5618612415915,http://place.map.kakao.com/999361734,,unknown,unknown,,0,0
62523421,신한은행 충무로금융센터,"금융,보험 > 금융서비스 > 은행 > 신한은행",BK9,은행,02-2273-9300,서울 중구 충무로3가 60-1,서울 중구 퇴계로 173,126.991058542554,37.5618252647587,http://place.map.kakao.com/62523421,,unknown,unknown,,0,0
1150843227,CU ATM 바비엥점,"금융,보험 > 금융서비스 > 은행 > ATM",BK9,은행,,서울 중구 순화동 215,서울 중구 통일로 86,126.969571360747,37.5631047012786,http://place.map.kakao.com/1150843227,,unknown,unknown,,0,0
8027862,우리은행 서소문금융센터,"금융,보험 > 금융서비스 > 은행 > 우리은행",BK9,은행,02-777-7781,서울 중구 서소문동 55-4,서울 중구 서소문로 103,126.972591199307,37.5629288456533,http://place.map.kakao.com/8027862,,unknown,unknown,,0,0
25658979,신한은행ATM 서소문점내,"금융,보험 > 금융서비스 > 은행 > ATM",BK9,은행,,서울 중구 서소문동 58-7,서울 중구 서소문로 106,126.972958076537,37.5624892439582,http://place.map.kakao.com/25658979,,unknown,unknown,,0,0
7980318,신한은행 서소문지점,"금융,보험 > 금융서비스 > 은행 > 신한은행",BK9,은행,02-753-0202,서울 중구 서소문동 75-95,서울 중구 서소문로 116,126.9739460746341,37.56277147802964,http://place.map.kakao.com/7980318,,unknown,unknown,,4,3.8
980937803,하나은행 서소문지점,"금융,보험 > 금융서비스 > 은행 > 하나은행",BK9,은행,02-776-4271,서울 중구 서소문동 60-1,서울 중구 서소문로 110,126.973582800032,37.562637148825,http://place.map.kakao.com/980937803,,unknown,unknown,,3,2.3
11638069,KDB산업은행 서소문지점,"금융,보험 > 금융서비스 > 은행 > KDB산업은행",BK9,은행,02-398-9500,서울 중구 서소문동 47-2,서울 중구 서소문로 115,126.973641439972,37.5632498395335,http://place.map.kakao.com/11638069,,unknown,unknown,,1,5.0
8056708,SC제일은행 서소문지점,"금융,보험 > 금융서비스 > 은행 > SC제일은행",BK9,은행,02-777-9342,서울 중구 서소문동 75-95,서울 중구 서소문로 116,126.974026460913,37.5626985150245,http://place.map.kakao.com/8056708,,unknown,unknown,,0,0
2126423354,SC제일은행 365코너 서소문지점,"금융,보험 > 금융서비스 > 은행 > ATM",BK9,은행,,서울 중구 서소문동 75-95,서울 중구 서소문로 116,126.974030992038,37.5626877040631,http://place.map.kakao.com/2126423354,,unknown,unknown,,0,0
8208997,IBK기업은행 서소문지점,"금융,보험 > 금융서비스 > 은행 > 기업은행",BK9,은행,02-756-9203,서울 중구 서소문동 136,서울 중구 서소문로 120,126.974587820842,37.5627995487945,http://place.map.kakao.com/8208997,,unknown,unknown,,1,5.0
1506030706,신한은행 서소문2청사출장소,"금융,보험 > 금융서비스 > 은행 > 신한은행",BK9,은행,02-6261-3006,서울 중구 서소문동 143,서울 중구 서소문로 124,126.97522155390156,37.56310151731744,http://place.map.kakao.com/1506030706,,unknown,unknown,,0,0
776592645,IBK기업은행365 서소문지점1층,"금융,보험 > 금융서비스 > 은행 > ATM",BK9,은행,,서울 중구 서소문동 136,서울 중구 서소문로 120,126.974741651946,37.5630951086487,http://place.map.kakao.com/776592645,,unknown,unknown,,0,0
86780296,IBK기업은행365 서소문점,"금융,보험 > 금융서비스 > 은행 > ATM",BK9,은행,,서울 중구 서소문동 136,서울 중구 서소문로 120,126.974578759961,37.5628175667738,http://place.map.kakao.com/86780296,,unknown,unknown,,0,0
8061509,SC제일은행 한국은행출장소,"금융,보험 > 금융서비스 > 은행 > SC제일은행",BK9,은행,02-757-7210,서울 중구 태평로2가 250,서울 중구 세종대로 67,126.97571067629872,37.56259796191869,http://place.map.kakao.com/8061509,,unknown,unknown,,0,0
9460138,중국공상은행 서울지점,"금융,보험 > 금융서비스 > 은행 > 외국은행",BK9,은행,02-755-5688,서울 중구 태평로2가 310,서울 중구 세종대로 73,126.976059177426,37.5629295998151,http://place.map.kakao.com/9460138,,unknown,unknown,,3,1.0
1907310135,SC제일은행 365코너 삼성카드본점-SC,"금융,보험 > 금융서비스 > 은행 > ATM",BK9,은행,,서울 중구 태평로2가 250,서울 중구 세종대로 67,126.975706169997,37.562533089241,http://place.map.kakao.com/1907310135,,unknown,unknown,,0,0
11393017,KB국민은행ATM 태평로빌딩(공상은행),"금융,보험 > 금융서비스 > 은행 > ATM",BK9,은행,,서울 중구 태평로2가 310,,126.97608178325,37.563026912016,http://place.map.kakao.com/11393017,,unknown,unknown,,2,4.5
1730846820,SC제일은행 365코너 한국은행 커뮤니티센터,"금융,보험 > 금융서비스 > 은행 > ATM",BK9,은행,,서울 중구 태평로2가 250,서울 중구 세종대로 67,126.975715208345,37.5625835469065,http://place.map.kakao.com/1730846820,,unknown,unknown,,0,0
1878986769,우체국365코너,"금융,보험 > 금융서비스 > 은행 > ATM",BK9,은행,,서울 중구 북창동 70-1,서울 중구 남대문로1길 34,126.977509175397,37.5625893082579,http://place.map.kakao.com/1878986769,,unknown,unknown,,0,0
39192312,롯데ATM 세븐일레븐 세종대로카페,"금융,보험 > 금융서비스 > 은행 > ATM",BK9,은행,,서울 중구 태평로2가 69-18,서울 중구 세종대로 76-1,126.976941896868,37.5629550034124,http://place.map.kakao.com/39192312,,unknown,unknown,,0,0
10613015,신한은행 소공동출장소,"금융,보험 > 금융서비스 > 은행 > 신한은행",BK9,은행,02-757-7411,서울 중구 소공동 50,서울 중구 소공로 94,126.980432555736,37.5632259324786,http://place.map.kakao.com/10613015,,unknown,unknown,,0,0
14931877,한국은행 본부,"금융,보험 > 금융서비스 > 은행 > 한국은행",BK9,은행,02-759-4114,서울 중구 남대문로3가 110,서울 중구 남대문로 39,126.97974456780548,37.56256989100447,http://place.map.kakao.com/14931877,,unknown,unknown,,4,4.3
8133468,한국은행 공사중,"금융,보험 > 금융서비스 > 은행 > 한국은행",BK9,은행,02-759-4114,서울 중구 남대문로3가 110,서울 중구 남대문로 39,126.97980003581124,37.562541068618245,http://place.map.kakao.com/8133468,,unknown,unknown,,4,3.3
1000642080,KB국민은행ATM 한국은행본점로비,"금융,보험 > 금융서비스 > 은행 > ATM",BK9,은행,,서울 중구 남대문로3가 110,서울 중구 남대문로 39,126.979726453462,37.5625879078261,http://place.map.kakao.com/1000642080,,unknown,unknown,,0,0
1895362855,신한은행 365코너 BOK본점,"금융,보험 > 금융서비스 > 은행 > ATM",BK9,은행,,서울 중구 남대문로3가 110,서울 중구 남대문로 39,126.979803419659,37.5625843170312,http://place.map.kakao.com/1895362855,,unknown,unknown,,0,0
11192379,우리은행 소공동지점,"금융,보험 > 금융서비스 > 은행 > 우리은행",BK9,은행,02-777-9711,서울 중구 남대문로2가 118,서울 중구 남대문로 63,126.98150111749274,37.56284498323407,http://place.map.kakao.com/11192379,,unknown,unknown,,2,3.5
1730506187,한국은행 경제연구원,"금융,보험 > 금융서비스 > 은행 > 한국은행",BK9,은행,02-759-4114,서울 중구 소공동 41,서울 중구 남대문로 55,126.981043939832,37.5624980270532,http://place.map.kakao.com/1730506187,,unknown,unknown,,0,0
1291538941,SC제일은행 365코너 한국은행소공별관,"금융,보험 > 금융서비스 > 은행 > ATM",BK9,은행,,서울 중구 남대문로2가 111-1,서울 중구 남대문로 55,126.981170726793,37.562415155658,http://place.map.kakao.com/1291538941,,unknown,unknown,,0,0
300453230,롯데ATM 세븐일레븐 중국대사관,"금융,보험 > 금융서비스 > 은행 > ATM",BK9,은행,,서울 중구 명동2가 86,서울 중구 남대문로 68,126.982211849798,37.5631253023611,http://place.map.kakao.com/300453230,,unknown,unknown,,0,0
1266994697,우체국365코너,"금융,보험 > 금융서비스 > 은행 > ATM",BK9,은행,,서울 중구 충무로2가 49-12,서울 중구 삼일대로6길 5,126.989279214325,37.5624630222018,http://place.map.kakao.com/1266994697,,unknown,unknown,,0,0
403017270,롯데ATM 세븐일레븐 충무로최고,"금융,보험 > 금융서비스 > 은행 > ATM",BK9,은행,,서울 중구 충무로3가 58-2,서울 중구 퇴계로27길 35,126.991216894258,37.5627154612845,http://place.map.kakao.com/403017270,,unknown,unknown,,0,0
8215812,KB국민은행 서대문지점,"금융,보험 > 금융서비스 > 은행 > KB국민은행",BK9,은행,02-365-1323,서울 서대문구 충정로2가 191,서울 서대문구 충정로 53,126.964600052188,37.5635826454436,http://place.map.kakao.com/8215812,,unknown,unknown,,5,1.8
25656500,KB국민은행ATM 서대문점,"금융,보험 > 금융서비스 > 은행 > ATM",BK9,은행,,서울 서대문구 충정로2가 191,서울 서대문구 충정로 53,126.96463506733316,37.563735825315845,http://place.map.kakao.com/25656500,,unknown,unknown,,0,0
8208260,KB국민은행 경찰청출장소,"금융,보험 > 금융서비스 > 은행 > KB국민은행",BK9,은행,02-313-3278,서울 서대문구 미근동 209,서울 서대문구 통일로 97,126.967502196315,37.5634357165413,http://place.map.kakao.com/8208260,,unknown,unknown,,3,3.7
25642137,KB국민은행ATM 경찰청출장소,"금융,보험 > 금융서비스 > 은행 > ATM",BK9,은행,,서울 서대문구 미근동 209,서울 서대문구 통일로 97,126.967547401698,37.5635943043374,http://place.map.kakao.com/25642137,,unknown,unknown,,0,0
590279620,우체국365코너,"금융,보험 > 금융서비스 > 은행 > ATM",BK9,은행,,서울 서대문구 미근동 209,서울 서대문구 통일로 97,126.967526839776,37.5640285789139,http://place.map.kakao.com/590279620,,unknown,unknown,,0,0
27124978,유바프은행 서울지점,"금융,보험 > 금융서비스 > 은행 > 외국은행",BK9,은행,02-3455-5300,서울 중구 순화동 1-170,서울 중구 통일로 92,126.969208950945,37.5636343932016,http://place.map.kakao.com/27124978,,unknown,unknown,,0,0
1062259446,신한은행 365코너 연호빌딩,"금융,보험 > 금융서비스 > 은행 > ATM",BK9,은행,,서울 중구 서소문동 21-1,서울 중구 서소문로 135,126.975936585591,37.5640251865104,http://place.map.kakao.com/1062259446,,unknown,unknown,,0,0
7976231,신한은행 소공중앙지점,"금융,보험 > 금융서비스 > 은행 > 신한은행",BK9,은행,02-757-5500,서울 중구 북창동 35,서울 중구 세종대로18길 16,126.978064600514,37.5636435786097,http://place.map.kakao.com/7976231,,unknown,unknown,,3,3.7
25653196,신한은행 365코너 소공중앙지점,"금융,보험 > 금융서비스 > 은행 > ATM",BK9,은행,,서울 중구 북창동 35,서울 중구 세종대로18길 16,126.978064604741,37.5636291626685,http://place.map.kakao.com/25653196,,unknown,unknown,,0,0
817399168,신한은행 명동대기업금융센터,"금융,보험 > 금융서비스 > 은행 > 신한은행",BK9,은행,02-6327-5010,서울 중구 소공동 50,서울 중구 소공로 94,126.980441574743,37.5633628854305,http://place.map.kakao.com/817399168,,unknown,unknown,,0,0
1201679438,롯데ATM 롯데영플 본점1층 1,"금융,보험 > 금융서비스 > 은행 > ATM",BK9,은행,,서울 중구 남대문로2가 123,서울 중구 남대문로 67,126.981677526726,37.5634928271919,http://place.map.kakao.com/1201679438,,unknown,unknown,,0,0
249461705,롯데ATM 세븐일레븐 소공,"금융,보험 > 금융서비스 > 은행 > ATM",BK9,은행,,서울 중구 소공동 28,서울 중구 남대문로7길 11,126.981224739413,37.5636729553327,http://place.map.kakao.com/249461705,,unknown,unknown,,0,0
2115868550,롯데ATM 롯데백화점 에뉴6층 1,"금융,보험 > 금융서비스 > 은행 > ATM",BK9,은행,,서울 중구 남대문로2가 130,서울 중구 남대문로 73,126.98192185418,37.56412716629,http://place.map.kakao.com/2115868550,,unknown,unknown,,0,0
806893789,롯데ATM 롯데백화점 에뉴B1층 2,"금융,보험 > 금융서비스 > 은행 > ATM",BK9,은행,,서울 중구 남대문로2가 130,서울 중구 남대문로 73,126.981890182031,37.5640442697753,http://place.map.kakao.com/806893789,,unknown,unknown,,0,0
17695349,신한은행 명동지점,"금융,보험 > 금융서비스 > 은행 > 신한은행",BK9,은행,02-754-7474,서울 중구 명동1가 53-1,서울 중구 명동길 43,126.98474136899944,37.56393385014507,http://place.map.kakao.com/17695349,,unknown,unknown,,1,5.0
9897637,우리은행 명동금융센터,"금융,보험 > 금융서비스 > 은행 > 우리은행",BK9,은행,02-774-4011,서울 중구 명동2가 33-2,서울 중구 명동길 42,126.984647477156,37.563677054011,http://place.map.kakao.com/9897637,,unknown,unknown,,0,0
12323688,신한은행 명동기업금융센터,"금융,보험 > 금융서비스 > 은행 > 신한은행",BK9,은행,02-779-6636,서울 중구 명동1가 53-1,서울 중구 명동길 43,126.984751556675,37.5639293464796,http://place.map.kakao.com/12323688,,unknown,unknown,,0,0
1329018773,신한은행 365코너 명동지점,"금융,보험 > 금융서비스 > 은행 > ATM",BK9,은행,,서울 중구 명동1가 53-1,서울 중구 명동길 43,126.984742486345,37.5640050289998,http://place.map.kakao.com/1329018773,,unknown,unknown,,0,0
25645468,우리은행 365코너 명동금융센터,"금융,보험 > 금융서비스 > 은행 > ATM",BK9,은행,,서울 중구 명동2가 33-2,서울 중구 명동길 42,126.98472897755484,37.56364462871111,http://place.map.kakao.com/25645468,,unknown,unknown,,0,0
616192118,신한은행 365코너 서울중부경찰서,"금융,보험 > 금융서비스 > 은행 > ATM",BK9,은행,,서울 중구 저동2가 62-1,서울 중구 수표로 27,126.990044180649,37.5636451965649,http://place.map.kakao.com/616192118,,unknown,unknown,,0,0
335552556,진흥저축은행,"금융,보험 > 금융서비스 > 은행 > 저축은행",BK9,은행,02-3455-0700,서울 중구 저동2가 64,서울 중구 수표로 31,126.989779274279,37.5640235923998,http://place.map.kakao.com/335552556,,unknown,unknown,,0,0
1753194951,KB국민은행ATM 노랑풍선,"금융,보험 > 금융서비스 > 은행 > ATM",BK9,은행,,서울 중구 저동2가 64,서울 중구 수표로 31,126.989781539482,37.5640127806399,http://place.map.kakao.com/1753194951,,unknown,unknown,,0,0
1156548707,CU ATM 웨스트타워점,"금융,보험 > 금융서비스 > 은행 > ATM",BK9,은행,,서울 서대문구 미근동 332,서울 서대문구 충정로 70,126.96639458075173,37.56490943636596,http://place.map.kakao.com/1156548707,,unknown,unknown,,0,0
1021268808,CU ATM 순화점,"금융,보험 > 금융서비스 > 은행 > ATM",BK9,은행,,서울 중구 순화동 1-5,서울 중구 통일로4길 20,126.968914365562,37.5643623210187,http://place.map.kakao.com/1021268808,,unknown,unknown,,0,0
19483749,제이피모간 체이스은행 서울지점,"금융,보험 > 금융서비스 > 은행 > 외국은행",BK9,은행,02-758-5500,서울 중구 정동 34-35,서울 중구 서소문로11길 35,126.97217751237204,37.56444242277105,http://place.map.kakao.com/19483749,,unknown,unknown,,2,1.0
1028539919,신한은행 서소문청사출장소,"금융,보험 > 금융서비스 > 은행 > 신한은행",BK9,은행,02-6023-8550,서울 중구 서소문동 37,서울 중구 덕수궁길 15,126.975605974881,37.5643521803152,http://place.map.kakao.com/1028539919,,unknown,unknown,,1,5.0
1353625780,우리은행 365코너 서울시청별관 2동,"금융,보험 > 금융서비스 > 은행 > ATM",BK9,은행,,서울 중구 서소문동 37,,126.975614963747,37.5645549063275,http://place.map.kakao.com/1353625780,,unknown,unknown,,0,0
1792922046,NH농협은행 365코너 태평로지점,"금융,보험 > 금융서비스 > 은행 > ATM",BK9,은행,,서울 중구 태평로2가 43,서울 중구 세종대로 92,126.977462287306,37.5641912709373,http://place.map.kakao.com/1792922046,,unknown,unknown,,0,0
1035002437,NH농협은행 365코너 태평로금융센터,"금융,보험 > 금융서비스 > 은행 > ATM",BK9,은행,,서울 중구 태평로2가 43,서울 중구 세종대로 92,126.977471336805,37.5642092925902,http://place.map.kakao.com/1035002437,,unknown,unknown,,0,0
19668511,NH농협은행 태평로금융센터,"금융,보험 > 금융서비스 > 은행 > NH농협은행",BK9,은행,02-755-8255,서울 중구 태평로2가 43,서울 중구 세종대로 92,126.977634299656,37.5642958192171,http://place.map.kakao.com/19668511,,unknown,unknown,,5,2.6
1800226327,KB국민은행ATM 소공한화빌딩,"금융,보험 > 금융서비스 > 은행 > ATM",BK9,은행,,서울 중구 소공동 110,서울 중구 소공로 109,126.978535301226,37.564173450969,http://place.map.kakao.com/1800226327,,unknown,unknown,,0,0
11231902,크레디트스위스은행 서울지점,"금융,보험 > 금융서비스 > 은행 > 외국은행",BK9,은행,02-3707-3800,서울 중구 소공동 110,서울 중구 소공로 109,126.978562463932,37.5641806638746,http://place.map.kakao.com/11231902,,unknown,unknown,,1,4.0
2016752113,신한은행 365코너 조선호텔,"금융,보험 > 금융서비스 > 은행 > ATM",BK9,은행,,서울 중구 소공동 87-1,서울 중구 소공로 106,126.98006550753,37.5644584340775,http://place.map.kakao.com/2016752113,,unknown,unknown,,0,0
15867823,호텔롯데새마을금고 본점,"금융,보험 > 금융서비스 > 은행 > 새마을금고",BK9,은행,02-318-1567,서울 중구 소공동 1,서울 중구 남대문로 81,126.981731553918,37.5647290024987,http://place.map.kakao.com/15867823,,unknown,unknown,,0,0
17617443,롯데쇼핑새마을금고 본점,"금융,보험 > 금융서비스 > 은행 > 새마을금고",BK9,은행,,서울 중구 소공동 1,서울 중구 남대문로 81,126.98177680561128,37.564824515089896,http://place.map.kakao.com/17617443,,unknown,unknown,,0,0
586859547,롯데ATM 롯데백화점 본점B1층 1,"금융,보험 > 금융서비스 > 은행 > ATM",BK9,은행,,서울 중구 소공동 1,서울 중구 남대문로 81,126.981853763084,37.5648659727684,http://place.map.kakao.com/586859547,,unknown,unknown,,0,0
2041251327,롯데ATM 롯데백화점 본점1층 1,"금융,보험 > 금융서비스 > 은행 > ATM",BK9,은행,,서울 중구 소공동 1,서울 중구 남대문로 81,126.981717984642,37.5646749406252,http://place.map.kakao.com/2041251327,,unknown,unknown,,0,0
1100723832,롯데ATM 롯데백화점 에뉴3층 1,"금융,보험 > 금융서비스 > 은행 > ATM",BK9,은행,,서울 중구 소공동 7,서울 중구 남대문로 73,126.98168641218116,37.564184793767,http://place.map.kakao.com/1100723832,,unknown,unknown,,0,0
44553683,롯데ATM 롯데백화점 본점15층 4,"금융,보험 > 금융서비스 > 은행 > ATM",BK9,은행,,서울 중구 소공동 1,서울 중구 남대문로 81,126.981822066177,37.5648839878161,http://place.map.kakao.com/44553683,,unknown,unknown,,0,0
918583097,신한은행 365코너 롯데백화점면세점,"금융,보험 > 금융서비스 > 은행 > ATM",BK9,은행,,서울 중구 소공동 1,서울 중구 남대문로 81,126.981994142598,37.5647542707324,http://place.map.kakao.com/918583097,,unknown,unknown,,0,0
2003051797,롯데ATM 롯데백화점 본점B1층 2,"금융,보험 > 금융서비스 > 은행 > ATM",BK9,은행,,서울 중구 을지로1가 140-1,서울 중구 을지로 30,126.981921645161,37.564992122648,http://place.map.kakao.com/2003051797,,unknown,unknown,,0,0
175833402,KB국민은행 명동점,"금융,보험 > 금융서비스 > 은행 > KB국민은행",BK9,은행,02-779-5571,서울 중구 을지로2가 199-40,서울 중구 명동7길 21,126.98394094941212,37.56483383925744,http://place.map.kakao.com/175833402,,unknown,unknown,,0,0
1232739229,롯데ATM 세븐일레븐 명동본,"금융,보험 > 금융서비스 > 은행 > ATM",BK9,은행,,서울 중구 을지로2가 195-3,서울 중구 명동9길 23,126.984484240697,37.5648771597243,http://place.map.kakao.com/1232739229,,unknown,unknown,,0,0
1990993975,하나은행365 은행회관,"금융,보험 > 금융서비스 > 은행 > ATM",BK9,은행,,서울 중구 명동1가 4-1,서울 중구 명동11길 19,126.985557246107,37.5649457715732,http://place.map.kakao.com/1990993975,,unknown,unknown,,0,0
8211172,NH농협은행 명동지점,"금융,보험 > 금융서비스 > 은행 > NH농협은행",BK9,은행,02-771-2841,서울 중구 명동1가 1-3,서울 중구 명동길 73,126.98623194376668,37.56440885843125,http://place.map.kakao.com/8211172,,unknown,unknown,,6,1.8
8029368,우리은행 가톨릭회관지점,"금융,보험 > 금융서비스 > 은행 > 우리은행",BK9,은행,02-319-4201,서울 중구 명동2가 1-18,서울 중구 명동길 80,126.98725293023728,37.56417111006061,http://place.map.kakao.com/8029368,,unknown,unknown,,0,0
1975282822,농협ATM,"금융,보험 > 금융서비스 > 은행 > ATM",BK9,은행,,서울 중구 저동1가 39-3,,126.986657536194,37.5643548475189,http://place.map.kakao.com/1975282822,,unknown,unknown,,0,0
22446742,우리은행 중부금융센터,"금융,보험 > 금융서비스 > 은행 > 우리은행",BK9,은행,02-2266-5171,서울 중구 저동2가 24-1,서울 중구 수표로 34,126.9903474371043,37.56427591918547,http://place.map.kakao.com/22446742,,unknown,unknown,,1,5.0
1072836792,CU ATM 서대문인창점,"금융,보험 > 금융서비스 > 은행 > ATM",BK9,은행,,서울 서대문구 충정로2가 37-15,서울 서대문구 경기대로 80,126.96465788888,37.565741449645,http://place.map.kakao.com/1072836792,,unknown,unknown,,0,0
10611579,신한은행 서대문역지점,"금융,보험 > 금융서비스 > 은행 > 신한은행",BK9,은행,02-313-4912,서울 서대문구 충정로2가 130-1,서울 서대문구 충정로 77,126.966052462934,37.565550847718,http://place.map.kakao.com/10611579,,unknown,unknown,,4,3.8
216482223,우체국365코너,"금융,보험 > 금융서비스 > 은행 > ATM",BK9,은행,,서울 서대문구 충정로2가 8-2,서울 서대문구 통일로 127,126.96592101472756,37.56587877240417,http://place.map.kakao.com/216482223,,unknown,unknown,,0,0
2045715407,NH농협은행 본점,"금융,보험 > 금융서비스 > 은행 > NH농협은행",BK9,은행,1661-3000,서울 중구 충정로1가 85,서울 중구 통일로 120,126.967571352712,37.565785533662,http://place.map.kakao.com/2045715407,,unknown,unknown,,14,4.6
8224779,NH농협은행 본점영업부,"금융,보험 > 금융서비스 > 은행 > NH농협은행",BK9,은행,1661-3000,서울 중구 충정로1가 85,서울 중구 통일로 120,126.96757135271214,37.56578553366199,http://place.map.kakao.com/8224779,,unknown,unknown,,29,3.9
789261610,롯데ATM 세븐일레븐 서대문역,"금융,보험 > 금융서비스 > 은행 > ATM",BK9,은행,,서울 중구 의주로1가 25-10,서울 중구 통일로 114,126.967949616986,37.5652882871283,http://place.map.kakao.com/789261610,,unknown,unknown,,0,0
359565030,우리은행 365코너 시청역,"금융,보험 > 금융서비스 > 은행 > ATM",BK9,은행,,서울 중구 정동 5-5,서울 중구 세종대로 지하 101,126.977185744971,37.5653949487419,http://place.map.kakao.com/359565030,,unknown,unknown,,0,0
7975883,신한은행 서울광장출장소,"금융,보험 > 금융서비스 > 은행 > 신한은행",BK9,은행,02-778-7696,서울 중구 을지로1가 188-3,서울 중구 을지로 16,126.979476558519,37.5658314512941,http://place.map.kakao.com/7975883,,unknown,unknown,,1,5.0
509135936,신한은행 365코너 서울광장지점1층,"금융,보험 > 금융서비스 > 은행 > ATM",BK9,은행,,서울 중구 을지로1가 188-3,서울 중구 을지로 16,126.979512780992,37.565824249617,http://place.map.kakao.com/509135936,,unknown,unknown,,0,0
10612189,신한은행 서울롯데지점,"금융,보험 > 금융서비스 > 은행 > 신한은행",BK9,은행,02-777-7575,서울 중구 을지로1가 180-6,서울 중구 을지로 30,126.98100699814148,37.56534516953803,http://place.map.kakao.com/10612189,,unknown,unknown,,2,1.0
1544175884,신한은행 365코너 호텔롯데본관EL,"금융,보험 > 금융서비스 > 은행 > ATM",BK9,은행,,서울 중구 을지로1가 180-6,서울 중구 을지로 30,126.980957193444,37.5653523694842,http://place.map.kakao.com/1544175884,,unknown,unknown,,0,0
1541068021,롯데ATM 롯데백화점 본점15층 3,"금융,보험 > 금융서비스 > 은행 > ATM",BK9,은행,,서울 중구 을지로1가 140-1,서울 중구 을지로 30,126.981799355875,37.5651831150447,http://place.map.kakao.com/1541068021,,unknown,unknown,,0,0
737297005,신한은행 365코너 롯데호텔직원식당,"금융,보험 > 금융서비스 > 은행 > ATM",BK9,은행,,서울 중구 을지로1가 180-6,서울 중구 남대문로 81,126.980957193444,37.5653523694842,http://place.map.kakao.com/737297005,,unknown,unknown,,0,0
2082685629,롯데ATM 롯데호텔 소공,"금융,보험 > 금융서비스 > 은행 > ATM",BK9,은행,,서울 중구 을지로1가 140-1,서울 중구 을지로 30,126.981898906447,37.5654101813736,http://place.map.kakao.com/2082685629,,unknown,unknown,,0,0
24635848,웰컴저축은행 을지로입구역지점,"금융,보험 > 금융서비스 > 은행 > 저축은행 > 웰컴저축은행",BK9,은행,02-6256-8500,서울 중구 을지로2가 198,서울 중구 을지로 50,126.983338614241,37.5656302363767,http://place.map.kakao.com/24635848,,unknown,unknown,,0,0
17530868,우리금융저축은행 을지로입구역지점,"금융,보험 > 금융서비스 > 은행 > 저축은행",BK9,은행,02-3459-6000,서울 중구 을지로2가 198,서울 중구 을지로 50,126.98332502998372,37.56563744242743,http://place.map.kakao.com/17530868,,unknown,unknown,,1,5.0
2001659062,하나은행 영업부,"금융,보험 > 금융서비스 > 은행 > 하나은행",BK9,은행,1544-3000,서울 중구 을지로2가 181,서울 중구 을지로 66,126.984841776285,37.5655547552695,http://place.map.kakao.com/2001659062,,unknown,unknown,,2,5.0
2032237988,IBK기업은행365 IBK파이낸스타워,"금융,보험 > 금융서비스 > 은행 > ATM",BK9,은행,,서울 중구 을지로2가 206,서울 중구 을지로 82,126.987082885318,37.5657063890818,http://place.map.kakao.com/2032237988,,unknown,unknown,,0,0
10784043,중국건설은행 서울지점,"금융,보험 > 금융서비스 > 은행 > 외국은행",BK9,은행,02-6730-3600,서울 중구 을지로2가 185-10,서울 중구 명동11길 24,126.986231811111,37.5651296553857,http://place.map.kakao.com/10784043,,unknown,unknown,,0,0
1728800300,대신저축은행 영업부,"금융,보험 > 금융서비스 > 은행 > 저축은행 > 대신저축은행",BK9,은행,02-775-5600,서울 중구 저동1가 114,서울 중구 삼일대로 343,126.986960746869,37.5651009062655,http://place.map.kakao.com/1728800300,,unknown,unknown,,0,0
1119579887,CU ATM 대신파이낸스센터점,"금융,보험 > 금융서비스 > 은행 > ATM",BK9,은행,,서울 중구 저동1가 114,서울 중구 삼일대로 343,126.986960746869,37.5651009062655,http://place.map.kakao.com/1119579887,,unknown,unknown,,1,1.0
19845514,JT친애저축은행 본사,"금융,보험 > 금융서비스 > 은행 > 저축은행",BK9,은행,1544-9191,서울 중구 을지로2가 203,서울 중구 을지로 100,126.9887343055799,37.56574259805678,http://place.map.kakao.com/19845514,,unknown,unknown,,1,1.0
259870316,애큐온저축은행 강북금융센터,"금융,보험 > 금융서비스 > 은행 > 저축은행 > 애큐온저축은행",BK9,은행,,서울 중구 을지로2가 203,서울 중구 을지로 100,126.988700341416,37.5657921495944,http://place.map.kakao.com/259870316,,unknown,unknown,,0,0
25631842,KB국민은행ATM 을지로3가점,"금융,보험 > 금융서비스 > 은행 > ATM",BK9,은행,,서울 중구 을지로2가 203,서울 중구 을지로 100,126.988576972417,37.5657461869231,http://place.map.kakao.com/25631842,,unknown,unknown,,0,0
932365149,KB국민은행ATM 파인애비뉴빌딩,"금융,보험 > 금융서비스 > 은행 > ATM",BK9,은행,,서울 중구 을지로2가 203,서울 중구 을지로 100,126.988576972417,37.5657461869231,http://place.map.kakao.com/932365149,,unknown,unknown,,0,0
10864094,하나은행 서대문역지점,"금융,보험 > 금융서비스 > 은행 > 하나은행",BK9,은행,02-313-1111,서울 서대문구 충정로2가 2-2,서울 서대문구 통일로 135,126.965517823908,37.5663940250261,http://place.map.kakao.com/10864094,,unknown,unknown,,5,2.6
12832278,우리은행 DL금융센터,"금융,보험 > 금융서비스 > 은행 > 우리은행",BK9,은행,02-730-5273,서울 종로구 평동 222,서울 종로구 통일로 134,126.96625563996082,37.56679788437859,http://place.map.kakao.com/12832278,,unknown,unknown,,0,0
8234184,NH농협은행 본사,"금융,보험 > 금융서비스 > 은행 > NH농협은행",BK9,은행,1661-3000,서울 중구 충정로1가 75-1,서울 중구 새문안로 16,126.96854456956764,37.56628134476508,http://place.map.kakao.com/8234184,,unknown,unknown,,45,3.9
17534231,농업협동조합중앙회 본사,"금융,보험 > 금융서비스 > 은행 > NH농협은행",BK9,은행,1661-3000,서울 중구 충정로1가 75-1,서울 중구 새문안로 16,126.9685671166518,37.56649758979491,http://place.map.kakao.com/17534231,,unknown,unknown,,2,4.5
18819232,NH농협은행 중앙본부출장소,"금융,보험 > 금융서비스 > 은행 > NH농협은행",BK9,은행,02-2080-4989,서울 중구 충정로1가 75-1,서울 중구 새문안로 16,126.968451701551,37.5664056574255,http://place.map.kakao.com/18819232,,unknown,unknown,,0,0
515882213,NH농협은행 청소년금융교육센터 홍보관,"금융,보험 > 금융서비스 > 은행 > NH농협은행",BK9,은행,,서울 중구 충정로1가 75-1,서울 중구 새문안로 16,126.968451700031,37.5664092614088,http://place.map.kakao.com/515882213,,unknown,unknown,,0,0
1760132125,NH농협은행 365코너 영업부,"금융,보험 > 금융서비스 > 은행 > ATM",BK9,은행,,서울 중구 충정로1가 75-1,서울 중구 새문안로 16,126.96858198196765,37.56613899736485,http://place.map.kakao.com/1760132125,,unknown,unknown,,0,0
353109334,NH농협은행 365코너 중앙본부출장소,"금융,보험 > 금융서비스 > 은행 > ATM",BK9,은행,,서울 중구 충정로1가 75-1,서울 중구 새문안로 16,126.96854683412,37.5662795433765,http://place.map.kakao.com/353109334,,unknown,unknown,,0,0
508437738,신한은행 서울시청금융센터,"금융,보험 > 금융서비스 > 은행 > 신한은행",BK9,은행,02-6023-8530,서울 중구 태평로1가 31,서울 중구 세종대로 110,126.97858441722614,37.56657010954274,http://place.map.kakao.com/508437738,,unknown,unknown,,1,5.0
26234978,부산은행 서울금융센터,"금융,보험 > 금융서비스 > 은행 > BNK부산은행",BK9,은행,02-777-6191,서울 중구 을지로1가 16,서울 중구 무교로 6,126.97942200669,37.5666351302126,http://place.map.kakao.com/26234978,,unknown,unknown,,4,2.8
8124674,하나은행 본점,"금융,보험 > 금융서비스 > 은행 > 하나은행",BK9,은행,1599-1111,서울 중구 을지로1가 101-1,서울 중구 을지로 35,126.981866951611,37.566491371702,http://place.map.kakao.com/8124674,,unknown,unknown,,15,2.3
1375961099,하나은행 영업1부PB센터,"금융,보험 > 금융서비스 > 은행 > 하나은행",BK9,은행,02-737-1111,서울 중구 을지로1가 101-1,서울 중구 을지로 35,126.981866951611,37.566491371702,http://place.map.kakao.com/1375961099,,unknown,unknown,,1,5.0
8776713,교통은행 서울지점,"금융,보험 > 금융서비스 > 은행 > 외국은행",BK9,은행,02-2022-6888,서울 중구 을지로1가 87,서울 중구 을지로 29,126.981024820313,37.5664804274033,http://place.map.kakao.com/8776713,,unknown,unknown,,0,0
1489578113,하나은행365 본점신축건물1층주차장,"금융,보험 > 금융서비스 > 은행 > ATM",BK9,은행,,서울 중구 을지로1가 101-1,서울 중구 을지로 35,126.981866951611,37.566491371702,http://place.map.kakao.com/1489578113,,unknown,unknown,,1,5.0
901415608,우리은행 365코너 삼성화재빌딩 1층로비,"금융,보험 > 금융서비스 > 은행 > ATM",BK9,은행,,서울 중구 을지로1가 87,서울 중구 을지로 29,126.98104745193,37.566505658925,http://place.map.kakao.com/901415608,,unknown,unknown,,0,0
1139105211,하나은행365 을지로입구역지하,"금융,보험 > 금융서비스 > 은행 > ATM",BK9,은행,,서울 중구 을지로1가 101-1,서울 중구 을지로 35,126.981866951611,37.566491371702,http://place.map.kakao.com/1139105211,,unknown,unknown,,1,5.0
24717328,하나은행 영업1부지점,"금융,보험 > 금융서비스 > 은행 > 하나은행",BK9,은행,02-754-1111,서울 중구 을지로1가 101-1,서울 중구 을지로 35,126.981880542275,37.5664589379345,http://place.map.kakao.com/24717328,,unknown,unknown,,2,3.5
1831765752,하나골드클럽 영업1부PB센터,"금융,보험 > 금융서비스 > 은행 > 하나은행",BK9,은행,02-737-1111,서울 중구 을지로1가 101-1,서울 중구 을지로 35,126.98189414012371,37.566396771299885,http://place.map.kakao.com/1831765752,,unknown,unknown,,1,5.0
1502095997,우리은행 365코너 롯데백화점방향,"금융,보험 > 금융서비스 > 은행 > ATM",BK9,은행,,서울 중구 을지로1가 100-1,서울 중구 을지로 지하 42,126.982084380102,37.5660589268277,http://place.map.kakao.com/1502095997,,unknown,unknown,,0,0
301306373,SC제일은행 365코너 을지로입구역1-2,"금융,보험 > 금융서비스 > 은행 > ATM",BK9,은행,,서울 중구 을지로1가 100-1,서울 중구 을지로 지하 42,126.982084380102,37.5660589268277,http://place.map.kakao.com/301306373,,unknown,unknown,,0,0
1015633678,신한은행 365코너 을지프라자,"금융,보험 > 금융서비스 > 은행 > ATM",BK9,은행,,서울 중구 을지로1가 100-1,서울 중구 을지로 지하 42,126.982084380102,37.5660589268277,http://place.map.kakao.com/1015633678,,unknown,unknown,,0,0
8678943,KB국민은행 명동영업부,"금융,보험 > 금융서비스 > 은행 > KB국민은행",BK9,은행,02-2073-7114,서울 중구 을지로2가 6,서울 중구 을지로 51,126.9836825201804,37.566491636596886,http://place.map.kakao.com/8678943,,unknown,unknown,,3,3.3
156094112,KB국민은행 명동스타PB센터,"금융,보험 > 금융서비스 > 은행 > KB국민은행",BK9,은행,02-779-5631,서울 중구 을지로2가 6,서울 중구 을지로 51,126.983537664661,37.5663654770534,http://place.map.kakao.com/156094112,,unknown,unknown,,2,5.0
25655527,KB국민은행ATM 명동영업부점,"금융,보험 > 금융서비스 > 은행 > ATM",BK9,은행,,서울 중구 을지로2가 6,서울 중구 을지로 51,126.98370289183964,37.566503352358055,http://place.map.kakao.com/25655527,,unknown,unknown,,0,0
609352996,하나은행 영업2부지점,"금융,보험 > 금융서비스 > 은행 > 하나은행",BK9,은행,,서울 중구 을지로2가 9-10,서울 중구 을지로 55,126.984058315024,37.5664736680195,http://place.map.kakao.com/609352996,,unknown,unknown,,1,5.0
498042095,IBK기업은행365 SK T-TOWER,"금융,보험 > 금융서비스 > 은행 > ATM",BK9,은행,,서울 중구 을지로2가 11,서울 중구 을지로 65,126.985126826084,37.5664882234001,http://place.map.kakao.com/498042095,,unknown,unknown,,0,0
609277564,SC제일은행 365코너 SKT타워,"금융,보험 > 금융서비스 > 은행 > ATM",BK9,은행,,서울 중구 을지로2가 11,서울 중구 을지로 65,126.985122297048,37.566495430797,http://place.map.kakao.com/609277564,,unknown,unknown,,0,0
807381222,KB국민은행ATM SK텔레콤을지로신사옥 지하1층,"금융,보험 > 금융서비스 > 은행 > ATM",BK9,은행,,서울 중구 을지로2가 11,서울 중구 을지로 65,126.985036283411,37.5664413601694,http://place.map.kakao.com/807381222,,unknown,unknown,,0,0
623083277,하나은행365 SKT신사옥 지하1층,"금융,보험 > 금융서비스 > 은행 > ATM",BK9,은행,,서울 중구 을지로2가 11,서울 중구 을지로 65,126.985126826084,37.5664882234001,http://place.map.kakao.com/623083277,,unknown,unknown,,0,0
76439737,신한은행 365코너 SKT신사옥,"금융,보험 > 금융서비스 > 은행 > ATM",BK9,은행,,서울 중구 을지로2가 11,서울 중구 을지로 65,126.985208322925,37.5664882336389,http://place.map.kakao.com/76439737,,unknown,unknown,,0,0
793156041,IBK기업은행 영업부본점,"금융,보험 > 금융서비스 > 은행 > 기업은행",BK9,은행,02-729-6114,서울 중구 을지로2가 50,서울 중구 을지로 79,126.9865643391636,37.56649199972894,http://place.map.kakao.com/793156041,,unknown,unknown,,2,3.5
8208640,IBK기업은행 본부기업금융센터,"금융,보험 > 금융서비스 > 은행 > 기업은행",BK9,은행,0505-075-0595(팩스),서울 중구 을지로2가 50,서울 중구 을지로 79,126.986553022101,37.5664811864891,http://place.map.kakao.com/8208640,,unknown,unknown,,1,4.0
2010245203,IBK기업은행365 영업부점365,"금융,보험 > 금융서비스 > 은행 > ATM",BK9,은행,,서울 중구 을지로2가 50,서울 중구 을지로 79,126.986548491907,37.5664956019082,http://place.map.kakao.com/2010245203,,unknown,unknown,,0,0
1471803799,신한은행 365코너 신한생명본사,"금융,보험 > 금융서비스 > 은행 > ATM",BK9,은행,,서울 중구 을지로2가 205,서울 중구 삼일대로 358,126.988105988403,37.5664885611241,http://place.map.kakao.com/1471803799,,unknown,unknown,,0,0
9658095,KB국민은행 을지로3가지점,"금융,보험 > 금융서비스 > 은행 > KB국민은행",BK9,은행,02-2277-6611,서울 중구 을지로2가 203,서울 중구 을지로 100,126.9887003152852,37.56596514083247,http://place.map.kakao.com/9658095,,unknown,unknown,,1,5.0
19265796,신한은행 을지로지점,"금융,보험 > 금융서비스 > 은행 > 신한은행",BK9,은행,02-2273-9111,서울 중구 을지로3가 5-6,서울 중구 을지로 109,126.99008907824,37.5664887442552,http://place.map.kakao.com/19265796,,unknown,unknown,,2,3.0
1033859112,CU ATM 종로교남점,"금융,보험 > 금융서비스 > 은행 > ATM",BK9,은행,,서울 종로구 교남동 10,서울 종로구 통일로 146,126.965512816128,37.5674355747643,http://place.map.kakao.com/1033859112,,unknown,unknown,,0,0
18385666,하나은행365 문화일보 1층로비,"금융,보험 > 금융서비스 > 은행 > ATM",BK9,은행,,서울 중구 충정로1가 68,서울 중구 새문안로 22,126.968523850421,37.5671012455027,http://place.map.kakao.com/18385666,,unknown,unknown,,0,0
999386499,CU ATM 중구정동길점,"금융,보험 > 금융서비스 > 은행 > ATM",BK9,은행,,서울 중구 정동 27-12,서울 중구 정동길 10,126.969682772604,37.567479967033,http://place.map.kakao.com/999386499,,unknown,unknown,,0,0
2070365712,하나은행365 정동빌딩11층,"금융,보험 > 금융서비스 > 은행 > ATM",BK9,은행,,서울 중구 정동 15-5,서울 중구 정동길 21-15,126.9710025615847,37.56754336827659,http://place.map.kakao.com/2070365712,,unknown,unknown,,0,0
393215300,하나은행365 이화정동빌딩6층,"금융,보험 > 금융서비스 > 은행 > ATM",BK9,은행,,서울 중구 정동 17-4,서울 중구 정동길 17,126.97063483977706,37.56715855218126,http://place.map.kakao.com/393215300,,unknown,unknown,,0,0
19650991,NH농협은행 광화문금융센터,"금융,보험 > 금융서비스 > 은행 > NH농협은행",BK9,은행,02-730-5391,서울 중구 태평로1가 25,서울 중구 세종대로 124,126.977778164856,37.56770881928,http://place.map.kakao.com/19650991,,unknown,unknown,,2,3.0
10206049,IBK기업은행 무교지점,"금융,보험 > 금융서비스 > 은행 > 기업은행",BK9,은행,02-777-1183,서울 중구 무교동 95,서울 중구 무교로 20,126.979439847701,37.5676154167988,http://place.map.kakao.com/10206049,,unknown,unknown,,3,3.7
1606726602,롯데ATM 세븐일레븐 무교,"금융,보험 > 금융서비스 > 은행 > ATM",BK9,은행,,서울 중구 무교동 21-3,서울 중구 무교로 12,126.979358510744,37.567031557319,http://place.map.kakao.com/1606726602,,unknown,unknown,,0,0
301716652,IBK기업은행365 무교점365,"금융,보험 > 금융서비스 > 은행 > ATM",BK9,은행,,서울 중구 무교동 95,서울 중구 무교로 20,126.979566618533,37.5676298547403,http://place.map.kakao.com/301716652,,unknown,unknown,,1,1.0
1590894638,우리은행 365코너 와이지씨타워 1층,"금융,보험 > 금융서비스 > 은행 > ATM",BK9,은행,,서울 중구 다동 155,서울 중구 남대문로9길 40,126.980368159169,37.5670857892789,http://place.map.kakao.com/1590894638,,unknown,unknown,,0,0
940392749,Sh수협은행 중부기업금융본부,"금융,보험 > 금융서비스 > 은행 > 수협은행",BK9,은행,02-319-0935,서울 중구 다동 88,서울 중구 남대문로 117,126.982305844315,37.567695168755,http://place.map.kakao.com/940392749,,unknown,unknown,,0,0
26601952,광주은행 서울영업부,"금융,보험 > 금융서비스 > 은행 > 광주은행",BK9,은행,02-318-2630,서울 중구 다동 111,서울 중구 남대문로 109,126.98231847410602,37.566939235155786,http://place.map.kakao.com/26601952,,unknown,unknown,,2,5.0
10212127,DB저축은행 본점,"금융,보험 > 금융서비스 > 은행 > 저축은행",BK9,은행,02-3705-1700,서울 중구 다동 103,서울 중구 남대문로 113,126.982346657183,37.5674248761305,http://place.map.kakao.com/10212127,,unknown,unknown,,0,0
804906388,유안타저축은행 을지로지점,"금융,보험 > 금융서비스 > 은행 > 저축은행",BK9,은행,02-6022-3700,서울 중구 다동 111,서울 중구 남대문로 109,126.982247153036,37.5669851752422,http://place.map.kakao.com/804906388,,unknown,unknown,,0,0
558771751,롯데ATM 세븐일레븐 태평로,"금융,보험 > 금융서비스 > 은행 > ATM",BK9,은행,,서울 중구 남대문로1가 22-10,서울 중구 남대문로 112,126.982985120211,37.5671474631592,http://place.map.kakao.com/558771751,,unknown,unknown,,0,0
18385669,하나은행365 Center1 빌딩(지하1층),"금융,보험 > 금융서비스 > 은행 > ATM",BK9,은행,,서울 중구 수하동 67,서울 중구 을지로5길 26,126.985090402699,37.5675045421478,http://place.map.kakao.com/18385669,,unknown,unknown,,0,0
1659432096,하나은행365 동국제강페럼타워,"금융,보험 > 금융서비스 > 은행 > ATM",BK9,은행,,서울 중구 수하동 66,서울 중구 을지로5길 19,126.984225732918,37.5669638322833,http://place.map.kakao.com/1659432096,,unknown,unknown,,0,0
466024043,KB국민은행ATM 연합뉴스사옥로비,"금융,보험 > 금융서비스 > 은행 > ATM",BK9,은행,,서울 중구 수하동 67,서울 중구 을지로5길 26,126.985176444737,37.5674216613691,http://place.map.kakao.com/466024043,,unknown,unknown,,0,0
9002483,미쓰이스미토모은행 서울지점,"금융,보험 > 금융서비스 > 은행 > 외국은행",BK9,은행,02-6364-7000,서울 중구 수하동 67,서울 중구 을지로5길 26,126.985140257832,37.5672486656227,http://place.map.kakao.com/9002483,,unknown,unknown,,2,2.0
12704294,스테이트스트리트은행 서울지점,"금융,보험 > 금융서비스 > 은행 > 외국은행",BK9,은행,02-3706-4500,서울 중구 수하동 67,서울 중구 을지로5길 26,126.985176444737,37.5674216613691,http://place.map.kakao.com/12704294,,unknown,unknown,,0,0
17817262,우리은행 한화금융센터,"금융,보험 > 금융서비스 > 은행 > 우리은행",BK9,은행,02-729-5600,서울 중구 장교동 1,서울 중구 청계천로 86,126.986435131919,37.5674326246497,http://place.map.kakao.com/17817262,,unknown,unknown,,0,0
719631181,하나은행365 시그니처빌딩,"금융,보험 > 금융서비스 > 은행 > ATM",BK9,은행,,서울 중구 수표동 99,서울 중구 청계천로 100,126.98838651175,37.5676995274862,http://place.map.kakao.com/719631181,,unknown,unknown,,0,0
1717410169,롯데ATM 세븐일레븐 시그니쳐타워,"금융,보험 > 금융서비스 > 은행 > ATM",BK9,은행,,서울 중구 수표동 99,서울 중구 청계천로 100,126.988411431414,37.5675869054631,http://place.map.kakao.com/1717410169,,unknown,unknown,,0,0
1163208653,IBK기업은행365 시그니쳐타워,"금융,보험 > 금융서비스 > 은행 > ATM",BK9,은행,,서울 중구 수표동 99,서울 중구 청계천로 100,126.98840462748,37.5676670934192,http://place.map.kakao.com/1163208653,,unknown,unknown,,0,0
172770588,KB국민은행 강북삼성병원점,"금융,보험 > 금융서비스 > 은행 > KB국민은행",BK9,은행,02-720-9623,서울 종로구 평동 108-1,서울 종로구 새문안로 29,126.96855963073,37.5681500140862,http://place.map.kakao.com/172770588,,unknown,unknown,,0,0
8023090,하나은행 서대문지점,"금융,보험 > 금융서비스 > 은행 > 하나은행",BK9,은행,02-739-7171,서울 종로구 신문로2가 89-27,서울 종로구 새문안로 42,126.970008319193,37.5685900768702,http://place.map.kakao.com/8023090,,unknown,unknown,,1,5.0
7979152,신한은행 광화문지점,"금융,보험 > 금융서비스 > 은행 > 신한은행",BK9,은행,02-735-7241,서울 중구 정동 1-17,서울 중구 세종대로21길 39,126.9753601366174,37.5684651757612,http://place.map.kakao.com/7979152,,unknown,unknown,,0,0
7979152,신한은행 광화문지점,"금융,보험 > 금융서비스 > 은행 > 신한은행",BK9,은행,02-735-7241,서울 중구 정동 1-17,서울 중구 세종대로21길 39,126.9753601366174,37.5684651757612,http://place.map.kakao.com/7979152,,unknown,unknown,,0,0
15215112,KB국민은행 태평로지점,"금융,보험 > 금융서비스 > 은행 > KB국민은행",BK9,은행,02-739-1580,서울 중구 태평로1가 61-23,서울 중구 세종대로 135,126.97670483965608,37.56856275628238,http://place.map.kakao.com/15215112,,unknown,unknown,,3,3.7
25656023,KB국민은행ATM 태평로출장소점,"금융,보험 > 금융서비스 > 은행 > ATM",BK9,은행,,서울 중구 태평로1가 61-1,서울 중구 세종대로 135,126.976677674414,37.5685591469366,http://place.map.kakao.com/25656023,,unknown,unknown,,0,0
11119152,신한은행 파이낸스센터,"금융,보험 > 금융서비스 > 은행 > 신한은행",BK9,은행,02-3783-0030,서울 중구 태평로1가 84,서울 중구 세종대로 136,126.97776319090232,37.56858007928816,http://place.map.kakao.com/11119152,,unknown,unknown,,3,2.3
19650991,NH농협은행 광화문금융센터,"금융,보험 > 금융서비스 > 은행 > NH농협은행",BK9,은행,02-730-5391,서울 중구 태평로1가 25,서울 중구 세종대로 124,126.977778164856,37.56770881928,http://place.map.kakao.com/19650991,,unknown,unknown,,2,3.0
8060228,전북은행 서울지점,"금융,보험 > 금융서비스 > 은행 > 전북은행",BK9,은행,02-751-2300,서울 중구 태평로1가 84,서울 중구 세종대로 136,126.9782239345124,37.5684179859585,http://place.map.kakao.com/8060228,,unknown,unknown,,3,3.7
813857137,전북은행 광화문종합금융센터,"금융,보험 > 금융서비스 > 은행 > 전북은행",BK9,은행,02-739-7687,서울 중구 무교동 97,서울 중구 세종대로 136,126.97825562828278,37.568418892795854,http://place.map.kakao.com/813857137,,unknown,unknown,,2,3.0
17205004,뱅크오브아메리카 서울지점,"금융,보험 > 금융서비스 > 은행 > 외국은행",BK9,은행,02-788-1401,서울 중구 태평로1가 84,서울 중구 세종대로 136,126.977741730038,37.5684260049912,http://place.map.kakao.com/17205004,,unknown,unknown,,0,0
17205340,중국농업은행 서울지점,"금융,보험 > 금융서비스 > 은행 > 외국은행",BK9,은행,02-3788-3900,서울 중구 무교동 97,서울 중구 세종대로 136,126.978552199042,37.5684009271337,http://place.map.kakao.com/17205340,,unknown,unknown,,2,1.0
20472044,미즈호코퍼레이트 미즈호은행 서울지점,"금융,보험 > 금융서비스 > 은행 > 외국은행",BK9,은행,02-3782-8500,서울 중구 무교동 97,서울 중구 세종대로 136,126.978248830416,37.568440515439,http://place.map.kakao.com/20472044,,unknown,unknown,,0,0
8258663,대화은행 서울지점,"금융,보험 > 금융서비스 > 은행 > 외국은행",BK9,은행,02-739-3916,서울 중구 태평로1가 84,서울 중구 세종대로 136,126.977940947565,37.5684332503479,http://place.map.kakao.com/8258663,,unknown,unknown,,0,0
22390343,알비에스피엘씨은행 서울지점,"금융,보험 > 금융서비스 > 은행 > 외국은행",BK9,은행,02-2131-6000,서울 중구 태평로1가 84,서울 중구 세종대로 136,126.97786849765,37.5684548606839,http://place.map.kakao.com/22390343,,unknown,unknown,,0,0
10627366,오버시차이니스뱅킹 서울지점,"금융,보험 > 금융서비스 > 은행 > 외국은행",BK9,은행,02-2021-3900,서울 중구 태평로1가 84,서울 중구 세종대로 136,126.97779152532,37.5684584502119,http://place.map.kakao.com/10627366,,unknown,unknown,,0,0
9313008,유비에스은행 서울지점,"금융,보험 > 금융서비스 > 은행 > 외국은행",BK9,은행,,서울 중구 태평로1가 84,서울 중구 세종대로 136,126.977895669301,37.5684368458616,http://place.map.kakao.com/9313008,,unknown,unknown,,0,0
9297797,우리은행 서울시청금융센터,"금융,보험 > 금융서비스 > 은행 > 우리은행",BK9,은행,02-735-6747,서울 중구 무교동 45,서울 중구 무교로 21,126.97881722643558,37.56785046661765,http://place.map.kakao.com/9297797,,unknown,unknown,,1,1.0
10144798,KB국민은행 무교지점,"금융,보험 > 금융서비스 > 은행 > KB국민은행",BK9,은행,02-3783-0852,서울 중구 무교동 97,서울 중구 세종대로 136,126.97877403165,37.5684910667899,http://place.map.kakao.com/10144798,,unknown,unknown,,4,2.3
126045451,KB국민은행ATM 무교점,"금융,보험 > 금융서비스 > 은행 > ATM",BK9,은행,,서울 중구 무교동 97,서울 중구 세종대로 136,126.97878762708498,37.56844782144291,http://place.map.kakao.com/126045451,,unknown,unknown,,0,0
2132621738,우리은행 365코너 서울시청금융센터,"금융,보험 > 금융서비스 > 은행 > ATM",BK9,은행,,서울 중구 무교동 45,서울 중구 무교로 21,126.97878102336117,37.56778558842333,http://place.map.kakao.com/2132621738,,unknown,unknown,,1,5.0
764436231,하나은행365 한외빌딩,"금융,보험 > 금융서비스 > 은행 > ATM",BK9,은행,,서울 중구 다동 70,서울 중구 다동길 43,126.981622036961,37.5682176418063,http://place.map.kakao.com/764436231,,unknown,unknown,,1,5.0
11241787,코메르쯔은행 서울사무소,"금융,보험 > 금융서비스 > 은행 > 외국은행",BK9,은행,02-776-6200,서울 중구 다동 70,서울 중구 다동길 43,126.981612985091,37.568203224466,http://place.map.kakao.com/11241787,,unknown,unknown,,0,0
330253081,DGB대구은행 서울영업부,"금융,보험 > 금융서비스 > 은행 > 대구은행",BK9,은행,02-777-8381,서울 중구 다동 85,서울 중구 남대문로 125,126.98231926676408,37.56837452153009,http://place.map.kakao.com/330253081,,unknown,unknown,,3,3.7
1782460973,Sh수협은행 서울중앙금융센터,"금융,보험 > 금융서비스 > 은행 > 수협은행",BK9,은행,02-3708-1200,서울 중구 다동 88,서울 중구 남대문로 117,126.982310354945,37.5677672490914,http://place.map.kakao.com/1782460973,,unknown,unknown,,0,0
406361818,DGB대구은행 수도권PRM센터(서울),"금융,보험 > 금융서비스 > 은행 > 대구은행",BK9,은행,1566-5050,서울 중구 다동 85,서울 중구 남대문로 125,126.982292100892,37.5683727154672,http://place.map.kakao.com/406361818,,unknown,unknown,,0,0
8028523,우리은행 종로금융센터,"금융,보험 > 금융서비스 > 은행 > 우리은행",BK9,은행,02-734-4491,서울 중구 남대문로1가 19,서울 중구 남대문로 118,126.983061957925,37.5677313194868,http://place.map.kakao.com/8028523,,unknown,unknown,,0,0
625896401,신한은행 광교기업영업부,"금융,보험 > 금융서비스 > 은행 > 신한은행",BK9,은행,02-2010-2191,서울 중구 삼각동 66-1,서울 중구 청계천로 54,126.9832927318266,37.56834763343538,http://place.map.kakao.com/625896401,,unknown,unknown,,2,1.0
1753586012,신한은행 광교영업부,"금융,보험 > 금융서비스 > 은행 > 신한은행",BK9,은행,02-2010-2100,서울 중구 삼각동 66-1,서울 중구 청계천로 54,126.983251976745,37.5683728555393,http://place.map.kakao.com/1753586012,,unknown,unknown,,0,0
1460822337,DGB대구은행 수도권리테일론센터,"금융,보험 > 금융서비스 > 은행 > 대구은행",BK9,은행,02-760-8740,서울 중구 삼각동 79-1,서울 중구 남대문로 120,126.983213585178,37.567953887090965,http://place.map.kakao.com/1460822337,,unknown,unknown,,0,0
22581735,신한저축은행 본점영업부,"금융,보험 > 금융서비스 > 은행 > 저축은행 > 신한저축은행",BK9,은행,1644-7777,서울 중구 남대문로1가 14-3,서울 중구 청계천로 54,126.983134247995,37.5684088786055,http://place.map.kakao.com/22581735,,unknown,unknown,,0,0
12669811,신한은행 365코너 백년관1층,"금융,보험 > 금융서비스 > 은행 > ATM",BK9,은행,,서울 중구 삼각동 117,서울 중구 남대문로10길 29,126.984189335144,37.5677999515267,http://place.map.kakao.com/12669811,,unknown,unknown,,0,0
825393538,하나은행365 SK네트웍스 12층,"금융,보험 > 금융서비스 > 은행 > ATM",BK9,은행,,서울 종로구 관철동 10-2,서울 종로구 청계천로 85,126.98716163074803,37.56854273261615,http://place.map.kakao.com/825393538,,unknown,unknown,,0,0
747102556,롯데ATM 세븐일레븐 종로청계천본,"금융,보험 > 금융서비스 > 은행 > ATM",BK9,은행,,서울 종로구 관철동 35-2,,126.988658065729,37.5684023305424,http://place.map.kakao.com/747102556,,unknown,unknown,,0,0
1137420358,CU ATM 경희궁자이행복점,"금융,보험 > 금융서비스 > 은행 > ATM",BK9,은행,,서울 종로구 평동 233,서울 종로구 경교장길 35,126.965113719893,37.5688554266661,http://place.map.kakao.com/1137420358,,unknown,unknown,,0,0
10950686,한국씨티은행 서울센터,"금융,보험 > 금융서비스 > 은행 > 한국씨티은행",BK9,은행,02-2004-2155,서울 종로구 신문로2가 89-29,서울 종로구 새문안로 50,126.970696382933,37.5689758757676,http://place.map.kakao.com/10950686,,unknown,unknown,,9,1.6
8151366,한국씨티은행 영업부,"금융,보험 > 금융서비스 > 은행 > 한국씨티은행",BK9,은행,02-3455-2211,서울 종로구 신문로2가 89-29,서울 종로구 새문안로 50,126.97069412964726,37.56894884534186,http://place.map.kakao.com/8151366,,unknown,unknown,,0,0
8134927,한국씨티은행 중앙기업업무센터,"금융,보험 > 금융서비스 > 은행 > 한국씨티은행",BK9,은행,02-3455-2114,서울 종로구 신문로2가 89-29,서울 종로구 새문안로 50,126.97069639140476,37.568954251876576,http://place.map.kakao.com/8134927,,unknown,unknown,,1,1.0
134003452,한국씨티은행 커머셜글로벌기업금융센터,"금융,보험 > 금융서비스 > 은행 > 한국씨티은행",BK9,은행,02-3455-2413,서울 종로구 신문로2가 89-29,서울 종로구 새문안로 50,126.970682806739,37.5689578524861,http://place.map.kakao.com/134003452,,unknown,unknown,,0,0
17875399,한국씨티은행 커머셜기업금융1센터,"금융,보험 > 금융서비스 > 은행 > 한국씨티은행",BK9,은행,02-3455-2114,서울 종로구 신문로2가 89-29,서울 종로구 새문안로 50,126.97069639140476,37.568954251876576,http://place.map.kakao.com/17875399,,unknown,unknown,,0,0
12601686,IBK기업은행 LG광화문지점,"금융,보험 > 금융서비스 > 은행 > 기업은행",BK9,은행,02-735-6826,서울 종로구 신문로2가 92,서울 종로구 새문안로 58,126.97122147603125,37.569303967304926,http://place.map.kakao.com/12601686,,unknown,unknown,,1,5.0
140242799,우리은행 365코너 LG광화문빌딩내,"금융,보험 > 금융서비스 > 은행 > ATM",BK9,은행,,서울 종로구 신문로2가 92,서울 종로구 새문안로 58,126.971628991942,37.5692608181565,http://place.map.kakao.com/140242799,,unknown,unknown,,0,0
904610116,IBK기업은행365 LG광화문점365,"금융,보험 > 금융서비스 > 은행 > ATM",BK9,은행,,서울 종로구 신문로2가 92,서울 종로구 새문안로 58,126.971398019185,37.5694085256849,http://place.map.kakao.com/904610116,,unknown,unknown,,0,0
1844825680,하나은행365 LG신문로사옥(지하2층),"금융,보험 > 금융서비스 > 은행 > ATM",BK9,은행,,서울 종로구 신문로2가 92,서울 종로구 새문안로 58,126.971506709211,37.5693472842744,http://place.map.kakao.com/1844825680,,unknown,unknown,,0,0
9741090,NH농협은행 NH금융PLUS 광화문역센터,"금융,보험 > 금융서비스 > 은행 > NH농협은행",BK9,은행,02-3210-2531,서울 중구 태평로1가 68,서울 종로구 세종대로 149,126.97628010004634,37.56939879558396,http://place.map.kakao.com/9741090,,unknown,unknown,,1,5.0
17695618,신한은행 신한PWM서울파이낸스센터,"금융,보험 > 금융서비스 > 은행 > 신한은행",BK9,은행,02-3783-0700,서울 중구 태평로1가 84,서울 중구 세종대로 136,126.97776884494,37.5685990012609,http://place.map.kakao.com/17695618,,unknown,unknown,,0,0
22854936,NH농협은행 예금보험공사출장소,"금융,보험 > 금융서비스 > 은행 > NH농협은행",BK9,은행,02-776-7431,서울 중구 다동 33,서울 중구 청계천로 30,126.98063489516753,37.56861031811554,http://place.map.kakao.com/22854936,,unknown,unknown,,0,0
1710986012,NH농협은행 365코너 예금보험공사출장소,"금융,보험 > 금융서비스 > 은행 > ATM",BK9,은행,,서울 중구 다동 33,서울 중구 청계천로 30,126.980625841573,37.5686031086652,http://place.map.kakao.com/1710986012,,unknown,unknown,,0,0
1177783380,롯데ATM 세븐일레븐 종각(CD),"금융,보험 > 금융서비스 > 은행 > ATM",BK9,은행,,서울 종로구 관철동 180,서울 종로구 삼일대로17길 51,126.984650893919,37.5690902382056,http://place.map.kakao.com/1177783380,,unknown,unknown,,0,0
1002205835,CU ATM 종로피아노길점,"금융,보험 > 금융서비스 > 은행 > ATM",BK9,은행,,서울 종로구 관철동 11-14,서울 종로구 청계천로 73,126.985887057337,37.568639894659,http://place.map.kakao.com/1002205835,,unknown,unknown,,2,5.0
114281259,롯데ATM 세븐일레븐종로으뜸(CD),"금융,보험 > 금융서비스 > 은행 > ATM",BK9,은행,,서울 종로구 관수동 26,,126.990686355145,37.5694332469227,http://place.map.kakao.com/114281259,,unknown,unknown,,0,0
8219013,NH농협은행 서울시교육청지점,"금융,보험 > 금융서비스 > 은행 > NH농협은행",BK9,은행,02-736-5785,서울 종로구 신문로2가 2-64,서울 종로구 송월길 48,126.9668393973772,37.57004073302883,http://place.map.kakao.com/8219013,,unknown,unknown,,0,0
21126985,NH농협은행 세종로지점,"금융,보험 > 금융서비스 > 은행 > NH농협은행",BK9,은행,02-3276-2091,서울 종로구 신문로1가 163,서울 종로구 새문안로 92,126.97492731094376,37.569742696299805,http://place.map.kakao.com/21126985,,unknown,unknown,,2,5.0
8019562,우리은행 세종로금융센터,"금융,보험 > 금융서비스 > 은행 > 우리은행",BK9,은행,02-399-2201,서울 종로구 세종로 211,서울 종로구 세종대로 149,126.9762607877872,37.56961683260693,http://place.map.kakao.com/8019562,,unknown,unknown,,2,1.0
17607127,KB국민은행 동아미디어지점,"금융,보험 > 금융서비스 > 은행 > KB국민은행",BK9,은행,02-739-6290,서울 종로구 서린동 159-1,서울 종로구 청계천로 1,126.97817607511654,37.56950908274481,http://place.map.kakao.com/17607127,,unknown,unknown,,1,5.0
1423718331,우체국365코너,"금융,보험 > 금융서비스 > 은행 > ATM",BK9,은행,,서울 종로구 서린동 154-1,서울 종로구 종로 6,126.97823934510056,37.569918146356265,http://place.map.kakao.com/1423718331,,unknown,unknown,,0,0
9725894,노바스코셔은행 서울지점,"금융,보험 > 금융서비스 > 은행 > 외국은행",BK9,은행,02-2020-2341,서울 종로구 서린동 159-1,서울 종로구 청계천로 1,126.978026656625,37.5695144610018,http://place.map.kakao.com/9725894,,unknown,unknown,,0,0
25629705,KB국민은행ATM 동아미디어점 1층로비,"금융,보험 > 금융서비스 > 은행 > ATM",BK9,은행,,서울 종로구 서린동 159-1,서울 종로구 청계천로 1,126.97805381805,37.5695324859636,http://place.map.kakao.com/25629705,,unknown,unknown,,0,0
1079247881,하나은행 서린지점,"금융,보험 > 금융서비스 > 은행 > 하나은행",BK9,은행,02-733-0981,서울 종로구 서린동 111-1,서울 종로구 종로 22,126.97969732038,37.569842722477,http://place.map.kakao.com/1079247881,,unknown,unknown,,2,5.0
1472179698,KB국민은행ATM 무역보험공사출장소점,"금융,보험 > 금융서비스 > 은행 > ATM",BK9,은행,,서울 종로구 서린동 136,서울 종로구 종로 14,126.978877815123,37.5697452711925,http://place.map.kakao.com/1472179698,,unknown,unknown,,0,0
8649082,하나은행 SK센터,"금융,보험 > 금융서비스 > 은행 > 하나은행",BK9,은행,02-730-1111,서울 종로구 서린동 99,서울 종로구 종로 26,126.98007317237771,37.56967700335412,http://place.map.kakao.com/8649082,,unknown,unknown,,1,5.0
1260303800,우리은행 365코너 서울글로벌센터,"금융,보험 > 금융서비스 > 은행 > ATM",BK9,은행,,서울 종로구 서린동 63,서울 종로구 종로 38,126.981481277421,37.5698358078284,http://place.map.kakao.com/1260303800,,unknown,unknown,,0,0
38300968,KB국민은행 서린동지점,"금융,보험 > 금융서비스 > 은행 > KB국민은행",BK9,은행,02-399-5114,서울 종로구 서린동 33,서울 종로구 청계천로 41,126.982391445097,37.5695007767806,http://place.map.kakao.com/38300968,,unknown,unknown,,7,2.1
21174400,SBI저축은행 종로지점,"금융,보험 > 금융서비스 > 은행 > 저축은행 > SBI저축은행",BK9,은행,1566-2210,서울 종로구 서린동 33,서울 종로구 청계천로 41,126.982020121715,37.5696881278704,http://place.map.kakao.com/21174400,,unknown,unknown,,2,5.0
9997190,중국은행 서울지점,"금융,보험 > 금융서비스 > 은행 > 외국은행",BK9,은행,1670-5566,서울 종로구 서린동 33,서울 종로구 청계천로 41,126.982124291166,37.5695620043242,http://place.map.kakao.com/9997190,,unknown,unknown,,6,3.3
862019892,OSB저축은행 종로지점,"금융,보험 > 금융서비스 > 은행 > 저축은행 > OSB저축은행",BK9,은행,1644-0052,서울 종로구 서린동 33,서울 종로구 청계천로 41,126.98217859972304,37.56966652800899,http://place.map.kakao.com/862019892,,unknown,unknown,,0,0
1942151885,하나은행365 중국은행서울객장,"금융,보험 > 금융서비스 > 은행 > ATM",BK9,은행,,서울 종로구 서린동 33,서울 종로구 청계천로 41,126.98219898294695,37.56963229325666,http://place.map.kakao.com/1942151885,,unknown,unknown,,0,0
11068193,미쓰비시 도쿄유에프제이은행 서울지점,"금융,보험 > 금융서비스 > 은행 > 외국은행",BK9,은행,02-399-6400,서울 종로구 서린동 33,서울 종로구 청계천로 41,126.982192177959,37.5696881539489,http://place.map.kakao.com/11068193,,unknown,unknown,,1,4.0
1948175152,우리은행 365코너 중국은행서울지점,"금융,보험 > 금융서비스 > 은행 > ATM",BK9,은행,,서울 종로구 서린동 33,서울 종로구 청계천로 41,126.982178599723,37.569666528009,http://place.map.kakao.com/1948175152,,unknown,unknown,,0,0
1959328929,중국광대은행 서울지점,"금융,보험 > 금융서비스 > 은행 > 외국은행",BK9,은행,,서울 종로구 서린동 33,서울 종로구 청계천로 41,126.982178610886,37.5696196762466,http://place.map.kakao.com/1959328929,,unknown,unknown,,0,0
2118279672,하나은행365 구.종로,"금융,보험 > 금융서비스 > 은행 > ATM",BK9,은행,,서울 종로구 종로2가 84-8,서울 종로구 종로 68,126.984864660649,37.5699299935972,http://place.map.kakao.com/2118279672,,unknown,unknown,,0,0
1069409234,CU ATM 종로중앙점,"금융,보험 > 금융서비스 > 은행 > ATM",BK9,은행,,서울 종로구 관철동 14-10,서울 종로구 종로12길 7,126.985900440806,37.5696994670118,http://place.map.kakao.com/1069409234,,unknown,unknown,,0,0
26576563,신한은행 365코너 종로2가,"금융,보험 > 금융서비스 > 은행 > ATM",BK9,은행,,서울 종로구 종로2가 75-7,서울 종로구 종로 80-1,126.986339587059,37.5699734212551,http://place.map.kakao.com/26576563,,unknown,unknown,,0,0
1133412885,롯데ATM 세븐일레븐 종로삼일대로(CD),"금융,보험 > 금융서비스 > 은행 > ATM",BK9,은행,,서울 종로구 관철동 6-2,,126.987421768369,37.569771718538,http://place.map.kakao.com/1133412885,,unknown,unknown,,0,0
11971203,IBK기업은행 종로지점,"금융,보험 > 금융서비스 > 은행 > 기업은행",BK9,은행,02-2273-9212,서울 종로구 종로2가 48-1,서울 종로구 종로 104,126.989097025876,37.5699701041355,http://place.map.kakao.com/11971203,,unknown,unknown,,1,5.0
530512695,IBK기업은행365 종로점365,"금융,보험 > 금융서비스 > 은행 > ATM",BK9,은행,,서울 종로구 종로2가 48-1,서울 종로구 종로 104,126.989101555264,37.5699592926086,http://place.map.kakao.com/530512695,,unknown,unknown,,0,0
981143745,CU ATM 종로2가점,"금융,보험 > 금융서비스 > 은행 > ATM",BK9,은행,,서울 종로구 관수동 4-4,서울 종로구 종로16길 11,126.988716749923,37.5695700264236,http://place.map.kakao.com/981143745,,unknown,unknown,,0,0
105127021,롯데ATM 세븐일레븐 종로관수(CD),"금융,보험 > 금융서비스 > 은행 > ATM",BK9,은행,,서울 종로구 관수동 3-2,서울 종로구 삼일대로20길 19,126.988988388604,37.5697646670933,http://place.map.kakao.com/105127021,,unknown,unknown,,0,0
710567603,우리은행 365코너 서울역사박물관,"금융,보험 > 금융서비스 > 은행 > ATM",BK9,은행,,서울 종로구 신문로2가 2-1,서울 종로구 새문안로 55,126.970550881869,37.570532759658,http://place.map.kakao.com/710567603,,unknown,unknown,,0,0
1937115789,우리은행 365코너 금호빌딩2층,"금융,보험 > 금융서비스 > 은행 > ATM",BK9,은행,,서울 종로구 신문로1가 57,서울 종로구 새문안로 75,126.972986829556,37.5706270456852,http://place.map.kakao.com/1937115789,,unknown,unknown,,0,0
49700028,우리은행 365코너 현대해상빌딩,"금융,보험 > 금융서비스 > 은행 > ATM",BK9,은행,,서울 종로구 세종로 191-1,서울 종로구 세종대로 163,126.976305630145,37.5709917605231,http://place.map.kakao.com/49700028,,unknown,unknown,,0,0
1935793387,하나은행365 현대해상화재보험빌딩,"금융,보험 > 금융서비스 > 은행 > ATM",BK9,은행,,서울 종로구 세종로 178,서울 종로구 세종대로 163,126.9761278966868,37.57103677447944,http://place.map.kakao.com/1935793387,,unknown,unknown,,0,0
8606904,SC제일은행 광화문지점,"금융,보험 > 금융서비스 > 은행 > SC제일은행",BK9,은행,02-735-6725,서울 종로구 세종로 119,서울 종로구 종로 1,126.977926618852,37.570959638905805,http://place.map.kakao.com/8606904,,unknown,unknown,,4,1.8
654195569,SC제일은행 365코너 광화문,"금융,보험 > 금융서비스 > 은행 > ATM",BK9,은행,,서울 종로구 종로1가 1,서울 종로구 종로 1,126.977876902863,37.5706532912052,http://place.map.kakao.com/654195569,,unknown,unknown,,0,0
8655556,호주뉴질랜드은행 서울지점,"금융,보험 > 금융서비스 > 은행 > 외국은행",BK9,은행,02-3700-3100,서울 종로구 종로1가 1,서울 종로구 종로 1,126.97805350028074,37.57061548236376,http://place.map.kakao.com/8655556,,unknown,unknown,,0,0
10041056,파키스탄국립은행 서울지점,"금융,보험 > 금융서비스 > 은행 > 외국은행",BK9,은행,02-732-0277,서울 종로구 종로1가 1,서울 종로구 종로 1,126.977867750108,37.5709812517703,http://place.map.kakao.com/10041056,,unknown,unknown,,1,5.0
9458500,크레디아그리콜 코퍼레이트 앤 인베스트먼트뱅크 서울지점,"금융,보험 > 금융서비스 > 은행 > 외국은행",BK9,은행,02-3700-9500,서울 종로구 세종로 119,서울 종로구 종로 1,126.97791304161942,37.57093801248028,http://place.map.kakao.com/9458500,,unknown,unknown,,0,0
26515252,우리은행 광화문D타워출장소,"금융,보험 > 금융서비스 > 은행 > 우리은행",BK9,은행,02-2251-8399,서울 종로구 청진동 246,서울 종로구 종로3길 17,126.97901669537444,37.57099137252323,http://place.map.kakao.com/26515252,,unknown,unknown,,3,3.7
8012774,웰스파고은행 서울지점,"금융,보험 > 금융서비스 > 은행 > 외국은행",BK9,은행,02-3706-3114,서울 종로구 청진동 246,서울 종로구 종로3길 17,126.97893632027,37.5710102791102,http://place.map.kakao.com/8012774,,unknown,unknown,,0,0
8187369,NH농협은행 종로1가지점,"금융,보험 > 금융서비스 > 은행 > NH농협은행",BK9,은행,02-734-1991,서울 종로구 종로1가 94,서울 종로구 종로5길 7,126.980430658866,37.5704771470623,http://place.map.kakao.com/8187369,,unknown,unknown,,1,5.0
846750845,NH농협은행 광화문대기업금융센터,"금융,보험 > 금융서비스 > 은행 > NH농협은행",BK9,은행,02-775-5011,서울 종로구 청진동 128,서울 종로구 종로5길 7,126.980484956316,37.5706177113204,http://place.map.kakao.com/846750845,,unknown,unknown,,0,0
404501673,NH농협은행 종로대기업금융센터,"금융,보험 > 금융서비스 > 은행 > NH농협은행",BK9,은행,02-2287-2013,서울 종로구 청진동 128,서울 종로구 종로5길 7,126.980570981762,37.5706321414343,http://place.map.kakao.com/404501673,,unknown,unknown,,0,0
1530538322,NH농협은행 365코너 종로1가지점,"금융,보험 > 금융서비스 > 은행 > ATM",BK9,은행,,서울 종로구 종로1가 94,서울 종로구 종로5길 7,126.980670642029,37.5704483547479,http://place.map.kakao.com/1530538322,,unknown,unknown,,0,0
1710691091,신한은행 종각역지점,"금융,보험 > 금융서비스 > 은행 > 신한은행",BK9,은행,02-755-8201,서울 종로구 청진동 70,서울 종로구 종로 33,126.981136830684,37.5711584144397,http://place.map.kakao.com/1710691091,,unknown,unknown,,2,4.5
364096104,신한은행 종각역기업금융센터,"금융,보험 > 금융서비스 > 은행 > 신한은행",BK9,은행,02-755-8202,서울 종로구 청진동 70,서울 종로구 종로 33,126.981253448561,37.57105932353955,http://place.map.kakao.com/364096104,,unknown,unknown,,0,0
1999314893,우리은행 365코너 그랑서울TOWER1,"금융,보험 > 금융서비스 > 은행 > ATM",BK9,은행,,서울 종로구 청진동 70,서울 종로구 종로 33,126.981372369559,37.5708016577181,http://place.map.kakao.com/1999314893,,unknown,unknown,,0,0
1279065333,신한은행 365코너 그랑서울,"금융,보험 > 금융서비스 > 은행 > ATM",BK9,은행,,서울 종로구 청진동 70,서울 종로구 종로 33,126.981490089545,37.5708196961397,http://place.map.kakao.com/1279065333,,unknown,unknown,,0,0
456690464,하나은행365 그랑서울1층로비,"금융,보험 > 금융서비스 > 은행 > ATM",BK9,은행,,서울 종로구 청진동 70,서울 종로구 종로 33,126.981390403895,37.5711116029318,http://place.map.kakao.com/456690464,,unknown,unknown,,0,0
1820709460,하나은행365 그랑서울 지하1층,"금융,보험 > 금융서비스 > 은행 > ATM",BK9,은행,,서울 종로구 청진동 70,서울 종로구 종로 33,126.981390403895,37.5711116029318,http://place.map.kakao.com/1820709460,,unknown,unknown,,0,0
27193164,SC제일은행 영업부지점,"금융,보험 > 금융서비스 > 은행 > SC제일은행",BK9,은행,02-3702-3114,서울 종로구 공평동 100,서울 종로구 종로 47,126.98240697869338,37.570834252262095,http://place.map.kakao.com/27193164,,unknown,unknown,,3,2.3
670413015,SC제일은행 본점,"금융,보험 > 금융서비스 > 은행 > SC제일은행",BK9,은행,02-3702-3114,서울 종로구 공평동 100,서울 종로구 종로 47,126.98240924262602,37.570834252599454,http://place.map.kakao.com/670413015,,unknown,unknown,,2,1.5
982644548,SC제일은행 365코너 종각역,"금융,보험 > 금융서비스 > 은행 > ATM",BK9,은행,,서울 종로구 공평동 100,서울 종로구 종로 47,126.982440869149,37.5711261797712,http://place.map.kakao.com/982644548,,unknown,unknown,,0,0
1059402348,SC제일은행 365코너 영업부,"금융,보험 > 금융서비스 > 은행 > ATM",BK9,은행,,서울 종로구 공평동 100,서울 종로구 종로 47,126.982477098967,37.5710973533068,http://place.map.kakao.com/1059402348,,unknown,unknown,,0,0
12373399,우리은행 종로YMCA지점,"금융,보험 > 금융서비스 > 은행 > 우리은행",BK9,은행,02-734-2661,서울 종로구 종로2가 9,서울 종로구 종로 69,126.985547131298,37.5704310325533,http://place.map.kakao.com/12373399,,unknown,unknown,,3,4.7
847055084,롯데ATM 세븐일레븐 탑골공원,"금융,보험 > 금융서비스 > 은행 > ATM",BK9,은행,,서울 종로구 낙원동 178,서울 종로구 수표로 110,126.989463637091,37.5709756482264,http://place.map.kakao.com/847055084,,unknown,unknown,,0,0
8218104,KB국민은행 종로3가지점,"금융,보험 > 금융서비스 > 은행 > KB국민은행",BK9,은행,02-766-2011,서울 종로구 종로3가 16,서울 종로구 종로 123,126.991188800389,37.5706081835102,http://place.map.kakao.com/8218104,,unknown,unknown,,1,5.0
6707293,하나은행365 피카디리빌딩,"금융,보험 > 금융서비스 > 은행 > ATM",BK9,은행,,서울 종로구 돈의동 137,서울 종로구 돈화문로5가길 1,126.99141967989782,37.57096499465349,http://place.map.kakao.com/6707293,,unknown,unknown,,0,0
25641927,KB국민은행ATM 종로3가점,"금융,보험 > 금융서비스 > 은행 > ATM",BK9,은행,,서울 종로구 종로3가 16,서울 종로구 종로 123,126.991197856941,37.5706009762232,http://place.map.kakao.com/25641927,,unknown,unknown,,0,0
20549493,우리은행 365코너 종로3가지점,"금융,보험 > 금융서비스 > 은행 > ATM",BK9,은행,,서울 종로구 돈의동 137,서울 종로구 돈화문로5가길 1,126.991229500765,37.5710370602991,http://place.map.kakao.com/20549493,,unknown,unknown,,0,0
1009904264,교남동새마을금고 경희궁지점,"금융,보험 > 금융서비스 > 은행 > 새마을금고",BK9,은행,02-737-1898,서울 종로구 신문로1가 238,서울 종로구 새문안로3길 12,126.97294130558434,37.571305484679286,http://place.map.kakao.com/1009904264,,unknown,unknown,,0,0
8836292,KB국민은행 광화문역지점,"금융,보험 > 금융서비스 > 은행 > KB국민은행",BK9,은행,02-739-0883,서울 종로구 당주동 160,서울 종로구 새문안로5길 13,126.974421907364,37.5713625774508,http://place.map.kakao.com/8836292,,unknown,unknown,,2,4.0
1600350486,하나은행 광화문역지점,"금융,보험 > 금융서비스 > 은행 > 하나은행",BK9,은행,02-739-3101,서울 종로구 당주동 5,서울 종로구 새문안로5길 19,126.974294897098,37.5720292862647,http://place.map.kakao.com/1600350486,,unknown,unknown,,3,2.3
396218699,KB국민은행 중부카드지원팀,"금융,보험 > 금융서비스 > 은행 > KB국민은행",BK9,은행,02-6363-7551,서울 종로구 당주동 160,서울 종로구 새문안로5길 13,126.974394728877,37.5713950073857,http://place.map.kakao.com/396218699,,unknown,unknown,,0,0
1577040424,KB희망금융플라자 중부,"금융,보험 > 금융서비스 > 은행 > KB국민은행",BK9,은행,02-6363-7575,서울 종로구 당주동 160,서울 종로구 새문안로5길 13,126.974426434029,37.5713661824122,http://place.map.kakao.com/1577040424,,unknown,unknown,,0,0
25647121,KB국민은행ATM 광화문역점,"금융,보험 > 금융서비스 > 은행 > ATM",BK9,은행,,서울 종로구 당주동 160,서울 종로구 새문안로5길 13,126.974458118233,37.5713986250981,http://place.map.kakao.com/25647121,,unknown,unknown,,0,0
2109994099,우리은행 365코너 세종문화회관점,"금융,보험 > 금융서비스 > 은행 > ATM",BK9,은행,,서울 종로구 세종로 81-3,서울 종로구 세종대로 175,126.97616952060991,37.57184948053931,http://place.map.kakao.com/2109994099,,unknown,unknown,,0,0
963546947,신한은행 365코너 KT청진동사옥,"금융,보험 > 금융서비스 > 은행 > ATM",BK9,은행,,서울 종로구 청진동 244,서울 종로구 종로3길 33,126.9789020778146,37.57201488261194,http://place.map.kakao.com/963546947,,unknown,unknown,,0,0
1452244948,KB국민은행ATM 라이나생명보험본사 지하1층,"금융,보험 > 금융서비스 > 은행 > ATM",BK9,은행,,서울 종로구 청진동 188,서울 종로구 삼봉로 48,126.980022713986,37.572120493991,http://place.map.kakao.com/1452244948,,unknown,unknown,,0,0
1367036901,하나은행365 종각역 입점건물 1층,"금융,보험 > 금융서비스 > 은행 > ATM",BK9,은행,,서울 종로구 공평동 144,서울 종로구 삼봉로 94,126.98222449485652,37.57183252761239,http://place.map.kakao.com/1367036901,,unknown,unknown,,0,0
61498895,하나은행 종로금융센터,"금융,보험 > 금융서비스 > 은행 > 하나은행",BK9,은행,02-732-5221,서울 종로구 공평동 17,서울 종로구 우정국로 26,126.98348331869768,37.57155880791644,http://place.map.kakao.com/61498895,,unknown,unknown,,4,3.3
7833541,도이치은행 서울지점,"금융,보험 > 금융서비스 > 은행 > 외국은행",BK9,은행,02-724-4500,서울 종로구 공평동 17,서울 종로구 우정국로 26,126.98365426184044,37.57149215806572,http://place.map.kakao.com/7833541,,unknown,unknown,,0,0
297447411,하나은행365 종로금융센터,"금융,보험 > 금융서비스 > 은행 > ATM",BK9,은행,,서울 종로구 공평동 17,서울 종로구 우정국로 26,126.983481071857,37.5714813220169,http://place.map.kakao.com/297447411,,unknown,unknown,,0,0
1047519556,하나은행365 종로금융센터입점건물1층,"금융,보험 > 금융서비스 > 은행 > ATM",BK9,은행,,서울 종로구 공평동 17,서울 종로구 우정국로 26,126.983565965908,37.571500254764,http://place.map.kakao.com/1047519556,,unknown,unknown,,0,0
9667459,KB국민은행 종로중앙종합금융센터,"금융,보험 > 금융서비스 > 은행 > KB국민은행",BK9,은행,02-735-4671,서울 종로구 인사동 194-27,서울 종로구 인사동5길 29,126.984967228656,37.5721176231793,http://place.map.kakao.com/9667459,,unknown,unknown,,3,5.0
25639268,KB국민은행ATM 종로중앙종합금융센터점,"금융,보험 > 금융서비스 > 은행 > ATM",BK9,은행,,서울 종로구 인사동 194-27,서울 종로구 인사동5길 29,126.984736331511,37.5719806422969,http://place.map.kakao.com/25639268,,unknown,unknown,,0,0
1873921441,IBK기업은행365 인사동점365,"금융,보험 > 금융서비스 > 은행 > ATM",BK9,은행,,서울 종로구 인사동 194-4,서울 종로구 인사동5길 25,126.985392859525,37.5720960527287,http://place.map.kakao.com/1873921441,,unknown,unknown,,0,0
9176056,신한은행 경희궁지점,"금융,보험 > 금융서비스 > 은행 > 신한은행",BK9,은행,02-739-3900,서울 종로구 내수동 73,서울 종로구 새문안로3길 23,126.972487914683,37.5729406859367,http://place.map.kakao.com/9176056,,unknown,unknown,,1,1.0
339405192,신한은행 세종로기업금융센터,"금융,보험 > 금융서비스 > 은행 > 신한은행",BK9,은행,02-736-4300,서울 종로구 내수동 73,서울 종로구 새문안로3길 23,126.97240768940966,37.572543328430406,http://place.map.kakao.com/339405192,,unknown,unknown,,0,0
616625838,KB국민은행ATM 광화문점(사옥),"금융,보험 > 금융서비스 > 은행 > ATM",BK9,은행,,서울 종로구 내수동 167,서울 종로구 새문안로3길 30,126.97308573161,37.5726020496344,http://place.map.kakao.com/616625838,,unknown,unknown,,0,0
576639740,KB국민은행 광화문종합금융센터,"금융,보험 > 금융서비스 > 은행 > KB국민은행",BK9,은행,02-732-9301,서울 종로구 내수동 167,서울 종로구 새문안로3길 30,126.973289509658,37.5725480362164,http://place.map.kakao.com/576639740,,unknown,unknown,,2,5.0
18385738,하나은행365 세종문화회관 세종홀,"금융,보험 > 금융서비스 > 은행 > ATM",BK9,은행,,서울 종로구 세종로 81-3,서울 종로구 세종대로 175,126.975788923944,37.5726242588467,http://place.map.kakao.com/18385738,,unknown,unknown,,0,0
1557298224,KB국민은행ATM 세종문화회관점,"금융,보험 > 금융서비스 > 은행 > ATM",BK9,은행,,서울 종로구 세종로 81-4,서울 종로구 세종대로 175,126.97588396955,37.5727540215789,http://place.map.kakao.com/1557298224,,unknown,unknown,,0,0
186893155,KB국민은행ATM KT 광화문사옥,"금융,보험 > 금융서비스 > 은행 > ATM",BK9,은행,,서울 종로구 세종로 100,서울 종로구 세종대로 178,126.977867400298,37.5721633573557,http://place.map.kakao.com/186893155,,unknown,unknown,,0,0
797405924,KB국민은행ATM KT프라자,"금융,보험 > 금융서비스 > 은행 > ATM",BK9,은행,,서울 종로구 세종로 100,서울 종로구 세종대로 178,126.977867398165,37.5721705653159,http://place.map.kakao.com/797405924,,unknown,unknown,,0,0
26516062,KB국민은행 KT광화문지점,"금융,보험 > 금융서비스 > 은행 > KB국민은행",BK9,은행,02-739-6608,서울 종로구 청진동 244,서울 종로구 종로3길 33,126.979017494447,37.5721779832919,http://place.map.kakao.com/26516062,,unknown,unknown,,0,0
986685986,신한은행 365코너 석탄회관,"금융,보험 > 금융서비스 > 은행 > ATM",BK9,은행,,서울 종로구 수송동 80-6,서울 종로구 종로5길 58,126.98033493453,37.5729098180501,http://place.map.kakao.com/986685986,,unknown,unknown,,0,0
70007729,하나은행365 두산위브파빌리온,"금융,보험 > 금융서비스 > 은행 > ATM",BK9,은행,,서울 종로구 수송동 58,서울 종로구 삼봉로 81,126.981815692711,37.5724775778266,http://place.map.kakao.com/70007729,,unknown,unknown,,0,0
835848562,롯데ATM 세븐일레븐 종로두산,"금융,보험 > 금융서비스 > 은행 > ATM",BK9,은행,,서울 종로구 수송동 58,서울 종로구 삼봉로 81,126.981503231279,37.5726063715711,http://place.map.kakao.com/835848562,,unknown,unknown,,0,0
1329490876,NH농협은행 종로금융센터,"금융,보험 > 금융서비스 > 은행 > NH농협은행",BK9,은행,02-733-7001,서울 종로구 견지동 111,서울 종로구 우정국로 38,126.983427680915,37.5723300519347,http://place.map.kakao.com/1329490876,,unknown,unknown,,0,0
924070639,NH농협은행 서울중앙사업부,"금융,보험 > 금융서비스 > 은행 > NH농협은행",BK9,은행,,서울 종로구 견지동 111,서울 종로구 우정국로 38,126.98346163859208,37.57233906664731,http://place.map.kakao.com/924070639,,unknown,unknown,,0,0
1360507176,우리은행 365코너 인사동 대일빌딩,"금융,보험 > 금융서비스 > 은행 > ATM",BK9,은행,,서울 종로구 관훈동 198-1,,126.984867519842,37.5725825238869,http://place.map.kakao.com/1360507176,,unknown,unknown,,0,0
8232687,IBK기업은행 인사동지점,"금융,보험 > 금융서비스 > 은행 > 기업은행",BK9,은행,02-739-5583,서울 종로구 인사동 194-4,서울 종로구 인사동5길 25,126.985451712251,37.5721501197012,http://place.map.kakao.com/8232687,,unknown,unknown,,0,0
18956405,인사동길새마을금고 본점,"금융,보험 > 금융서비스 > 은행 > 새마을금고",BK9,은행,02-732-1170,서울 종로구 인사동 23-2,서울 종로구 인사동길 22-2,126.986601697301,37.5727809523417,http://place.map.kakao.com/18956405,,unknown,unknown,,0,0
1391910278,하나은행365 실버극장,"금융,보험 > 금융서비스 > 은행 > ATM",BK9,은행,,서울 종로구 낙원동 288,서울 종로구 삼일대로 428,126.987643226932,37.5722152410742,http://place.map.kakao.com/1391910278,,unknown,unknown,,0,0
605033546,SC제일은행 365코너 낙원,"금융,보험 > 금융서비스 > 은행 > ATM",BK9,은행,,서울 종로구 낙원동 251,서울 종로구 삼일대로 428,126.988344983207,37.5727018497618,http://place.map.kakao.com/605033546,,unknown,unknown,,0,0
1035339561,CU ATM 종로3가점,"금융,보험 > 금융서비스 > 은행 > ATM",BK9,은행,,서울 종로구 낙원동 110,서울 종로구 돈화문로11길 38,126.989313974721,37.5726731096098,http://place.map.kakao.com/1035339561,,unknown,unknown,,0,0
8062841,SC제일은행 낙원지점,"금융,보험 > 금융서비스 > 은행 > SC제일은행",BK9,은행,02-743-8650,서울 종로구 돈의동 41-1,서울 종로구 돈화문로11길 23,126.9900950972468,37.57232178966845,http://place.map.kakao.com/8062841,,unknown,unknown,,1,4.0
984383962,CU ATM 종로묘동점,"금융,보험 > 금융서비스 > 은행 > ATM",BK9,은행,,서울 종로구 묘동 179,서울 종로구 돈화문로 41,126.991460291672,37.5721831430753,http://place.map.kakao.com/984383962,,unknown,unknown,,0,0
34803558,롯데ATM 세븐일레븐 종로3가역,"금융,보험 > 금융서비스 > 은행 > ATM",BK9,은행,,서울 종로구 돈의동 62,서울 종로구 돈화문로11길 9,126.990867104636,37.5723957335111,http://place.map.kakao.com/34803558,,unknown,unknown,,0,0
54435618,우체국365코너,"금융,보험 > 금융서비스 > 은행 > ATM",BK9,은행,,서울 종로구 사직동 304-1,서울 종로구 송월1길 73-10,126.965190872687,37.5733306926403,http://place.map.kakao.com/54435618,,unknown,unknown,,0,0
8026185,우리은행 광화문지점,"금융,보험 > 금융서비스 > 은행 > 우리은행",BK9,은행,02-735-6905,서울 종로구 도렴동 60,서울 종로구 새문안로5길 37,126.97422301566128,37.573672685396616,http://place.map.kakao.com/8026185,,unknown,unknown,,0,0
18704505,NH농협은행 정부서울청사지점 별관출장소,"금융,보험 > 금융서비스 > 은행 > NH농협은행",BK9,은행,02-2100-4713,서울 종로구 도렴동 95-1,서울 종로구 사직로8길 60,126.974851376522,37.5733881065532,http://place.map.kakao.com/18704505,,unknown,unknown,,1,5.0
8521008,우리은행 종로구청지점,"금융,보험 > 금융서비스 > 은행 > 우리은행",BK9,은행,02-732-5038,서울 종로구 수송동 146-12,서울 종로구 종로1길 36,126.97898995418838,37.57350424298736,http://place.map.kakao.com/8521008,,unknown,unknown,,0,0
544728561,우리은행 365코너 종로구청지점,"금융,보험 > 금융서비스 > 은행 > ATM",BK9,은행,,서울 종로구 수송동 146-12,서울 종로구 종로1길 36,126.9788643360738,37.57338168526094,http://place.map.kakao.com/544728561,,unknown,unknown,,0,0
8201338,KB국민은행 세종로지점,"금융,보험 > 금융서비스 > 은행 > KB국민은행",BK9,은행,02-739-4271,서울 종로구 수송동 80,서울 종로구 종로5길 68,126.98017632875,37.5733855168429,http://place.map.kakao.com/8201338,,unknown,unknown,,3,1.0
25627711,KB국민은행ATM 세종로점,"금융,보험 > 금융서비스 > 은행 > ATM",BK9,은행,,서울 종로구 수송동 80,서울 종로구 종로5길 68,126.980447999567,37.5734252059246,http://place.map.kakao.com/25627711,,unknown,unknown,,0,0
7987581,신한은행 종로지점,"금융,보험 > 금융서비스 > 은행 > 신한은행",BK9,은행,02-739-5500,서울 종로구 견지동 68-5,서울 종로구 우정국로 48,126.983287087169,37.573346354446,http://place.map.kakao.com/7987581,,unknown,unknown,,0,0
1402241832,NH농협은행 365코너 종로지점,"금융,보험 > 금융서비스 > 은행 > ATM",BK9,은행,,서울 종로구 견지동 65-1,서울 종로구 우정국로 46,126.983336950766,37.573097686898,http://place.map.kakao.com/1402241832,,unknown,unknown,,0,0
1957441863,하나은행365 구.인사동,"금융,보험 > 금융서비스 > 은행 > ATM",BK9,은행,,서울 종로구 관훈동 192-18,서울 종로구 인사동7길 32,126.98432406207684,37.57306538628238,http://place.map.kakao.com/1957441863,,unknown,unknown,,0,0
1146578849,롯데ATM 세븐일레븐 낙원(CD),"금융,보험 > 금융서비스 > 은행 > ATM",BK9,은행,,서울 종로구 경운동 47-1,서울 종로구 인사동4길 17,126.986932107833,37.5735378251193,http://place.map.kakao.com/1146578849,,unknown,unknown,,0,0
602435228,서서울농협사직지점 365코너,"금융,보험 > 금융서비스 > 은행 > ATM",BK9,은행,,서울 종로구 사직동 9,서울 종로구 사직로8길 4,126.969897256023,37.5745474285126,http://place.map.kakao.com/602435228,,unknown,unknown,,0,0
451290158,하나은행 내자동지점,"금융,보험 > 금융서비스 > 은행 > 하나은행",BK9,은행,02-738-0107,서울 종로구 내자동 223,서울 종로구 사직로8길 39,126.973030757824,37.5743715909925,http://place.map.kakao.com/451290158,,unknown,unknown,,1,5.0
226168878,하나은행365 쌍용풀래티넘,"금융,보험 > 금융서비스 > 은행 > ATM",BK9,은행,,서울 종로구 적선동 156,서울 종로구 새문안로5가길 28,126.973601233461,37.5745483149039,http://place.map.kakao.com/226168878,,unknown,unknown,,0,0
360597159,롯데ATM 세븐일레븐 세종로(CD),"금융,보험 > 금융서비스 > 은행 > ATM",BK9,은행,,서울 종로구 수송동 135,서울 종로구 종로1길 42-1,126.978686370968,37.574224984417,http://place.map.kakao.com/360597159,,unknown,unknown,,0,0
1629596643,하나은행365 이마빌딩지하1층(구 세종로),"금융,보험 > 금융서비스 > 은행 > ATM",BK9,은행,,서울 종로구 수송동 146-1,서울 종로구 종로1길 42,126.978985313751,37.5739042838687,http://place.map.kakao.com/1629596643,,unknown,unknown,,0,0
868143147,신한은행 365코너 연합뉴스,"금융,보험 > 금융서비스 > 은행 > ATM",BK9,은행,,서울 종로구 수송동 110,서울 종로구 율곡로2길 25,126.980515670135,37.5743838755884,http://place.map.kakao.com/868143147,,unknown,unknown,,0,0
2132732454,KB국민은행ATM 연합뉴스,"금융,보험 > 금융서비스 > 은행 > ATM",BK9,은행,,서울 종로구 수송동 85-1,,126.980515670135,37.5743838755884,http://place.map.kakao.com/2132732454,,unknown,unknown,,0,0
1685797117,신한은행 365코너 국세청연금매점,"금융,보험 > 금융서비스 > 은행 > ATM",BK9,은행,,서울 종로구 수송동 104,서울 종로구 종로5길 86,126.979863645035,37.5743152905718,http://place.map.kakao.com/1685797117,,unknown,unknown,,0,0
1397882575,하나은행365 연합뉴스,"금융,보험 > 금융서비스 > 은행 > ATM",BK9,은행,,서울 종로구 수송동 110,서울 종로구 율곡로2길 25,126.980493026914,37.5743946837858,http://place.map.kakao.com/1397882575,,unknown,unknown,,0,0
751560330,하나은행365 에스케이건설(1층),"금융,보험 > 금융서비스 > 은행 > ATM",BK9,은행,,서울 종로구 수송동 85-7,서울 종로구 율곡로2길 19,126.980977479306,37.5746001896386,http://place.map.kakao.com/751560330,,unknown,unknown,,0,0
1800549925,롯데ATM 세븐일레븐 종로이비스,"금융,보험 > 금융서비스 > 은행 > ATM",BK9,은행,,서울 종로구 익선동 132-2,서울 종로구 삼일대로30길 32,126.98937715856,37.5741363310199,http://place.map.kakao.com/1800549925,,unknown,unknown,,0,0
975900332,CU ATM 종로글로벌점,"금융,보험 > 금융서비스 > 은행 > ATM",BK9,은행,,서울 종로구 익선동 50,서울 종로구 삼일대로32가길 37,126.989716691107,37.5746625420134,http://place.map.kakao.com/975900332,,unknown,unknown,,0,0
1185487969,신한은행 365코너 서울특별시경찰청,"금융,보험 > 금융서비스 > 은행 > ATM",BK9,은행,,서울 종로구 내자동 201-11,서울 종로구 사직로8길 31,126.971921155165,37.5749659887732,http://place.map.kakao.com/1185487969,,unknown,unknown,,0,0
716237091,KB국민은행ATM 서울경찰청로비,"금융,보험 > 금융서비스 > 은행 > ATM",BK9,은행,,서울 종로구 내자동 201-11,서울 종로구 사직로8길 31,126.972052470503,37.5749660199338,http://place.map.kakao.com/716237091,,unknown,unknown,,0,0
1259682858,하나은행365 시경민원실,"금융,보험 > 금융서비스 > 은행 > ATM",BK9,은행,,서울 종로구 내자동 201-11,서울 종로구 사직로8길 31,126.972052470503,37.5749660199338,http://place.map.kakao.com/1259682858,,unknown,unknown,,0,0
10862579,하나은행 경복궁역지점,"금융,보험 > 금융서비스 > 은행 > 하나은행",BK9,은행,02-735-1111,서울 종로구 적선동 80,서울 종로구 사직로 130,126.973161662111,37.5755140820249,http://place.map.kakao.com/10862579,,unknown,unknown,,1,5.0
568712218,하나은행365 김앤장법률사무소 노스게이트빌딩2층,"금융,보험 > 금융서비스 > 은행 > ATM",BK9,은행,,서울 종로구 적선동 66,서울 종로구 새문안로5길 55,126.97397799284585,37.575134946073405,http://place.map.kakao.com/568712218,,unknown,unknown,,0,0
557149483,한국씨티은행 365코너 노스게이트빌딩,"금융,보험 > 금융서비스 > 은행 > ATM",BK9,은행,,서울 종로구 적선동 66,서울 종로구 새문안로5길 55,126.973963281144,37.5751214279104,http://place.map.kakao.com/557149483,,unknown,unknown,,1,1.0
1737643747,NH농협은행 정부서울청사지점,"금융,보험 > 금융서비스 > 은행 > NH농협은행",BK9,은행,02-730-9972,서울 종로구 세종로 77-6,서울 종로구 세종대로 209,126.97514404623792,37.57495139444386,http://place.map.kakao.com/1737643747,,unknown,unknown,,1,5.0
937966629,NH농협은행 365코너 정부서울청사지점,"금융,보험 > 금융서비스 > 은행 > ATM",BK9,은행,,서울 종로구 세종로 77-6,서울 종로구 세종대로 209,126.975140643862,37.5749703146148,http://place.map.kakao.com/937966629,,unknown,unknown,,0,0
2012779713,NH농협은행 365코너 정부중앙청사지점,"금융,보험 > 금융서비스 > 은행 > ATM",BK9,은행,,서울 종로구 세종로 77-6,서울 종로구 세종대로 209,126.975163286834,37.5749631114237,http://place.map.kakao.com/2012779713,,unknown,unknown,,0,0
19374677,KDB산업은행 종로지점,"금융,보험 > 금융서비스 > 은행 > KDB산업은행",BK9,은행,02-398-6700,서울 종로구 중학동 14,서울 종로구 율곡로 6,126.979759205678,37.575400070283,http://place.map.kakao.com/19374677,,unknown,unknown,,1,5.0
387684330,롯데ATM 세븐일레븐 종로허브,"금융,보험 > 금융서비스 > 은행 > ATM",BK9,은행,,서울 종로구 경운동 89-4,서울 종로구 삼일대로 461,126.985967242712,37.5756424380118,http://place.map.kakao.com/387684330,,unknown,unknown,,0,0
985425694,우리은행 365코너 재동지점,"금융,보험 > 금융서비스 > 은행 > ATM",BK9,은행,,서울 종로구 경운동 88,서울 종로구 삼일대로 457,126.986252572885,37.5753361334298,http://place.map.kakao.com/985425694,,unknown,unknown,,0,0
17151293,사직동새마을금고 본점,"금융,보험 > 금융서비스 > 은행 > 새마을금고",BK9,은행,02-735-8047,서울 종로구 필운동 227,서울 종로구 사직로 97,126.969602210899,37.5763169062143,http://place.map.kakao.com/17151293,,unknown,unknown,,1,2.0
1963253849,CU ATM 종로사직공원점,"금융,보험 > 금융서비스 > 은행 > ATM",BK9,은행,,서울 종로구 필운동 142,서울 종로구 사직로 95,126.969339571052,37.5763276502256,http://place.map.kakao.com/1963253849,,unknown,unknown,,0,0
23294471,신한은행 365코너 경복궁역,"금융,보험 > 금융서비스 > 은행 > ATM",BK9,은행,,서울 종로구 내자동 67-1,서울 종로구 자하문로 1,126.97231912236,37.5763355944409,http://place.map.kakao.com/23294471,,unknown,unknown,,1,3.0
989888350,CU ATM 내자중앙점,"금융,보험 > 금융서비스 > 은행 > ATM",BK9,은행,,서울 종로구 내자동 61-1,서울 종로구 사직로 121,126.972183311275,37.5762418590966,http://place.map.kakao.com/989888350,,unknown,unknown,,0,0
1269419309,KB국민은행ATM 종로경찰서 현관,"금융,보험 > 금융서비스 > 은행 > ATM",BK9,은행,,서울 종로구 경운동 90-18,서울 종로구 율곡로 46,126.984803497714,37.5756855416788,http://place.map.kakao.com/1269419309,,unknown,unknown,,0,0
2143483220,롯데ATM 세븐일레븐 종로호스텔,"금융,보험 > 금융서비스 > 은행 > ATM",BK9,은행,,서울 종로구 와룡동 140,서울 종로구 돈화문로 85,126.990296101888,37.5760933704762,http://place.map.kakao.com/2143483220,,unknown,unknown,,0,0
1084915820,롯데ATM 세븐일레븐 종로배화,"금융,보험 > 금융서비스 > 은행 > ATM",BK9,은행,,서울 종로구 필운동 163,서울 종로구 필운대로 12,126.969416217284,37.5771421690046,http://place.map.kakao.com/1084915820,,unknown,unknown,,0,0
23285501,KB국민은행ATM 경복궁역 365자동화점,"금융,보험 > 금융서비스 > 은행 > ATM",BK9,은행,,서울 종로구 통의동 50,서울 종로구 자하문로 6,126.972645008917,37.5767285039617,http://place.map.kakao.com/23285501,,unknown,unknown,,0,0
8144278,하나은행 안국동지점,"금융,보험 > 금융서비스 > 은행 > 하나은행",BK9,은행,02-732-1111,서울 종로구 안국동 148,서울 종로구 율곡로 53,126.98511010593198,37.57656224837301,http://place.map.kakao.com/8144278,,unknown,unknown,,2,4.5
11190991,우리은행 재동지점,"금융,보험 > 금융서비스 > 은행 > 우리은행",BK9,은행,02-732-1136,서울 종로구 재동 111-5,서울 종로구 율곡로 57,126.985541354901,37.5768893629405,http://place.map.kakao.com/11190991,,unknown,unknown,,1,5.0
706315035,신한은행 365코너 안국역,"금융,보험 > 금융서비스 > 은행 > ATM",BK9,은행,,서울 종로구 재동 95-2,서울 종로구 율곡로 63,126.986234124634,37.5771597440592,http://place.map.kakao.com/706315035,,unknown,unknown,,0,0
1603328310,하나은행 계동지점,"금융,보험 > 금융서비스 > 은행 > 하나은행",BK9,은행,02-746-4300,서울 종로구 계동 140-2,서울 종로구 율곡로 75,126.98705812362,37.5779815440312,http://place.map.kakao.com/1603328310,,unknown,unknown,,1,5.0
17695921,신한은행 현대계동지점,"금융,보험 > 금융서비스 > 은행 > 신한은행",BK9,은행,02-742-0080,서울 종로구 계동 140-2,서울 종로구 율곡로 75,126.987637741016,37.578010437967,http://place.map.kakao.com/17695921,,unknown,unknown,,1,5.0
17695922,신한은행 현대계동대기업금융센터,"금융,보험 > 금융서비스 > 은행 > 신한은행",BK9,은행,02-746-4411,서울 종로구 계동 140-2,서울 종로구 율곡로 75,126.98764226872,37.5780140424178,http://place.map.kakao.com/17695922,,unknown,unknown,,0,0
18956419,현대건설새마을금고 본점,"금융,보험 > 금융서비스 > 은행 > 새마을금고",BK9,은행,02-746-3045,서울 종로구 계동 140-2,서울 종로구 율곡로 75,126.987547172017,37.5780284483314,http://place.map.kakao.com/18956419,,unknown,unknown,,0,0
221471732,하나은행365 현대건설 현대빌딩 별관,"금융,보험 > 금융서비스 > 은행 > ATM",BK9,은행,,서울 종로구 계동 140-2,서울 종로구 율곡로 75,126.987379619406,37.578060866328,http://place.map.kakao.com/221471732,,unknown,unknown,,0,0
8025037,우리은행 효자동지점,"금융,보험 > 금융서비스 > 은행 > 우리은행",BK9,은행,02-735-6814,서울 종로구 통인동 156-2,서울 종로구 자하문로 27,126.97133568277,37.5784761220967,http://place.map.kakao.com/8025037,,unknown,unknown,,0,0
1025366924,CU ATM 계동현대점,"금융,보험 > 금융서비스 > 은행 > ATM",BK9,은행,,서울 종로구 계동 142-1,서울 종로구 계동길 23,126.986546350063,37.5784031520813,http://place.map.kakao.com/1025366924,,unknown,unknown,,0,0
1046137041,CU ATM 창덕궁돌담길점,"금융,보험 > 금융서비스 > 은행 > ATM",BK9,은행,,서울 종로구 원서동 155,서울 종로구 창덕궁길 31,126.989082140289,37.5788899506537,http://place.map.kakao.com/1046137041,,unknown,unknown,,0,0
17617339,광화문새마을금고 본점,"금융,보험 > 금융서비스 > 은행 > 새마을금고",BK9,은행,02-735-2188,서울 종로구 통인동 147-1,서울 종로구 자하문로 37,126.97118592714118,37.57930860412055,http://place.map.kakao.com/17617339,,unknown,unknown,,0,0
19086610,삼청새마을금고 안국지점,"금융,보험 > 금융서비스 > 은행 > 새마을금고",BK9,은행,02-734-2670,서울 종로구 소격동 116-2,서울 종로구 북촌로5가길 11,126.982062904223,37.5800928207017,http://place.map.kakao.com/19086610,,unknown,unknown,,0,0
1705227595,롯데ATM 세븐일레븐 종로재동(CD),"금융,보험 > 금융서비스 > 은행 > ATM",BK9,은행,,서울 종로구 재동 12,,126.984739320175,37.5795237688919,http://place.map.kakao.com/1705227595,,unknown,unknown,,0,0
2125868916,롯데ATM 세븐일레븐 종로누상,"금융,보험 > 금융서비스 > 은행 > ATM",BK9,은행,,서울 종로구 누상동 17,서울 종로구 옥인3길 2-1,126.966317188669,37.5809327081743,http://place.map.kakao.com/2125868916,,unknown,unknown,,0,0
19086610,삼청새마을금고 안국지점,"금융,보험 > 금융서비스 > 은행 > 새마을금고",BK9,은행,02-734-2670,서울 종로구 소격동 116-2,서울 종로구 북촌로5가길 11,126.982062904223,37.5800928207017,http://place.map.kakao.com/19086610,,unknown,unknown,,0,0
18956401,삼청새마을금고 가회지점,"금융,보험 > 금융서비스 > 은행 > 새마을금고",BK9,은행,02-747-2670,서울 종로구 가회동 207,서울 종로구 북촌로 40,126.985196532877,37.5803058898134,http://place.map.kakao.com/18956401,,unknown,unknown,,0,0
8416432,신한은행 효자동지점,"금융,보험 > 금융서비스 > 은행 > 신한은행",BK9,은행,02-739-9988,서울 종로구 통인동 1-2,서울 종로구 자하문로 61,126.97061908115,37.5813411064296,http://place.map.kakao.com/8416432,,unknown,unknown,,0,0
25656186,신한은행ATM 효자동지점,"금융,보험 > 금융서비스 > 은행 > ATM",BK9,은행,,서울 종로구 통인동 1-2,서울 종로구 자하문로 61,126.970605511233,37.5813014593304,http://place.map.kakao.com/25656186,,unknown,unknown,,0,0
973255641,CU ATM 종로가회점,"금융,보험 > 금융서비스 > 은행 > ATM",BK9,은행,,서울 종로구 가회동 28,서울 종로구 북촌로 52,126.985227994125,37.581509621394,http://place.map.kakao.com/973255641,,unknown,unknown,,0,0
