id,place_name,category_name,category_group_code,category_group_name,phone,address_name,road_address_name,x,y,place_url,distance,wheelchair,animal,keyword,evalnum,rate
16470908,CU 충정로역점,"가정,생활 > 편의점 > CU",CS2,편의점,02-364-8071,서울 서대문구 충정로3가 465,서울 서대문구 서소문로 27,126.96470582745688,37.560096721177125,http://place.map.kakao.com/16470908,,unknown,unknown,#편의점택배 #포스트박스 #카카오페이 #제로페이 ,0,0
21854023,GS25 디오센터점,"가정,생활 > 편의점 > GS25",CS2,편의점,,서울 중구 중림동 500,서울 중구 서소문로 38,126.966253986606,37.5604260376785,http://place.map.kakao.com/21854023,,unknown,unknown,,1,4.0
16587665,CU 중림점,"가정,생활 > 편의점 > CU",CS2,편의점,02-365-3763,서울 중구 중림동 464,서울 중구 청파로 461,126.96771740632197,37.560447169812015,http://place.map.kakao.com/16587665,,unknown,unknown,#카카오페이 #제로페이 ,4,2.0
17056215,CU 포스코점,"가정,생활 > 편의점 > CU",CS2,편의점,02-3789-5580,서울 중구 순화동 151,서울 중구 칠패로 27,126.972067049122,37.56017888093015,http://place.map.kakao.com/17056215,,unknown,unknown,#편의점택배 #포스트박스 #카카오페이 #제로페이 ,0,0
21306201,GS25 라마다호텔점,"가정,생활 > 편의점 > GS25",CS2,편의점,02-3789-1063,서울 중구 순화동 151,서울 중구 칠패로 27,126.97196280084256,37.56050501708698,http://place.map.kakao.com/21306201,,unknown,unknown,#카카오페이 #제로페이 ,0,0
27386892,CU 중구탑점,"가정,생활 > 편의점 > CU",CS2,편의점,02-3789-5580,서울 중구 순화동 53,서울 중구 세종대로7길 37,126.972420015531,37.5606042344278,http://place.map.kakao.com/27386892,,unknown,unknown,#제로페이 ,0,0
369318434,이마트24 메사빌딩점,"가정,생활 > 편의점 > 이마트24",CS2,편의점,070-7700-8620,서울 중구 회현동1가 204,서울 중구 남대문시장10길 2,126.97960482098652,37.56036332600459,http://place.map.kakao.com/369318434,,unknown,unknown,,0,0
12297160,GS25 남대문타운점,"가정,생활 > 편의점 > GS25",CS2,편의점,,서울 중구 남창동 1-2,서울 중구 남대문로 30,126.978903026689,37.5606235907812,http://place.map.kakao.com/12297160,,unknown,unknown,,1,5.0
50080703,세븐일레븐 스테이트남산점,"가정,생활 > 편의점 > 세븐일레븐",CS2,편의점,,서울 중구 회현동2가 88,서울 중구 퇴계로 100,126.982927844916,37.5602061788106,http://place.map.kakao.com/50080703,,unknown,unknown,,0,0
19205570,CU 명동화이자점,"가정,생활 > 편의점 > CU",CS2,편의점,02-318-2460,서울 중구 회현동3가 1-9,서울 중구 퇴계로 114-1,126.98436743075833,37.56054515302147,http://place.map.kakao.com/19205570,,unknown,unknown,#편의점택배 #포스트박스 #카카오페이 #제로페이 ,1,4.0
8545043,GS25 남산제일점,"가정,생활 > 편의점 > GS25",CS2,편의점,02-771-3984,서울 중구 남산동1가 6-5,서울 중구 퇴계로18길 16-1,126.985368017627,37.5602065064353,http://place.map.kakao.com/8545043,,unknown,unknown,#카카오페이 #제로페이 ,1,1.0
10566122,세븐일레븐 명동역점,"가정,생활 > 편의점 > 세븐일레븐",CS2,편의점,1577-0711,서울 중구 남산동1가 4-1,서울 중구 퇴계로18길 6,126.985431338388,37.5605164571943,http://place.map.kakao.com/10566122,,unknown,unknown,#카카오페이 #제로페이 ,0,0
12297002,GS25 충정로점,"가정,생활 > 편의점 > GS25",CS2,편의점,02-8172-6494,서울 서대문구 합동 116,서울 서대문구 서소문로 45,126.966149534106,37.5611468052079,http://place.map.kakao.com/12297002,,unknown,unknown,#카카오페이 #제로페이 ,0,0
16498840,CU 충정로프랑스점,"가정,생활 > 편의점 > CU",CS2,편의점,02-364-0304,서울 서대문구 합동 117,서울 서대문구 서소문로 37,126.965610942032,37.5608114787676,http://place.map.kakao.com/16498840,,unknown,unknown,#편의점택배 #포스트박스 #카카오페이 #제로페이 ,0,0
401039634,CU 센트럴플레이스점,"가정,생활 > 편의점 > CU",CS2,편의점,02-362-0333,서울 중구 중림동 419,서울 중구 서소문로 50,126.96680616855087,37.56074334509295,http://place.map.kakao.com/401039634,,unknown,unknown,,3,3.7
11577994,이마트24 중림점,"가정,생활 > 편의점 > 이마트24",CS2,편의점,02-362-5335,서울 중구 의주로2가 16-10,서울 중구 청파로 464,126.96829782126292,37.5609266573876,http://place.map.kakao.com/11577994,,unknown,unknown,,6,1.0
17538951,GS25 중구순화점,"가정,생활 > 편의점 > GS25",CS2,편의점,1644-5425,서울 중구 순화동 66,서울 중구 세종대로7길 43,126.972401733732,37.5610727484884,http://place.map.kakao.com/17538951,,unknown,unknown,#카카오페이 #제로페이 ,0,0
8579023,애니마트,"가정,생활 > 편의점",CS2,편의점,02-2130-2945,서울 중구 서소문동 135,서울 중구 세종대로9길 41,126.972976572591,37.561418864204,http://place.map.kakao.com/8579023,,unknown,unknown,,0,0
15899423,HIT편의점,"가정,생활 > 편의점",CS2,편의점,,서울 중구 순화동 53,서울 중구 세종대로7길 37,126.972487872535,37.5607448057632,http://place.map.kakao.com/15899423,,unknown,unknown,,0,0
949712461,CU 대한상공회의소점,"가정,생활 > 편의점 > CU",CS2,편의점,1577-8007,서울 중구 남대문로4가 45,서울 중구 세종대로 39,126.973773624144,37.560712662485,http://place.map.kakao.com/949712461,,unknown,unknown,#카카오페이 #제로페이 ,0,0
26503726,GS25 숭례문점,"가정,생활 > 편의점 > GS25",CS2,편의점,,서울 중구 남대문로4가 17-10,서울 중구 남대문로 7,126.976517087126,37.5608790234332,http://place.map.kakao.com/26503726,,unknown,unknown,,0,0
218223901,세븐일레븐 남대문카페점,"가정,생활 > 편의점 > 세븐일레븐",CS2,편의점,,서울 중구 회현동1가 202-9,서울 중구 남대문시장길 73,126.980021205752,37.5608147966166,http://place.map.kakao.com/218223901,,unknown,unknown,,6,2.0
1224356460,이마트24 신세계본점,"가정,생활 > 편의점 > 이마트24",CS2,편의점,02-318-8827,서울 중구 충무로1가 52-5,서울 중구 소공로 63,126.980980958056,37.5609194707505,http://place.map.kakao.com/1224356460,,unknown,unknown,#카카오페이 #제로페이 ,0,0
628408586,세븐일레븐 명동포스트타워점,"가정,생활 > 편의점 > 세븐일레븐",CS2,편의점,02-318-5984,서울 중구 충무로1가 25-11,서울 중구 소공로 66,126.982013137264,37.5610746039567,http://place.map.kakao.com/628408586,,unknown,unknown,#카카오페이 #제로페이 ,0,0
16532091,CU 중구명동점,"가정,생활 > 편의점 > CU",CS2,편의점,02-779-1797,서울 중구 충무로1가 24-41,서울 중구 퇴계로 105,126.983434744579,37.5608801966667,http://place.map.kakao.com/16532091,,unknown,unknown,#편의점택배 #포스트박스 #카카오페이 #제로페이 ,6,1.2
2024977859,세븐일레븐 르와지르호텔점,"가정,생활 > 편의점 > 세븐일레븐",CS2,편의점,,서울 중구 충무로1가 24-1,서울 중구 퇴계로 115,126.98455520922018,37.5610398249885,http://place.map.kakao.com/2024977859,,unknown,unknown,#카카오페이 #제로페이 ,1,4.0
7278660,이마트24 R명동역점,"가정,생활 > 편의점 > 이마트24",CS2,편의점,070-7700-7995,서울 중구 남산동3가 13-4,서울 중구 퇴계로 136,126.98687547387,37.5608265694717,http://place.map.kakao.com/7278660,,unknown,unknown,#카카오페이 #제로페이 ,2,4.5
17044396,미니스톱 명동세종점,"가정,생활 > 편의점 > 미니스톱",CS2,편의점,1577-9621,서울 중구 충무로2가 62-8,서울 중구 퇴계로 141,126.987527325368,37.5612699305506,http://place.map.kakao.com/17044396,,unknown,unknown,#카카오페이 #제로페이 ,0,0
747920904,CU 부영사옥점,"가정,생활 > 편의점 > CU",CS2,편의점,02-3774-5646,서울 중구 서소문동 120-23,서울 중구 세종대로9길 42,126.97379597136054,37.56153798047197,http://place.map.kakao.com/747920904,,unknown,unknown,#카카오페이 #제로페이 ,0,0
1300350976,CU 서소문삼성점,"가정,생활 > 편의점 > CU",CS2,편의점,02-755-4015,서울 중구 서소문동 120-35,서울 중구 세종대로11길 26,126.974590250692,37.562310308199,http://place.map.kakao.com/1300350976,,unknown,unknown,,5,1.8
2105193325,CU 부영태평점,"가정,생활 > 편의점 > CU",CS2,편의점,,서울 중구 태평로2가 150,서울 중구 세종대로 55,126.975058984209,37.5618518008748,http://place.map.kakao.com/2105193325,,unknown,unknown,,0,0
12297208,GS25 북창점,"가정,생활 > 편의점 > GS25",CS2,편의점,02-777-0380,서울 중구 북창동 24-2,서울 중구 남대문로1길 26,126.97748099814052,37.56219466639155,http://place.map.kakao.com/12297208,,unknown,unknown,#카카오페이 #제로페이 ,0,0
54131602,CU 중구해성점,"가정,생활 > 편의점 > CU",CS2,편의점,02-310-9201,서울 중구 남대문로4가 17-19,서울 중구 세종대로12길 12,126.9770691558034,37.56171886090005,http://place.map.kakao.com/54131602,,unknown,unknown,#카카오페이 #제로페이 ,0,0
27260283,이마트24 한국은행점,"가정,생활 > 편의점 > 이마트24",CS2,편의점,02-757-7174,서울 중구 북창동 93-3,서울 중구 남대문로5길 9,126.97886875959811,37.56173090966244,http://place.map.kakao.com/27260283,,unknown,unknown,,1,1.0
22875295,GS25 사보이호텔점,"가정,생활 > 편의점 > GS25",CS2,편의점,02-777-4984,서울 중구 충무로1가 23-1,서울 중구 명동8나길 10,126.984244919729,37.5618533840274,http://place.map.kakao.com/22875295,,unknown,unknown,#카카오페이 #제로페이 ,3,4.7
1206964850,GS25 명동IB점,"가정,생활 > 편의점 > GS25",CS2,편의점,,서울 중구 충무로2가 63-5,서울 중구 명동8가길 22,126.98622793709,37.5615797290043,http://place.map.kakao.com/1206964850,,unknown,unknown,,0,0
16036145,CU 충무로2가점,"가정,생활 > 편의점 > CU",CS2,편의점,02-2268-3781,서울 중구 충무로2가 51-3,서울 중구 수표로 7,126.990288886431,37.5619153036277,http://place.map.kakao.com/16036145,,unknown,unknown,#카카오페이 #제로페이 ,1,1.0
27498618,GS25 충무로타운점,"가정,생활 > 편의점 > GS25",CS2,편의점,02-2263-8188,서울 중구 충무로3가 59-22,서울 중구 수표로 14,126.990506138609,37.5623838395379,http://place.map.kakao.com/27498618,,unknown,unknown,#카카오페이 #제로페이 ,2,3.0
12297131,GS25 충무로극동점,"가정,생활 > 편의점 > GS25",CS2,편의점,,서울 중구 충무로3가 60-1,서울 중구 퇴계로 173,126.99075070850752,37.56163332875113,http://place.map.kakao.com/12297131,,unknown,unknown,,0,0
16556879,CU 바비엥점,"가정,생활 > 편의점 > CU",CS2,편의점,02-6399-6666,서울 중구 순화동 215,서울 중구 통일로 86,126.969652834889,37.5631515740635,http://place.map.kakao.com/16556879,,unknown,unknown,#카카오페이 #제로페이 ,1,5.0
1137070810,이마트24 서소문순화점,"가정,생활 > 편의점 > 이마트24",CS2,편의점,,서울 중구 순화동 5-2,서울 중구 서소문로 89,126.97083131377,37.5625797383328,http://place.map.kakao.com/1137070810,,unknown,unknown,,0,0
45779649,CU 삼정아트테라스점,"가정,생활 > 편의점 > CU",CS2,편의점,,서울 중구 정동 37,서울 중구 서소문로 89-20,126.972029683467,37.563249468697,http://place.map.kakao.com/45779649,,unknown,unknown,,0,0
8320330,세븐일레븐 서소문점,"가정,생활 > 편의점 > 세븐일레븐",CS2,편의점,,서울 중구 서소문동 57-8,서울 중구 서소문로 101,126.97238353555092,37.56284725707984,http://place.map.kakao.com/8320330,,unknown,unknown,,0,0
1355432124,이마트24 서울시청역점,"가정,생활 > 편의점 > 이마트24",CS2,편의점,02-3789-8510,서울 중구 서소문동 75-95,서울 중구 서소문로 116,126.973832939053,37.56263179855,http://place.map.kakao.com/1355432124,,unknown,unknown,,2,1.5
12297135,GS25 서소문점,"가정,생활 > 편의점 > GS25",CS2,편의점,,서울 중구 서소문동 53-6,서울 중구 서소문로 109,126.97327931700508,37.56305514290056,http://place.map.kakao.com/12297135,,unknown,unknown,,1,5.0
1582969721,CU 씨티스퀘어점,"가정,생활 > 편의점 > CU",CS2,편의점,02-6250-0984,서울 중구 서소문동 143,서울 중구 서소문로 124,126.97522155241,37.5631060222994,http://place.map.kakao.com/1582969721,,unknown,unknown,,0,0
1676514741,세븐일레븐 중구ENA센터점,"가정,생활 > 편의점 > 세븐일레븐",CS2,편의점,,서울 중구 서소문동 136,서울 중구 서소문로 120,126.974678345241,37.5628680439776,http://place.map.kakao.com/1676514741,,unknown,unknown,#카카오페이 #제로페이 ,2,3.0
1342497139,세븐일레븐 세종대로카페점,"가정,생활 > 편의점 > 세븐일레븐",CS2,편의점,,서울 중구 태평로2가 69-18,서울 중구 세종대로 76-1,126.97687182662264,37.56298382159404,http://place.map.kakao.com/1342497139,,unknown,unknown,,2,4.5
19032002,세븐일레븐 북창프리마점,"가정,생활 > 편의점 > 세븐일레븐",CS2,편의점,02-318-1120,서울 중구 북창동 12-4,서울 중구 세종대로14길 29,126.97830589726058,37.56291561807871,http://place.map.kakao.com/19032002,,unknown,unknown,#카카오페이 #제로페이 ,1,5.0
562157688,세븐일레븐 중국대사관점,"가정,생활 > 편의점 > 세븐일레븐",CS2,편의점,,서울 중구 명동2가 87-2,서울 중구 남대문로 68,126.982261654602,37.5631108939111,http://place.map.kakao.com/562157688,,unknown,unknown,,4,5.0
190733018,세븐일레븐 충무로최고점,"가정,생활 > 편의점 > 세븐일레븐",CS2,편의점,,서울 중구 충무로3가 58-2,서울 중구 퇴계로27길 35,126.991230472156,37.5627515021549,http://place.map.kakao.com/190733018,,unknown,unknown,#카카오페이 #제로페이 ,0,0
64375844,세븐일레븐 충정골든타워점,"가정,생활 > 편의점 > 세븐일레븐",CS2,편의점,,서울 서대문구 충정로2가 191,서울 서대문구 충정로 53,126.96463166409,37.5637520422304,http://place.map.kakao.com/64375844,,unknown,unknown,,1,1.0
19203836,CU 서대문타워점,"가정,생활 > 편의점 > CU",CS2,편의점,02-361-3510,서울 서대문구 미근동 21-1,서울 서대문구 충정로 60,126.965912802038,37.5640299259345,http://place.map.kakao.com/19203836,,unknown,unknown,#편의점택배 #포스트박스 #카카오페이 #제로페이 ,0,0
25757562,GS25 케이지타워점,"가정,생활 > 편의점 > GS25",CS2,편의점,,서울 중구 순화동 1-170,서울 중구 통일로 92,126.969199948017,37.5635082513617,http://place.map.kakao.com/25757562,,unknown,unknown,,0,0
1922212875,GS25 덕수궁캐슬점,"가정,생활 > 편의점 > GS25",CS2,편의점,070-8288-6255,서울 중구 순화동 217,서울 중구 서소문로9길 28,126.970041969031,37.5637066872227,http://place.map.kakao.com/1922212875,,unknown,unknown,#카카오페이 #제로페이 ,1,5.0
17044050,미니스톱 서울시청역점,"가정,생활 > 편의점 > 미니스톱",CS2,편의점,1577-9621,서울 중구 서소문동 21-1,서울 중구 서소문로 135,126.975891316869,37.5640071573488,http://place.map.kakao.com/17044050,,unknown,unknown,#카카오페이 #제로페이 ,1,1.0
1270556275,GS25 북창중앙점,"가정,생활 > 편의점 > GS25",CS2,편의점,02-319-6788,서울 중구 태평로2가 56-1,서울 중구 세종대로18길 2,126.977254153304,37.5637659607581,http://place.map.kakao.com/1270556275,,unknown,unknown,,1,1.0
19031375,세븐일레븐 북창점,"가정,생활 > 편의점 > 세븐일레븐",CS2,편의점,02-318-0453,서울 중구 북창동 10-4,서울 중구 남대문로5길 47,126.978748298742,37.5634454844505,http://place.map.kakao.com/19031375,,unknown,unknown,#카카오페이 #제로페이 ,1,5.0
27259918,이마트24 중구소공점,"가정,생활 > 편의점 > 이마트24",CS2,편의점,02-776-4991,서울 중구 소공동 86-8,서울 중구 소공로 100-1,126.979821198625,37.5638096752367,http://place.map.kakao.com/27259918,,unknown,unknown,#카카오페이 #제로페이 ,0,0
10475965,세븐일레븐 소공점,"가정,생활 > 편의점 > 세븐일레븐",CS2,편의점,,서울 중구 소공동 28,서울 중구 남대문로7길 11,126.98125642511536,37.5636981882657,http://place.map.kakao.com/10475965,,unknown,unknown,#카카오페이 ,0,0
12297182,GS25 소공점,"가정,생활 > 편의점 > GS25",CS2,편의점,,서울 중구 소공동 24,서울 중구 남대문로7길 15,126.98097682930292,37.56380356012085,http://place.map.kakao.com/12297182,,unknown,unknown,,1,4.0
560709151,세븐일레븐 명동롯데점,"가정,생활 > 편의점 > 세븐일레븐",CS2,편의점,02-1577-0711,서울 중구 명동1가 79-1,서울 중구 명동길 3,126.98245618481,37.5637416204672,http://place.map.kakao.com/560709151,,unknown,unknown,#카카오페이 #제로페이 ,1,1.0
1176216099,세븐일레븐 명동대성당점,"가정,생활 > 편의점 > 세븐일레븐",CS2,편의점,,서울 중구 명동2가 1-18,서울 중구 명동길 80,126.98670058851413,37.56412239533255,http://place.map.kakao.com/1176216099,,unknown,unknown,#카카오페이 #제로페이 ,1,1.0
11197120,CU 중부경찰서점,"가정,생활 > 편의점 > CU",CS2,편의점,02-2274-1973,서울 중구 저동2가 47-9,서울 중구 수표로 28,126.990347516154,37.563663241682,http://place.map.kakao.com/11197120,,unknown,unknown,#편의점택배 #포스트박스 #카카오페이 #제로페이 ,0,0
27499863,GS25 서대문디오빌점,"가정,생활 > 편의점 > GS25",CS2,편의점,02-362-5848,서울 서대문구 충정로2가 192,서울 서대문구 충정로 59,126.9649890911914,37.56426571665024,http://place.map.kakao.com/27499863,,unknown,unknown,#카카오페이 #제로페이 ,3,2.0
17049348,CU 웨스트타워점,"가정,생활 > 편의점 > CU",CS2,편의점,02-3779-7989,서울 서대문구 미근동 332,서울 서대문구 충정로 70,126.96633003945904,37.56496347774637,http://place.map.kakao.com/17049348,,unknown,unknown,#편의점택배 #포스트박스 #카카오페이 #제로페이 ,1,4.0
18826691,GS25 미근제일점,"가정,생활 > 편의점 > GS25",CS2,편의점,,서울 서대문구 미근동 198,서울 서대문구 통일로 105,126.967633124991,37.5642826890494,http://place.map.kakao.com/18826691,,unknown,unknown,,1,1.0
16035904,CU 순화점,"가정,생활 > 편의점 > CU",CS2,편의점,,서울 중구 순화동 1-104,서울 중구 통일로4길 20,126.9689279517232,37.56435331463268,http://place.map.kakao.com/16035904,,unknown,unknown,,0,0
14594950,GS25 배재공원점,"가정,생활 > 편의점 > GS25",CS2,편의점,02-318-2237,서울 중구 서소문동 39-1,서울 중구 서소문로11길 50,126.973084019271,37.5647778035098,http://place.map.kakao.com/14594950,,unknown,unknown,#카카오페이 #제로페이 ,0,0
8560938,GS25 덕수점,"가정,생활 > 편의점 > GS25",CS2,편의점,02-318-5410,서울 중구 태평로2가 362-1,서울 중구 세종대로 89,126.976479738315,37.5644757941047,http://place.map.kakao.com/8560938,,unknown,unknown,#카카오페이 #제로페이 ,3,2.3
26896136,CU 한화빌딩점,"가정,생활 > 편의점 > CU",CS2,편의점,02-771-7805,서울 중구 태평로2가 43,서울 중구 세종대로 92,126.977602596581,37.5643318530579,http://place.map.kakao.com/26896136,,unknown,unknown,#카카오페이 #제로페이 ,0,0
2123900478,이마트24 서울조선호텔점,"가정,생활 > 편의점 > 이마트24",CS2,편의점,,서울 중구 소공동 87-1,서울 중구 소공로 106,126.980097204679,37.5644404195001,http://place.map.kakao.com/2123900478,,unknown,unknown,,0,0
722910531,CU 명동타임워크점,"가정,생활 > 편의점 > CU",CS2,편의점,,서울 중구 명동1가 59-5,서울 중구 남대문로 78,126.983003903858,37.5641849907812,http://place.map.kakao.com/722910531,,unknown,unknown,,0,0
17159921,세븐일레븐 명동본점,"가정,생활 > 편의점 > 세븐일레븐",CS2,편의점,,서울 중구 을지로2가 195-3,서울 중구 명동9길 23,126.98449328524843,37.56492761669925,http://place.map.kakao.com/17159921,,unknown,unknown,#카카오페이 #제로페이 ,2,5.0
19205997,CU 명동YWCA점,"가정,생활 > 편의점 > CU",CS2,편의점,,서울 중구 명동1가 6-1,서울 중구 명동11길 9,126.985828993585,37.5644340386485,http://place.map.kakao.com/19205997,,unknown,unknown,,0,0
16683789,GS25 나라키움점,"가정,생활 > 편의점 > GS25",CS2,편의점,02-2268-6168,서울 중구 저동1가 1-2,서울 중구 삼일대로 340,126.988364319601,37.5648307540833,http://place.map.kakao.com/16683789,,unknown,unknown,#카카오페이 #제로페이 ,0,0
16874974,CU 을지로백병원점,"가정,생활 > 편의점 > CU",CS2,편의점,02-2273-4634,서울 중구 저동2가 88-13,서울 중구 마른내로 8,126.988753729201,37.5645352650568,http://place.map.kakao.com/16874974,,unknown,unknown,#편의점택배 #포스트박스 #카카오페이 #제로페이 ,0,0
16708776,하프타임,"가정,생활 > 편의점",CS2,편의점,,서울 중구 저동2가 84-4,서울 중구 마른내로 13,126.9892935824286,37.564879495804966,http://place.map.kakao.com/16708776,,unknown,unknown,,0,0
8448145,세븐일레븐 저동점,"가정,생활 > 편의점 > 세븐일레븐",CS2,편의점,,서울 중구 저동2가 69-6,서울 중구 수표로 35,126.989962588262,37.5643804026627,http://place.map.kakao.com/8448145,,unknown,unknown,#카카오페이 #제로페이 ,2,1.0
1274876317,GS25 나인트리호텔점,"가정,생활 > 편의점 > GS25",CS2,편의점,070-8668-1133,서울 중구 초동 72-10,서울 중구 마른내로 28,126.9907379069422,37.56447236765198,http://place.map.kakao.com/1274876317,,unknown,unknown,#카카오페이 #제로페이 ,1,5.0
546595177,CU 을지로타워점,"가정,생활 > 편의점 > CU",CS2,편의점,,서울 중구 초동 106-9,서울 중구 마른내로 34,126.991628714716,37.5642399771355,http://place.map.kakao.com/546595177,,unknown,unknown,,0,0
19204590,CU 서대문인창점,"가정,생활 > 편의점 > CU",CS2,편의점,,서울 서대문구 충정로2가 37-15,서울 서대문구 경기대로 80,126.964657870151,37.5657810934644,http://place.map.kakao.com/19204590,,unknown,unknown,,2,5.0
7948817,세븐일레븐 서대문역점,"가정,생활 > 편의점 > 세븐일레븐",CS2,편의점,02-722-3951,서울 중구 의주로1가 25-10,서울 중구 통일로 114,126.967917935101,37.5652630506324,http://place.map.kakao.com/7948817,,unknown,unknown,#제로페이 ,2,1.0
9629618,CU 시청광장점,"가정,생활 > 편의점 > CU",CS2,편의점,02-774-0167,서울 중구 을지로1가 192-11,서울 중구 을지로 6,126.979069212019,37.565352049866,http://place.map.kakao.com/9629618,,unknown,unknown,,3,3.0
1714569084,세븐일레븐 메트로호텔점,"가정,생활 > 편의점 > 세븐일레븐",CS2,편의점,,서울 중구 을지로2가 199-33,서울 중구 명동9가길 14,126.983658943423,37.5650892329788,http://place.map.kakao.com/1714569084,,unknown,unknown,,0,0
1927356993,이마트24 S을지로입구역점,"가정,생활 > 편의점 > 이마트24",CS2,편의점,02-3789-1273,서울 중구 을지로2가 197,서울 중구 을지로 54-1,126.98384111160424,37.5659114169917,http://place.map.kakao.com/1927356993,,unknown,unknown,,0,0
1362957114,CU 대신파이낸스센터점,"가정,생활 > 편의점 > CU",CS2,편의점,02-3789-5407,서울 중구 저동1가 114,서울 중구 삼일대로 343,126.987055821012,37.5651225406354,http://place.map.kakao.com/1362957114,,unknown,unknown,#편의점택배 #포스트박스 #카카오페이 #제로페이 ,0,0
19205181,CU 을지로파인애비뉴점,"가정,생활 > 편의점 > CU",CS2,편의점,070-8885-7797,서울 중구 을지로2가 203,서울 중구 을지로 100,126.9887524091708,37.565786748589936,http://place.map.kakao.com/19205181,,unknown,unknown,#편의점택배 #포스트박스 #제로페이 ,6,1.0
16821979,CU 을지로비즈센터점,"가정,생활 > 편의점 > CU",CS2,편의점,02-3406-9440,서울 중구 저동2가 78,서울 중구 수표로 45,126.98972477307431,37.565274170441576,http://place.map.kakao.com/16821979,,unknown,unknown,#편의점택배 #포스트박스 #카카오페이 #제로페이 ,2,1.0
20038261,GS25 을지로3가점,"가정,생활 > 편의점 > GS25",CS2,편의점,02-2268-6366,서울 중구 저동2가 76,서울 중구 수표로 43-2,126.989745160293,37.5651768646304,http://place.map.kakao.com/20038261,,unknown,unknown,#카카오페이 #제로페이 ,1,1.0
595230120,미니스톱 중구매크로점,"가정,생활 > 편의점 > 미니스톱",CS2,편의점,1577-9621,서울 중구 저동2가 7-2,서울 중구 을지로12길 28,126.990569169023,37.5651805373127,http://place.map.kakao.com/595230120,,unknown,unknown,#카카오페이 #제로페이 ,0,0
595230120,미니스톱 중구매크로점,"가정,생활 > 편의점 > 미니스톱",CS2,편의점,1577-9621,서울 중구 저동2가 7-2,서울 중구 을지로12길 28,126.990569169023,37.5651805373127,http://place.map.kakao.com/595230120,,unknown,unknown,#카카오페이 #제로페이 ,0,0
17056762,GS25 서대문점,"가정,생활 > 편의점 > GS25",CS2,편의점,02-312-2260,서울 서대문구 충정로2가 7-2,서울 서대문구 통일로 131,126.96591862000032,37.56616618943245,http://place.map.kakao.com/17056762,,unknown,unknown,#카카오페이 #제로페이 ,0,0
7946214,세븐일레븐 S서대문역점,"가정,생활 > 편의점 > 세븐일레븐",CS2,편의점,02-365-5015,서울 종로구 평동 210,서울 종로구 통일로 지하 126,126.96705501177644,37.56623769069351,http://place.map.kakao.com/7946214,,unknown,unknown,,1,4.0
310673978,이마트24 서울시청점,"가정,생활 > 편의점 > 이마트24",CS2,편의점,,서울 중구 을지로1가 16,서울 중구 무교로 6,126.979503544176,37.566487381064,http://place.map.kakao.com/310673978,,unknown,unknown,,4,4.0
1615049114,GS25 뉴을지로입구점,"가정,생활 > 편의점 > GS25",CS2,편의점,,서울 중구 을지로1가 100-1,서울 중구 을지로 지하 42,126.982374146679,37.5660517624757,http://place.map.kakao.com/1615049114,,unknown,unknown,,0,0
12297372,GS25 을지로입구점,"가정,생활 > 편의점 > GS25",CS2,편의점,02-757-8624,서울 중구 을지로1가 100-1,서울 중구 을지로 지하 42,126.982404703789,37.566068885958,http://place.map.kakao.com/12297372,,unknown,unknown,,1,3.0
1084783643,CU 내외빌딩점,"가정,생활 > 편의점 > CU",CS2,편의점,02-318-4051,서울 중구 을지로2가 6,서울 중구 을지로 51,126.98379575630209,37.56627901714612,http://place.map.kakao.com/1084783643,,unknown,unknown,#편의점택배 #포스트박스 #카카오페이 #제로페이 ,0,0
1782479731,이마트24 SKT타워2호점,"가정,생활 > 편의점 > 이마트24",CS2,편의점,,서울 중구 을지로2가 11,서울 중구 을지로 65,126.985126826084,37.5664882234001,http://place.map.kakao.com/1782479731,,unknown,unknown,,0,0
1091827612,이마트24 RSKT타워1호점,"가정,생활 > 편의점 > 이마트24",CS2,편의점,,서울 중구 을지로2가 11,서울 중구 을지로 65,126.985126826084,37.5664882234001,http://place.map.kakao.com/1091827612,,unknown,unknown,#카카오페이 #제로페이 ,0,0
1101540954,이마트24 SKT카페테리아,"가정,생활 > 편의점 > 이마트24",CS2,편의점,,서울 중구 을지로2가 11,서울 중구 을지로 65,126.985126826084,37.5664882234001,http://place.map.kakao.com/1101540954,,unknown,unknown,,0,0
847040029,이마트24 을지로기업은행점,"가정,생활 > 편의점 > 이마트24",CS2,편의점,,서울 중구 을지로2가 50,서울 중구 을지로 79,126.9865643391636,37.56649199972894,http://place.map.kakao.com/847040029,,unknown,unknown,#카카오페이 #제로페이 ,2,5.0
244592101,세븐일레븐 을지스타몰점,"가정,생활 > 편의점 > 세븐일레븐",CS2,편의점,,서울 중구 을지로2가 149-10,서울 중구 을지로 지하 88,126.9868700118122,37.5661531695334,http://place.map.kakao.com/244592101,,unknown,unknown,#카카오페이 #제로페이 ,1,1.0
998702317,GS25 을지2가장교점,"가정,생활 > 편의점 > GS25",CS2,편의점,02-364-4807,서울 중구 을지로2가 101-28,서울 중구 을지로9길 8,126.98849534336,37.5666111351557,http://place.map.kakao.com/998702317,,unknown,unknown,#카카오페이 #제로페이 ,6,2.0
27062713,CU 을지로홀리데이인점,"가정,생활 > 편의점 > CU",CS2,편의점,02-2266-9440,서울 중구 을지로3가 5-7,서울 중구 수표로 58,126.98985704912413,37.566411238896485,http://place.map.kakao.com/27062713,,unknown,unknown,#카카오페이 #제로페이 ,5,1.0
9623584,CU 종로교남점,"가정,생활 > 편의점 > CU",CS2,편의점,02-739-5580,서울 종로구 교남동 10,서울 종로구 통일로 146,126.965535482651,37.5673743136708,http://place.map.kakao.com/9623584,,unknown,unknown,#편의점택배 #포스트박스 #카카오페이 #제로페이 ,2,3.0
16445374,CU 중구정동길점,"가정,생활 > 편의점 > CU",CS2,편의점,02-318-6794,서울 중구 정동 27-12,서울 중구 정동길 10,126.969682772604,37.567479967033,http://place.map.kakao.com/16445374,,unknown,unknown,#편의점택배 #포스트박스 #카카오페이 #제로페이 ,1,5.0
12149423,세븐일레븐 정동빌딩점,"가정,생활 > 편의점 > 세븐일레븐",CS2,편의점,02-2096-2989,서울 중구 정동 15-5,서울 중구 정동길 21-15,126.970909752146,37.5675235235376,http://place.map.kakao.com/12149423,,unknown,unknown,#카카오페이 #제로페이 ,1,2.0
1577797071,씨스페이스 정동길점,"가정,생활 > 편의점 > 씨스페이스",CS2,편의점,,서울 중구 정동 18-3,서울 중구 정동길 15,126.970317893369,37.5671873047876,http://place.map.kakao.com/1577797071,,unknown,unknown,,0,0
1626017877,CU 한국프레스센터점,"가정,생활 > 편의점 > CU",CS2,편의점,,서울 중구 태평로1가 25,서울 중구 세종대로 124,126.977873331336,37.5674205185068,http://place.map.kakao.com/1626017877,,unknown,unknown,,1,1.0
27498614,GS25 무교YG타워점,"가정,생활 > 편의점 > GS25",CS2,편의점,,서울 중구 다동 155,서울 중구 남대문로9길 40,126.98017009075588,37.567026290450094,http://place.map.kakao.com/27498614,,unknown,unknown,,4,2.0
16036038,세븐일레븐 무교YG타워점,"가정,생활 > 편의점 > 세븐일레븐",CS2,편의점,02-6031-8990,서울 중구 다동 155,서울 중구 남대문로9길 40,126.980517588129,37.5670209423308,http://place.map.kakao.com/16036038,,unknown,unknown,#카카오페이 #제로페이 ,1,5.0
18113765,세븐일레븐 태평로점,"가정,생활 > 편의점 > 세븐일레븐",CS2,편의점,02-733-2412,서울 중구 남대문로1가 22-10,서울 중구 남대문로 112,126.98298625212168,37.56714746332231,http://place.map.kakao.com/18113765,,unknown,unknown,#카카오페이 #제로페이 ,1,5.0
13270831,CU 페럼타워점,"가정,생활 > 편의점 > CU",CS2,편의점,02-6353-8988,서울 중구 수하동 66,서울 중구 을지로5길 19,126.984162343031,37.5669782397306,http://place.map.kakao.com/13270831,,unknown,unknown,#편의점택배 #포스트박스 #카카오페이 #제로페이 ,1,1.0
18112910,세븐일레븐 중구삼화점,"가정,생활 > 편의점 > 세븐일레븐",CS2,편의점,02-6021-5990,서울 중구 수하동 68,서울 중구 을지로5길 16,126.985104098365,37.5669387184916,http://place.map.kakao.com/18112910,,unknown,unknown,,0,0
772799955,세븐일레븐 중구센터원점,"가정,생활 > 편의점 > 세븐일레븐",CS2,편의점,02-6030-8549,서울 중구 수하동 67,서울 중구 을지로5길 26,126.985153825041,37.5673279549623,http://place.map.kakao.com/772799955,,unknown,unknown,,2,3.0
12297180,GS25 장교한화점,"가정,생활 > 편의점 > GS25",CS2,편의점,,서울 중구 장교동 1,서울 중구 삼일대로 363,126.987064561343,37.5669425535536,http://place.map.kakao.com/12297180,,unknown,unknown,,1,1.0
267777006,세븐일레븐 시그니처타워점,"가정,생활 > 편의점 > 세븐일레븐",CS2,편의점,,서울 중구 수표동 99,서울 중구 청계천로 100,126.988274493865,37.5674310196695,http://place.map.kakao.com/267777006,,unknown,unknown,#카카오페이 #제로페이 ,1,5.0
177691759,세븐일레븐 롯데시티호텔명동점,"가정,생활 > 편의점 > 세븐일레븐",CS2,편의점,02-6112-1056,서울 중구 장교동 74,서울 중구 삼일대로 362,126.98815570358028,37.567047183585366,http://place.map.kakao.com/177691759,,unknown,unknown,#카카오페이 #제로페이 ,2,5.0
1356261060,세븐일레븐 청계을지로3가점,"가정,생활 > 편의점 > 세븐일레븐",CS2,편의점,,서울 중구 수표동 56-1,서울 중구 수표로 65,126.989409855228,37.5670725306302,http://place.map.kakao.com/1356261060,,unknown,unknown,,0,0
1757772288,세븐일레븐 시그니처 DDR점,"가정,생활 > 편의점 > 세븐일레븐",CS2,편의점,,서울 중구 수표동 56-1,서울 중구 수표로 65,126.989500404947,37.5670941626185,http://place.map.kakao.com/1757772288,,unknown,unknown,,1,5.0
19205021,CU 삼성병원3호점,"가정,생활 > 편의점 > CU",CS2,편의점,02-2001-1088,서울 종로구 평동 108,서울 종로구 새문안로 29,126.96673039413042,37.56825042428213,http://place.map.kakao.com/19205021,,unknown,unknown,#편의점택배 #포스트박스 #카카오페이 ,0,0
26775747,CU 삼성병원2호점,"가정,생활 > 편의점 > CU",CS2,편의점,02-738-6017,서울 종로구 평동 108-1,서울 종로구 새문안로 29,126.96790633339302,37.568560692307344,http://place.map.kakao.com/26775747,,unknown,unknown,,0,0
11286213,CU 삼성병원점,"가정,생활 > 편의점 > CU",CS2,편의점,02-732-4558,서울 종로구 평동 60,서울 종로구 새문안로 29,126.96789953561569,37.568575106388806,http://place.map.kakao.com/11286213,,unknown,unknown,,2,3.0
972356349,CU 코리아나호텔점,"가정,생활 > 편의점 > CU",CS2,편의점,02-730-5328,서울 중구 태평로1가 61-1,서울 중구 세종대로 135,126.976637042499,37.5681825227216,http://place.map.kakao.com/972356349,,unknown,unknown,,2,1.0
21542760,GS25 뉴국제호텔점,"가정,생활 > 편의점 > GS25",CS2,편의점,,서울 중구 태평로1가 25-3,서울 중구 세종대로22길 12,126.97792974310902,37.56804401812396,http://place.map.kakao.com/21542760,,unknown,unknown,,5,2.6
1143586862,GS25 중구SFC점,"가정,생활 > 편의점 > GS25",CS2,편의점,,서울 중구 무교동 97,서울 중구 세종대로 136,126.978257891095,37.5684224971952,http://place.map.kakao.com/1143586862,,unknown,unknown,,1,1.0
1549354104,세븐일레븐 무교다동점,"가정,생활 > 편의점 > 세븐일레븐",CS2,편의점,02-318-2762,서울 중구 무교동 10-2,서울 중구 을지로1길 47,126.979684163755,37.5682713839772,http://place.map.kakao.com/1549354104,,unknown,unknown,#카카오페이 #제로페이 ,0,0
17056305,GS25 다동타운점,"가정,생활 > 편의점 > GS25",CS2,편의점,,서울 중구 다동 70,서울 중구 다동길 43,126.981459058274,37.5681419326857,http://place.map.kakao.com/17056305,,unknown,unknown,,4,3.0
8444606,세븐일레븐 무교3호점,"가정,생활 > 편의점 > 세븐일레븐",CS2,편의점,02-754-4870,서울 중구 다동 92,서울 중구 다동길 46,126.981866617006,37.567871697275,http://place.map.kakao.com/8444606,,unknown,unknown,#카카오페이 #제로페이 ,1,5.0
1969543541,미니스톱 종로삼일점,"가정,생활 > 편의점 > 미니스톱",CS2,편의점,1577-9621,서울 종로구 관철동 11-3,서울 종로구 종로14길 32,126.986729226458,37.5685787246274,http://place.map.kakao.com/1969543541,,unknown,unknown,,0,0
18114893,세븐일레븐 종로청계천본점,"가정,생활 > 편의점 > 세븐일레븐",CS2,편의점,,서울 종로구 관철동 35-2,서울 종로구 청계천로 99,126.98865806572876,37.56840233054236,http://place.map.kakao.com/18114893,,unknown,unknown,,1,1.0
2100278389,CU 경희궁자이행복점,"가정,생활 > 편의점 > CU",CS2,편의점,02-725-7712,서울 종로구 평동 233,서울 종로구 경교장길 35,126.9647763956884,37.56887064342882,http://place.map.kakao.com/2100278389,,unknown,unknown,#편의점택배 #포스트박스 ,0,0
1684960048,GS25 LG광화문점,"가정,생활 > 편의점 > GS25",CS2,편의점,1644-5425,서울 종로구 신문로2가 92,서울 종로구 새문안로 58,126.97132453777192,37.569160734097366,http://place.map.kakao.com/1684960048,,unknown,unknown,#카카오페이 #제로페이 ,1,5.0
1176995395,GS25 세종로점,"가정,생활 > 편의점 > GS25",CS2,편의점,1644-5425,서울 중구 태평로1가 72-2,서울 중구 세종대로21길 67,126.975731150206,37.5692653366796,http://place.map.kakao.com/1176995395,,unknown,unknown,,0,0
42281521,CU 중구세종대로점,"가정,생활 > 편의점 > CU",CS2,편의점,02-736-3044,서울 중구 태평로1가 62-3,서울 중구 세종대로 135-9,126.976315370636,37.5688293734874,http://place.map.kakao.com/42281521,,unknown,unknown,#카카오페이 #제로페이 ,1,5.0
1671256544,세븐일레븐 청계퍼시픽점,"가정,생활 > 편의점 > 세븐일레븐",CS2,편의점,02-779-5487,서울 중구 무교동 96,서울 중구 청계천로 8,126.978330218708,37.5688225525453,http://place.map.kakao.com/1671256544,,unknown,unknown,#카카오페이 #제로페이 ,1,1.0
27260481,이마트24 청계천점,"가정,생활 > 편의점 > 이마트24",CS2,편의점,,서울 종로구 서린동 88,서울 종로구 청계천로 35,126.981341046733,37.5693096043926,http://place.map.kakao.com/27260481,,unknown,unknown,,5,2.0
10579259,SM마트,"가정,생활 > 편의점",CS2,편의점,02-722-3738,서울 종로구 관철동 252-1,서울 종로구 청계천로 55,126.983826860348,37.5690036326209,http://place.map.kakao.com/10579259,,unknown,unknown,,0,0
27373999,미니스톱 청계센터점,"가정,생활 > 편의점 > 미니스톱",CS2,편의점,1577-9621,서울 종로구 관철동 43-8,서울 종로구 청계천로 61,126.984326051135,37.568975769088816,http://place.map.kakao.com/27373999,,unknown,unknown,#카카오페이 #제로페이 ,0,0
12373401,세븐일레븐 종각점,"가정,생활 > 편의점 > 세븐일레븐",CS2,편의점,02-738-2071,서울 종로구 관철동 42-3,서울 종로구 삼일대로17길 51,126.98454901336908,37.56911905677326,http://place.map.kakao.com/12373401,,unknown,unknown,#카카오페이 #제로페이 ,0,0
19205126,CU 종로피아노길점,"가정,생활 > 편의점 > CU",CS2,편의점,02-723-0206,서울 종로구 관철동 11-14,서울 종로구 청계천로 73,126.985877996429,37.5686687254352,http://place.map.kakao.com/19205126,,unknown,unknown,#편의점택배 #포스트박스 #카카오페이 #제로페이 ,0,0
23610735,세븐일레븐 종로코아점,"가정,생활 > 편의점 > 세븐일레븐",CS2,편의점,02-734-9013,서울 종로구 관철동 13-13,서울 종로구 종로12길 15,126.98610197061524,37.5694688360667,http://place.map.kakao.com/23610735,,unknown,unknown,,1,1.0
12297280,GS25 종로관철점,"가정,생활 > 편의점 > GS25",CS2,편의점,,서울 종로구 관철동 7-5,서울 종로구 삼일대로17길 8,126.987014353245,37.5692707209372,http://place.map.kakao.com/12297280,,unknown,unknown,,2,3.0
682489382,마켓무 삼일빌딩점,"가정,생활 > 편의점",CS2,편의점,,서울 종로구 관철동 10-2,서울 종로구 청계천로 85,126.987141241418,37.5686274239863,http://place.map.kakao.com/682489382,,unknown,unknown,,0,0
2050104702,이마트24 삼일로점,"가정,생활 > 편의점 > 이마트24",CS2,편의점,02-2266-4805,서울 종로구 관철동 5-14,서울 종로구 삼일대로 390-1,126.987965156107,37.5694510207935,http://place.map.kakao.com/2050104702,,unknown,unknown,,0,0
21882639,고마트,"가정,생활 > 편의점",CS2,편의점,,서울 종로구 관수동 24,서울 종로구 수표로18길 15-1,126.9905425995914,37.56942152255262,http://place.map.kakao.com/21882639,,unknown,unknown,,0,0
787589204,이마트24 종로디아트점,"가정,생활 > 편의점 > 이마트24",CS2,편의점,,서울 종로구 관수동 98-1,서울 종로구 종로18길 37,126.99149917921628,37.568663858039066,http://place.map.kakao.com/787589204,,n,n,#카카오페이 #제로페이 ,0,0
1750618077,세븐일레븐 종로으뜸점,"가정,생활 > 편의점 > 세븐일레븐",CS2,편의점,02-2277-4475,서울 종로구 관수동 26,서울 종로구 수표로18길 19,126.990686355145,37.5694332469227,http://place.map.kakao.com/1750618077,,unknown,unknown,,0,0
10993520,GS25 종로흥국점,"가정,생활 > 편의점 > GS25",CS2,편의점,02-722-2526,서울 종로구 신문로1가 226,서울 종로구 새문안로 68,126.972380467303,37.5696249985283,http://place.map.kakao.com/10993520,,unknown,unknown,#카카오페이 #제로페이 ,0,0
1223529435,CU 콘코디언점,"가정,생활 > 편의점 > CU",CS2,편의점,02-6744-0124,서울 종로구 신문로1가 115,서울 종로구 새문안로 76,126.973145627885,37.5697260865479,http://place.map.kakao.com/1223529435,,unknown,unknown,,0,0
786810884,미니스톱 서울S타워점,"가정,생활 > 편의점 > 미니스톱",CS2,편의점,1577-9621,서울 종로구 신문로1가 116,서울 종로구 새문안로 82,126.973933440861,37.5697947387754,http://place.map.kakao.com/786810884,,unknown,unknown,#카카오페이 ,0,0
16042749,해피타임,"가정,생활 > 편의점",CS2,편의점,02-3276-2002,서울 종로구 신문로1가 163,서울 종로구 새문안로 92,126.974902413491,37.5697264730916,http://place.map.kakao.com/16042749,,unknown,unknown,,0,0
26775562,CU SK서린사옥점,"가정,생활 > 편의점 > CU",CS2,편의점,02-723-3094,서울 종로구 서린동 99,서울 종로구 종로 26,126.98030408613523,37.56969145803141,http://place.map.kakao.com/26775562,,unknown,unknown,#카카오페이 #제로페이 ,3,3.7
18115309,세븐일레븐 M종각역점,"가정,생활 > 편의점 > 세븐일레븐",CS2,편의점,,서울 종로구 종로1가 52-2,,126.98276373744577,37.570012597134976,http://place.map.kakao.com/18115309,,unknown,unknown,#카카오페이 #제로페이 ,0,0
20038328,GS25 종각점,"가정,생활 > 편의점 > GS25",CS2,편의점,,서울 종로구 관철동 45-1,서울 종로구 우정국로2길 21,126.984347417117,37.5696488155735,http://place.map.kakao.com/20038328,,unknown,unknown,,1,1.0
15981271,CU 종로중앙점,"가정,생활 > 편의점 > CU",CS2,편의점,02-737-5090,서울 종로구 관철동 14-10,서울 종로구 종로12길 7,126.98594232241688,37.56970217499261,http://place.map.kakao.com/15981271,,unknown,unknown,#편의점택배 #포스트박스 #카카오페이 #제로페이 ,1,1.0
19205529,CU 종각쇼핑센터점,"가정,생활 > 편의점 > CU",CS2,편의점,02-722-4862,서울 종로구 종로2가 1-2,서울 종로구 종로 지하 73,126.98552000820844,37.57020397839824,http://place.map.kakao.com/19205529,,unknown,unknown,#편의점택배 #포스트박스 #카카오페이 #제로페이 ,2,1.0
993761323,세븐일레븐 종로삼일대로점,"가정,생활 > 편의점 > 세븐일레븐",CS2,편의점,,서울 종로구 관철동 6-2,서울 종로구 삼일대로 393-1,126.987421768369,37.569771718538,http://place.map.kakao.com/993761323,,unknown,unknown,,1,5.0
19207934,CU 종로2가점,"가정,생활 > 편의점 > CU",CS2,편의점,02-2269-7728,서울 종로구 관수동 4-4,서울 종로구 종로16길 11,126.988716747205,37.5695880463329,http://place.map.kakao.com/19207934,,unknown,unknown,#편의점택배 #포스트박스 #카카오페이 #제로페이 ,1,5.0
10557894,세븐일레븐 종로관수점,"가정,생활 > 편의점 > 세븐일레븐",CS2,편의점,02-2269-5407,서울 종로구 관수동 3-2,서울 종로구 삼일대로20길 19,126.98899744102486,37.56978629182807,http://place.map.kakao.com/10557894,,unknown,unknown,#카카오페이 #제로페이 ,3,2.7
12297250,GS25 국일관점,"가정,생활 > 편의점 > GS25",CS2,편의점,02-2285-1014,서울 종로구 관수동 20,서울 종로구 수표로 96,126.989902998502,37.569807996641,http://place.map.kakao.com/12297250,,unknown,unknown,#카카오페이 #제로페이 ,2,1.0
11286742,CU 종로대로점,"가정,생활 > 편의점 > CU",CS2,편의점,02-2275-2988,서울 종로구 종로3가 108,서울 종로구 종로 112,126.9900138937152,37.57007740370516,http://place.map.kakao.com/11286742,,unknown,unknown,#카카오페이 #제로페이 ,1,5.0
19729885,CU 종로경희궁점,"가정,생활 > 편의점 > CU",CS2,편의점,070-7765-6473,서울 종로구 신문로1가 58-18,서울 종로구 경희궁길 4,126.972149190278,37.5705908112361,http://place.map.kakao.com/19729885,,unknown,unknown,#편의점택배 #포스트박스 #카카오페이 #제로페이 ,0,0
264030426,이마트24 종로당주점,"가정,생활 > 편의점 > 이마트24",CS2,편의점,02-723-7606,서울 종로구 당주동 40,서울 종로구 새문안로5길 11,126.974761568962,37.5711572236475,http://place.map.kakao.com/264030426,,unknown,unknown,#카카오페이 #제로페이 ,0,0
17042171,CU 광화문광장점,"가정,생활 > 편의점 > CU",CS2,편의점,02-722-2456,서울 종로구 신문로1가 1-1,서울 종로구 새문안로 103-1,126.976183547376,37.570458346747,http://place.map.kakao.com/17042171,,unknown,unknown,#편의점택배 #포스트박스 #카카오페이 #제로페이 ,0,0
19428346,세븐일레븐 종로광화문점,"가정,생활 > 편의점 > 세븐일레븐",CS2,편의점,02-736-8717,서울 종로구 당주동 21-2,서울 종로구 새문안로9길 21,126.975621849421,37.5712114641405,http://place.map.kakao.com/19428346,,unknown,unknown,#카카오페이 #제로페이 ,1,5.0
1307881432,CU 종로1가점,"가정,생활 > 편의점 > CU",CS2,편의점,02-2075-5537,서울 종로구 종로1가 24,서울 종로구 종로 19,126.9799234417087,37.570844667978704,http://place.map.kakao.com/1307881432,,unknown,unknown,#편의점택배 #포스트박스 #카카오페이 #제로페이 ,0,0
12297138,GS25 종로청진점,"가정,생활 > 편의점 > GS25",CS2,편의점,02-2075-5050,서울 종로구 청진동 146,서울 종로구 종로 19,126.979927972476,37.5708338568058,http://place.map.kakao.com/12297138,,unknown,unknown,#카카오페이 #제로페이 ,0,0
27498591,GS25 청진타워8점,"가정,생활 > 편의점 > GS25",CS2,편의점,,서울 종로구 청진동 128,서울 종로구 종로5길 7,126.980729416689,37.5707871385935,http://place.map.kakao.com/27498591,,unknown,unknown,,0,0
550891269,GS25 종로타워점,"가정,생활 > 편의점 > GS25",CS2,편의점,02-2158-7946,서울 종로구 청진동 70,서울 종로구 종로 33,126.981247855352,37.5707935290482,http://place.map.kakao.com/550891269,,unknown,unknown,#카카오페이 #제로페이 ,0,0
1811620659,GS25 종로SC점,"가정,생활 > 편의점 > GS25",CS2,편의점,,서울 종로구 공평동 100,서울 종로구 종로 47,126.982440869149,37.5711261797712,http://place.map.kakao.com/1811620659,,unknown,unknown,,0,0
2048858362,이마트24 종로타워점,"가정,생활 > 편의점 > 이마트24",CS2,편의점,,서울 종로구 공평동 70,서울 종로구 종로 51,126.9836136745354,37.570744326391406,http://place.map.kakao.com/2048858362,,unknown,unknown,#카카오페이 #제로페이 ,0,0
1674712609,CU 종각센트로폴리스점,"가정,생활 > 편의점 > CU",CS2,편의점,,서울 종로구 공평동 17,서울 종로구 우정국로 26,126.98419880677304,37.57118769582741,http://place.map.kakao.com/1674712609,,unknown,unknown,,1,5.0
213743307,GS25 종로YMCA점,"가정,생활 > 편의점 > GS25",CS2,편의점,02-736-2225,서울 종로구 종로2가 9,서울 종로구 종로 69,126.985415814073,37.5704814721431,http://place.map.kakao.com/213743307,,unknown,unknown,#카카오페이 #제로페이 ,4,4.0
658649355,세븐일레븐 종로피맛골점,"가정,생활 > 편의점 > 세븐일레븐",CS2,편의점,010-5412-1676,서울 종로구 종로2가 12,서울 종로구 종로 77,126.98603500733762,37.57042478430526,http://place.map.kakao.com/658649355,,unknown,unknown,,0,0
17043855,미니스톱 종로육의전점,"가정,생활 > 편의점 > 미니스톱",CS2,편의점,1577-9621,서울 종로구 종로2가 40,서울 종로구 수표로 105,126.9892146520948,37.570642257484494,http://place.map.kakao.com/17043855,,unknown,unknown,#카카오페이 #제로페이 ,1,5.0
10558582,세븐일레븐 탑골공원점,"가정,생활 > 편의점 > 세븐일레븐",CS2,편의점,,서울 종로구 낙원동 178,서울 종로구 수표로 110,126.98946816141286,37.57100087649747,http://place.map.kakao.com/10558582,,unknown,unknown,,1,4.0
20247374,세븐일레븐 종로당주점,"가정,생활 > 편의점 > 세븐일레븐",CS2,편의점,,서울 종로구 당주동 128-14,서울 종로구 새문안로3길 21,126.97258330771722,37.57210818874384,http://place.map.kakao.com/20247374,,unknown,unknown,,2,1.0
7950538,세븐일레븐 S광화문역점,"가정,생활 > 편의점 > 세븐일레븐",CS2,편의점,02-720-1320,서울 종로구 세종로 1-68,서울 종로구 세종대로 지하 172,126.977392190428,37.5714208473237,http://place.map.kakao.com/7950538,,unknown,unknown,,3,1.0
27498593,GS25 청진본점,"가정,생활 > 편의점 > GS25",CS2,편의점,02-735-5556,서울 종로구 청진동 201-1,서울 종로구 종로3길 38,126.979474863535,37.5720086766211,http://place.map.kakao.com/27498593,,unknown,unknown,#카카오페이 #제로페이 ,3,2.3
25757422,GS25 그랑서울본점,"가정,생활 > 편의점 > GS25",CS2,편의점,,서울 종로구 청진동 70,서울 종로구 종로 33,126.98116392992,37.5714287173291,http://place.map.kakao.com/25757422,,unknown,unknown,,0,0
839147467,GS25 종로94빌딩점,"가정,생활 > 편의점 > GS25",CS2,편의점,1644-5425,서울 종로구 공평동 144,서울 종로구 삼봉로 94,126.98221996457472,37.57184243787656,http://place.map.kakao.com/839147467,,unknown,unknown,#카카오페이 #제로페이 ,0,0
1934594702,CU 종로제일점,"가정,생활 > 편의점 > CU",CS2,편의점,02-765-8538,서울 종로구 낙원동 144-1,서울 종로구 수표로 118-1,126.98924164581248,37.57184779155752,http://place.map.kakao.com/1934594702,,unknown,unknown,#카카오페이 #제로페이 ,0,0
208787296,GS25 종로국카사옥점,"가정,생활 > 편의점 > GS25",CS2,편의점,,서울 종로구 내수동 167,서울 종로구 새문안로3길 30,126.973139948194,37.5729336281312,http://place.map.kakao.com/208787296,,unknown,unknown,,1,1.0
524226021,미니스톱 세종문화회관점,"가정,생활 > 편의점 > 미니스톱",CS2,편의점,1577-9621,서울 종로구 당주동 2-2,서울 종로구 새문안로5가길 3-1,126.974267571995,37.5724869857971,http://place.map.kakao.com/524226021,,unknown,unknown,#카카오페이 #제로페이 ,1,1.0
11424371,CU 종로구청점,"가정,생활 > 편의점 > CU",CS2,편의점,02-735-9084,서울 종로구 수송동 68-1,서울 종로구 삼봉로 57,126.980498039939,37.5725350311917,http://place.map.kakao.com/11424371,,unknown,unknown,#편의점택배 #포스트박스 #카카오페이 #제로페이 ,5,1.0
1465243310,GS25 수송타워점,"가정,생활 > 편의점 > GS25",CS2,편의점,02-6281-3990,서울 종로구 수송동 156,서울 종로구 삼봉로 71,126.98109678562275,37.57284416986641,http://place.map.kakao.com/1465243310,,unknown,unknown,#카카오페이 #제로페이 ,0,0
7950675,세븐일레븐 종로두산점,"가정,생활 > 편의점 > 세븐일레븐",CS2,편의점,02-732-7110,서울 종로구 수송동 58,서울 종로구 삼봉로 81,126.981860987218,37.5724163171326,http://place.map.kakao.com/7950675,,unknown,unknown,#카카오페이 #제로페이 ,1,1.0
17043915,미니스톱 종각중앙점,"가정,생활 > 편의점 > 미니스톱",CS2,편의점,1577-9621,서울 종로구 견지동 110,서울 종로구 삼봉로 95,126.98255381275982,37.572212796670016,http://place.map.kakao.com/17043915,,unknown,unknown,#카카오페이 #제로페이 ,0,0
12297218,GS25 종로관훈점,"가정,생활 > 편의점 > GS25",CS2,편의점,,서울 종로구 관훈동 198-8,서울 종로구 인사동5길 42,126.983812524402,37.5724814724983,http://place.map.kakao.com/12297218,,unknown,unknown,,0,0
27062841,CU 종로관훈점,"가정,생활 > 편의점 > CU",CS2,편의점,02-733-1207,서울 종로구 관훈동 198-17,서울 종로구 인사동7길 37,126.984654687449,37.5726689919345,http://place.map.kakao.com/27062841,,unknown,unknown,#카카오페이 #제로페이 ,1,5.0
12297192,GS25 종로낙원점,"가정,생활 > 편의점 > GS25",CS2,편의점,02-747-2535,서울 종로구 낙원동 230,서울 종로구 수표로 123-4,126.988621256241,37.5722657951174,http://place.map.kakao.com/12297192,,unknown,unknown,#카카오페이 #제로페이 ,3,1.7
16041817,CU 종로3가점,"가정,생활 > 편의점 > CU",CS2,편의점,02-763-7470,서울 종로구 낙원동 110,서울 종로구 돈화문로11길 38,126.989304916706,37.5726875247096,http://place.map.kakao.com/16041817,,unknown,unknown,#편의점택배 #포스트박스 #카카오페이 #제로페이 ,0,0
229476317,이마트24 종로낙원점,"가정,생활 > 편의점 > 이마트24",CS2,편의점,02-766-4345,서울 종로구 낙원동 136,서울 종로구 돈화문로11길 41,126.989115912584,37.5724199119134,http://place.map.kakao.com/229476317,,unknown,unknown,,2,5.0
8416493,세븐일레븐 S종로3가역점,"가정,생활 > 편의점 > 세븐일레븐",CS2,편의점,,서울 종로구 돈의동 39-1,서울 종로구 돈화문로11길 지하 26,126.99006110477345,37.57256865945283,http://place.map.kakao.com/8416493,,unknown,unknown,#제로페이 ,0,0
15891023,CU 종로묘동점,"가정,생활 > 편의점 > CU",CS2,편의점,02-3675-3339,서울 종로구 묘동 179,서울 종로구 돈화문로 41,126.99149538254451,37.57218945257403,http://place.map.kakao.com/15891023,,unknown,unknown,#카카오페이 #제로페이 ,1,5.0
7950673,세븐일레븐 종로3가역점,"가정,생활 > 편의점 > 세븐일레븐",CS2,편의점,,서울 종로구 돈의동 62,서울 종로구 돈화문로11길 9,126.990835406266,37.5724173549358,http://place.map.kakao.com/7950673,,unknown,unknown,#제로페이 ,0,0
25757620,GS25 종로내수점,"가정,생활 > 편의점 > GS25",CS2,편의점,02-2272-7283,서울 종로구 내수동 75,서울 종로구 새문안로3길 36,126.97294171488774,37.57330299077733,http://place.map.kakao.com/25757620,,unknown,unknown,#카카오페이 #제로페이 ,1,3.0
15750873,이마트24 광화문시대점,"가정,생활 > 편의점 > 이마트24",CS2,편의점,02-2195-4033,서울 종로구 내수동 74,서울 종로구 사직로8길 42,126.97328908553332,37.57373554741544,http://place.map.kakao.com/15750873,,unknown,unknown,,4,5.0
20689148,GS25 종로도렴점,"가정,생활 > 편의점 > GS25",CS2,편의점,02-6031-6123,서울 종로구 도렴동 65,서울 종로구 새문안로5길 31,126.9742039934002,37.57302937089548,http://place.map.kakao.com/20689148,,unknown,unknown,#카카오페이 #제로페이 ,3,3.7
20224293,세븐일레븐 광화문2호점,"가정,생활 > 편의점 > 세븐일레븐",CS2,편의점,,서울 종로구 내수동 4,서울 종로구 새문안로5가길 11,126.973868876851,37.5731572384719,http://place.map.kakao.com/20224293,,unknown,unknown,,0,0
19402247,세종편의점,"가정,생활 > 편의점",CS2,편의점,02-2264-7722,서울 종로구 세종로 80-1,서울 종로구 세종대로 지하 189,126.975897257312,37.5736730390972,http://place.map.kakao.com/19402247,,unknown,unknown,,0,0
19423830,세븐일레븐 아벤트리종로점,"가정,생활 > 편의점 > 세븐일레븐",CS2,편의점,,서울 종로구 견지동 65-1,서울 종로구 우정국로 46,126.983264510793,37.5730616368534,http://place.map.kakao.com/19423830,,unknown,unknown,,1,2.0
27498599,GS25 인사동마루점,"가정,생활 > 편의점 > GS25",CS2,편의점,,서울 종로구 관훈동 192-15,서울 종로구 인사동길 35-4,126.98486732294931,37.5735555983981,http://place.map.kakao.com/27498599,,unknown,unknown,,0,0
8379438,세븐일레븐 낙원점,"가정,생활 > 편의점 > 세븐일레븐",CS2,편의점,02-723-0478,서울 종로구 낙원동 280,서울 종로구 인사동4길 17,126.986959310571,37.5733396092523,http://place.map.kakao.com/8379438,,unknown,unknown,#카카오페이 #제로페이 ,0,0
815285715,GS25 종로플래티넘점,"가정,생활 > 편의점 > GS25",CS2,편의점,,서울 종로구 적선동 156,서울 종로구 새문안로5가길 28,126.97359673591,37.5744618184064,http://place.map.kakao.com/815285715,,unknown,unknown,,0,0
20176008,CU 종로K트윈타워점,"가정,생활 > 편의점 > CU",CS2,편의점,,서울 종로구 중학동 19,서울 종로구 종로1길 50,126.979021307654,37.5747259974761,http://place.map.kakao.com/20176008,,unknown,unknown,#편의점택배 #포스트박스 #카카오페이 #제로페이 ,0,0
1900080403,세븐일레븐 세종로점,"가정,생활 > 편의점 > 세븐일레븐",CS2,편의점,02-725-9120,서울 종로구 수송동 135,서울 종로구 종로1길 42-1,126.978668261898,37.5742137187117,http://place.map.kakao.com/1900080403,,unknown,unknown,,2,1.0
21930372,CU 연합미디어센터점,"가정,생활 > 편의점 > CU",CS2,편의점,02-730-9890,서울 종로구 수송동 110,서울 종로구 율곡로2길 25,126.980515670135,37.5743838755884,http://place.map.kakao.com/21930372,,unknown,unknown,#편의점택배 #포스트박스 #카카오페이 #제로페이 ,0,0
503408035,GS25 안녕인사동점,"가정,생활 > 편의점 > GS25",CS2,편의점,1644-5425,서울 종로구 관훈동 155-2,서울 종로구 인사동길 49,126.983553993714,37.574467229476,http://place.map.kakao.com/503408035,,unknown,unknown,#제로페이 ,0,0
27498590,GS25 종로익선점,"가정,생활 > 편의점 > GS25",CS2,편의점,02-765-1058,서울 종로구 익선동 34,서울 종로구 삼일대로30길 23,126.98891867405518,37.574257022172674,http://place.map.kakao.com/27498590,,unknown,unknown,#카카오페이 #제로페이 ,0,0
244647875,세븐일레븐 종로이비스점,"가정,생활 > 편의점 > 세븐일레븐",CS2,편의점,,서울 종로구 익선동 132-2,서울 종로구 삼일대로30길 32,126.989372628446,37.5741507465286,http://place.map.kakao.com/244647875,,unknown,unknown,,0,0
26775948,CU 종로글로벌점,"가정,생활 > 편의점 > CU",CS2,편의점,02-747-0301,서울 종로구 익선동 50,서울 종로구 삼일대로32가길 37,126.989694047144,37.5746877678904,http://place.map.kakao.com/26775948,,unknown,unknown,#카카오페이 #제로페이 ,1,5.0
1003067434,미니스톱 종로뉴익선점,"가정,생활 > 편의점 > 미니스톱",CS2,편의점,1577-9621,서울 종로구 와룡동 68,서울 종로구 돈화문로 66,126.99115551946386,37.5744473208414,http://place.map.kakao.com/1003067434,,unknown,unknown,,0,0
12297166,GS25 종로스페이스점,"가정,생활 > 편의점 > GS25",CS2,편의점,,서울 종로구 사직동 9,서울 종로구 사직로8길 4,126.969000538903,37.5749220102264,http://place.map.kakao.com/12297166,,unknown,unknown,#카카오페이 #제로페이 ,2,5.0
19204217,CU 생산성빌딩점,"가정,생활 > 편의점 > CU",CS2,편의점,02-720-8019,서울 종로구 적선동 122-1,서울 종로구 새문안로5가길 32,126.973506019724,37.5748978795063,http://place.map.kakao.com/19204217,,unknown,unknown,#편의점택배 #포스트박스 #카카오페이 #제로페이 ,0,0
49596632,GS25 트윈트리타워점,"가정,생활 > 편의점 > GS25",CS2,편의점,02-6016-6913,서울 종로구 중학동 14,서울 종로구 율곡로 6,126.98075651890989,37.57543897983453,http://place.map.kakao.com/49596632,,unknown,unknown,#카카오페이 #제로페이 ,1,5.0
12297214,GS25 종로로얄점,"가정,생활 > 편의점 > GS25",CS2,편의점,,서울 종로구 수송동 85,서울 종로구 율곡로2길 7,126.9809196309464,37.57505157863132,http://place.map.kakao.com/12297214,,unknown,unknown,,2,3.0
12297369,GS25 종로인사점,"가정,생활 > 편의점 > GS25",CS2,편의점,02-723-7869,서울 종로구 관훈동 144,서울 종로구 인사동길 59,126.983359141695,37.5751159183367,http://place.map.kakao.com/12297369,,unknown,unknown,#카카오페이 #제로페이 ,3,2.3
19729839,CU 종로사직공원점,"가정,생활 > 편의점 > CU",CS2,편의점,02-720-4140,서울 종로구 필운동 142,서울 종로구 사직로 95,126.969339568097,37.5763348581801,http://place.map.kakao.com/19729839,,unknown,unknown,#편의점택배 #포스트박스 #제로페이 ,3,5.0
18118093,세븐일레븐 종로내자점,"가정,생활 > 편의점 > 세븐일레븐",CS2,편의점,02-3284-8163,서울 종로구 내자동 111-1,서울 종로구 사직로 112,126.971259730408,37.5757983485776,http://place.map.kakao.com/18118093,,unknown,unknown,#카카오페이 #제로페이 ,0,0
8180148,CU 내자중앙점,"가정,생활 > 편의점 > CU",CS2,편의점,02-734-6136,서울 종로구 내자동 61-1,서울 종로구 사직로 121,126.97216406142664,37.576255369475625,http://place.map.kakao.com/8180148,,unknown,unknown,#편의점택배 #포스트박스 #카카오페이 #제로페이 ,5,3.4
125844235,세종편의점,"가정,생활 > 편의점",CS2,편의점,02-739-9027,서울 종로구 적선동 35-1,서울 종로구 사직로 135,126.973872425893,37.5759593327655,http://place.map.kakao.com/125844235,,unknown,unknown,,2,1.0
10478987,세븐일레븐 종로허브점,"가정,생활 > 편의점 > 세븐일레븐",CS2,편의점,02-734-0711,서울 종로구 경운동 89-4,서울 종로구 삼일대로 461,126.98550082337964,37.57574149104632,http://place.map.kakao.com/10478987,,unknown,unknown,#카카오페이 #제로페이 ,2,5.0
266062317,CU 현대재동점,"가정,생활 > 편의점 > CU",CS2,편의점,,서울 종로구 경운동 96-18,서울 종로구 율곡로 58,126.98577351609676,37.57641997306833,http://place.map.kakao.com/266062317,,unknown,unknown,,0,0
27151836,세븐일레븐 종로호스텔코리아점,"가정,생활 > 편의점 > 세븐일레븐",CS2,편의점,,서울 종로구 와룡동 140-2,서울 종로구 돈화문로 85,126.990259884867,37.5760284958904,http://place.map.kakao.com/27151836,,unknown,unknown,,0,0
8371712,세븐일레븐 종로배화점,"가정,생활 > 편의점 > 세븐일레븐",CS2,편의점,02-736-0996,서울 종로구 필운동 163,서울 종로구 필운대로 12,126.969429800551,37.5771457765001,http://place.map.kakao.com/8371712,,unknown,unknown,#카카오페이 #제로페이 ,2,5.0
12297212,GS25 종로안국점,"가정,생활 > 편의점 > GS25",CS2,편의점,02-764-0711,서울 종로구 재동 104-1,서울 종로구 율곡로 61,126.985912660418,37.5769398635178,http://place.map.kakao.com/12297212,,unknown,unknown,#카카오페이 #제로페이 ,1,5.0
16732961,CU 종로창덕궁점,"가정,생활 > 편의점 > CU",CS2,편의점,02-741-5056,서울 종로구 운니동 16,서울 종로구 율곡로6길 15,126.989394924815,37.5765762259812,http://place.map.kakao.com/16732961,,unknown,unknown,#편의점택배 #포스트박스 #카카오페이 #제로페이 ,0,0
27498596,GS25 종로운현점,"가정,생활 > 편의점 > GS25",CS2,편의점,1644-5425,서울 종로구 운니동 98-5,서울 종로구 율곡로 88,126.98869755549,37.576738340264,http://place.map.kakao.com/27498596,,unknown,unknown,#카카오페이 #제로페이 ,0,0
27386888,CU 종로배화점,"가정,생활 > 편의점 > CU",CS2,편의점,02-720-2976,서울 종로구 필운동 41,서울 종로구 필운대로1길 36,126.96753778666094,37.57792553238057,http://place.map.kakao.com/27386888,,unknown,unknown,#카카오페이 #제로페이 ,0,0
12297185,GS25 종로사직점,"가정,생활 > 편의점 > GS25",CS2,편의점,,서울 종로구 체부동 37-1,서울 종로구 자하문로 19-1,126.971757073159,37.5777986760692,http://place.map.kakao.com/12297185,,unknown,unknown,#카카오페이 #제로페이 ,6,1.7
1818787041,세븐일레븐 종로서촌점,"가정,생활 > 편의점 > 세븐일레븐",CS2,편의점,02-738-7470,서울 종로구 통의동 66,서울 종로구 자하문로 18-1,126.972327630607,37.5778168310795,http://place.map.kakao.com/1818787041,,unknown,unknown,#카카오페이 #제로페이 ,1,1.0
884705121,세븐일레븐 경복궁점,"가정,생활 > 편의점 > 세븐일레븐",CS2,편의점,,서울 종로구 사간동 69,서울 종로구 삼청로 22,126.97983890391563,37.57790845229228,http://place.map.kakao.com/884705121,,unknown,unknown,,1,4.0
26896348,CU 계동현대점,"가정,생활 > 편의점 > CU",CS2,편의점,02-741-6515,서울 종로구 계동 143-1,서울 종로구 계동길 19,126.98660184624462,37.57826800927254,http://place.map.kakao.com/26896348,,unknown,unknown,#카카오페이 #제로페이 ,1,5.0
1073728381,GS25 배화여대점,"가정,생활 > 편의점 > GS25",CS2,편의점,,서울 종로구 누하동 149,서울 종로구 필운대로1길 34,126.966863814016,37.5788029133735,http://place.map.kakao.com/1073728381,,unknown,unknown,,0,0
26896481,CU 창덕궁돌담길점,"가정,생활 > 편의점 > CU",CS2,편의점,02-764-2203,서울 종로구 원서동 155,서울 종로구 창덕궁길 31,126.989086669169,37.5788863470963,http://place.map.kakao.com/26896481,,unknown,unknown,#카카오페이 #제로페이 ,7,4.4
12297168,GS25 종로누하점,"가정,생활 > 편의점 > GS25",CS2,편의점,,서울 종로구 누하동 57-2,서울 종로구 필운대로 39,126.968631834269,37.5795169836555,http://place.map.kakao.com/12297168,,unknown,unknown,#카카오페이 #제로페이 ,1,1.0
1580241676,이마트24 정독천수점,"가정,생활 > 편의점 > 이마트24",CS2,편의점,02-733-9163,서울 종로구 소격동 144-17,서울 종로구 북촌로5길 52,126.982139991629,37.5796567513441,http://place.map.kakao.com/1580241676,,unknown,unknown,#카카오페이 #제로페이 ,2,2.5
799869189,세븐일레븐 종로재동점,"가정,생활 > 편의점 > 세븐일레븐",CS2,편의점,,서울 종로구 재동 12,서울 종로구 북촌로5길 4,126.984739320175,37.5795237688919,http://place.map.kakao.com/799869189,,unknown,unknown,,0,0
1294711345,GS25 계동중앙점,"가정,생활 > 편의점 > GS25",CS2,편의점,,서울 종로구 계동 86,서울 종로구 계동길 61,126.986559640276,37.5800429626774,http://place.map.kakao.com/1294711345,,unknown,unknown,,1,5.0
560672324,이마트24 종로타워점,"가정,생활 > 편의점 > 이마트24",CS2,편의점,02-3210-2443,서울 종로구 계동 117-1,서울 종로구 계동길 51,126.98661859104502,37.57958886844374,http://place.map.kakao.com/560672324,,unknown,unknown,,0,0
143435952,세븐일레븐 종로누상점,"가정,생활 > 편의점 > 세븐일레븐",CS2,편의점,,서울 종로구 누상동 17,서울 종로구 옥인3길 2-1,126.966362457217,37.5809687608306,http://place.map.kakao.com/143435952,,unknown,unknown,,0,0
27498598,GS25 세종마을점,"가정,생활 > 편의점 > GS25",CS2,편의점,,서울 종로구 누하동 77-5,서울 종로구 옥인길 3,126.968273695341,37.5804503175792,http://place.map.kakao.com/27498598,,unknown,unknown,,1,1.0
1764227380,CU 종로옥인점,"가정,생활 > 편의점 > CU",CS2,편의점,02-732-5551,서울 종로구 옥인동 37,서울 종로구 자하문로17길 40,126.968544963978,37.5814919388975,http://place.map.kakao.com/1764227380,,unknown,unknown,#카카오페이 #제로페이 ,1,5.0
18118279,세븐일레븐 종로창성점,"가정,생활 > 편의점 > 세븐일레븐",CS2,편의점,02-732-6676,서울 종로구 창성동 160,서울 종로구 자하문로 60,126.971166982533,37.5814637766646,http://place.map.kakao.com/18118279,,unknown,unknown,#카카오페이 #제로페이 ,1,5.0
1249602349,이마트24 삼청동점,"가정,생활 > 편의점 > 이마트24",CS2,편의점,070-7700-2750,서울 종로구 화동 61,서울 종로구 삼청로 68,126.981387782092,37.5816460293998,http://place.map.kakao.com/1249602349,,unknown,unknown,,20,3.3
15908948,CU 종로가회점,"가정,생활 > 편의점 > CU",CS2,편의점,070-8874-5050,서울 종로구 가회동 28,서울 종로구 북촌로 52,126.985246106749,37.5815168316084,http://place.map.kakao.com/15908948,,unknown,unknown,#편의점택배 #포스트박스 #카카오페이 #제로페이 ,0,0
