id,place_name,category_name,category_group_code,category_group_name,phone,address_name,road_address_name,x,y,place_url,distance,wheelchair,animal,keyword,evalnum,rate
22580427,갤러리 터치,"문화,예술 > 문화시설 > 미술관",CT1,문화시설,02-776-7177,서울 중구 순화동 151,서울 중구 칠패로 27,126.971899447233,37.5604311202839,http://place.map.kakao.com/22580427,,unknown,unknown,,0,0
473196625,HSBC코리아 역사전시관,"문화,예술 > 문화시설 > 전시관",CT1,문화시설,,서울 중구 봉래동1가 25,서울 중구 칠패로 37,126.973043840354,37.5600583743983,http://place.map.kakao.com/473196625,,unknown,unknown,,0,0
27539583,알파갤러리 남대문본점,"문화,예술 > 문화시설 > 전시관",CT1,문화시설,02-784-1420,서울 중구 남대문로4가 20-6,서울 중구 남대문로 6-2,126.976517248875,37.5603636532762,http://place.map.kakao.com/27539583,,unknown,unknown,,0,0
1056662001,신세계 메사홀,"문화,예술 > 문화시설 > 공연장,연극극장",CT1,문화시설,,서울 중구 회현동1가 204,서울 중구 남대문시장10길 2,126.979600290562,37.5603750381813,http://place.map.kakao.com/1056662001,,unknown,unknown,,0,0
1919634876,소년24 전용관,"문화,예술 > 문화시설 > 공연장,연극극장",CT1,문화시설,,서울 중구 회현동1가 204,서울 중구 남대문시장10길 2,126.979600290562,37.5603750381813,http://place.map.kakao.com/1919634876,,unknown,unknown,,0,0
27380654,비디갤러리,"문화,예술 > 문화시설 > 미술관",CT1,문화시설,02-3789-3872,서울 중구 남산동2가 6-2,서울 중구 퇴계로18길 9,126.985630554983,37.5604227779338,http://place.map.kakao.com/27380654,,unknown,unknown,,0,0
27384220,아트팩토리,"문화,예술 > 문화시설 > 미술관",CT1,문화시설,02-318-1054,서울 중구 남산동3가 13-10,서울 중구 퇴계로22길 11-11,126.987020395571,37.5605418704917,http://place.map.kakao.com/27384220,,unknown,unknown,,0,0
1613673516,이회영기념관,"문화,예술 > 문화시설 > 기념관",CT1,문화시설,02-755-0610,서울 중구 예장동 4-1,서울 중구 퇴계로26길 36,126.988930989999,37.5598789313451,http://place.map.kakao.com/1613673516,,unknown,unknown,,7,5.0
198489475,서소문성지역사박물관,"문화,예술 > 문화시설 > 박물관",CT1,문화시설,02-3147-2401,서울 중구 의주로2가 16-74,서울 중구 칠패로 5,126.969753428448,37.5607008890665,http://place.map.kakao.com/198489475,,unknown,unknown,,34,4.6
417291326,서소문역사공원 하늘광장,"문화,예술 > 문화시설 > 기념관",CT1,문화시설,,서울 중구 의주로2가 16-72,서울 중구 칠패로 5,126.96970703725184,37.560668441287646,http://place.map.kakao.com/417291326,,unknown,unknown,,0,0
1546828547,헬스케어 이노지움,"문화,예술 > 문화시설 > 전시관",CT1,문화시설,070-7791-0777,서울 중구 서소문동 135,서울 중구 세종대로9길 41,126.97294486719,37.5614585007978,http://place.map.kakao.com/1546828547,,unknown,unknown,,0,0
1529469311,우정아트센터,"문화,예술 > 문화시설 > 미술관",CT1,문화시설,,서울 중구 태평로2가 150,서울 중구 세종대로 55,126.975353459553,37.5612463929388,http://place.map.kakao.com/1529469311,,unknown,unknown,,0,0
8534402,자연문화원,"문화,예술 > 문화시설 > 문화원",CT1,문화시설,02-777-1949,서울 중구 태평로2가 120,서울 중구 세종대로9길 20,126.974565752434,37.5611272943056,http://place.map.kakao.com/8534402,,unknown,unknown,,0,0
1768178995,벤로갤러리,"문화,예술 > 문화시설 > 전시관",CT1,문화시설,02-775-6681,서울 중구 남대문로4가 17-11,서울 중구 남대문로 5,126.976403935112,37.5607852972062,http://place.map.kakao.com/1768178995,,unknown,unknown,,0,0
219549773,갤러리둥지향,"문화,예술 > 문화시설 > 미술관",CT1,문화시설,,서울 중구 북창동 136,서울 중구 남대문로1길 2,126.977725751443,37.5612648842607,http://place.map.kakao.com/219549773,,unknown,unknown,,0,0
8124121,신세계백화점 본점 트리니티가든,"문화,예술 > 문화시설 > 전시관",CT1,문화시설,1588-1234,서울 중구 충무로1가 52-5,서울 중구 소공로 63,126.98099342039498,37.56087081893026,http://place.map.kakao.com/8124121,,unknown,unknown,,1,1.0
27572008,CGV 명동역 씨네라이브러리,"문화,예술 > 영화,영상 > 영화관 > CJCGV",CT1,문화시설,1544-1122,서울 중구 충무로2가 65-9,서울 중구 퇴계로 123,126.98543344554172,37.56132014660064,http://place.map.kakao.com/27572008,,unknown,unknown,#카카오페이 ,22,3.8
12363499,명동갤러리,"문화,예술 > 문화시설 > 미술관",CT1,문화시설,02-771-2026,서울 중구 충무로2가 65-6,서울 중구 퇴계로 127,126.985856772319,37.5611868505512,http://place.map.kakao.com/12363499,,unknown,unknown,,0,0
21397600,세종갤러리,"문화,예술 > 문화시설 > 미술관",CT1,문화시설,02-3705-9021,서울 중구 충무로2가 61-3,서울 중구 퇴계로 145,126.988120390747,37.5613276555049,http://place.map.kakao.com/21397600,,unknown,unknown,,0,0
1808729449,에이피숍,"문화,예술 > 문화시설 > 전시관",CT1,문화시설,,서울 중구 북창동 93-3,서울 중구 남대문로5길 9,126.978861964809,37.5617444233961,http://place.map.kakao.com/1808729449,,unknown,unknown,,0,0
8691199,한국은행 화폐박물관,"문화,예술 > 문화시설 > 박물관",CT1,문화시설,02-759-4114,서울 중구 남대문로3가 110,서울 중구 남대문로 39,126.980523397494,37.5620978998462,http://place.map.kakao.com/8691199,,unknown,unknown,,17,4.1
11562199,우표박물관,"문화,예술 > 문화시설 > 박물관",CT1,문화시설,02-6450-5600,서울 중구 충무로1가 21-1,서울 중구 소공로 70,126.98208990250843,37.56190353259943,http://place.map.kakao.com/11562199,,unknown,unknown,,2,4.5
17736569,3D블랙아트,"문화,예술 > 문화시설 > 전시관",CT1,문화시설,,서울 중구 충무로2가 11-1,서울 중구 명동8가길 27,126.98656288194871,37.562001434040376,http://place.map.kakao.com/17736569,,unknown,unknown,,0,0
10060067,에스페란토문화원,"문화,예술 > 문화시설 > 문화원",CT1,문화시설,,서울 중구 충무로2가 12-3,서울 중구 삼일대로 305,126.988591127242,37.5619944394818,http://place.map.kakao.com/10060067,,unknown,unknown,,0,0
1433905427,미루갤러리,"문화,예술 > 문화시설 > 미술관",CT1,문화시설,,서울 중구 충무로3가 59-12,서울 중구 수표로2길 1,126.990637458032,37.5621748188141,http://place.map.kakao.com/1433905427,,unknown,unknown,,0,0
1588455849,ACSkr,"문화,예술 > 문화시설 > 공연장,연극극장",CT1,문화시설,,서울 중구 충무로3가 58-13,서울 중구 수표로6길 10,126.990956568944,37.5627262535897,http://place.map.kakao.com/1588455849,,unknown,unknown,,1,5.0
17201964,KT&G상상유니브 아틀리에서울,"문화,예술 > 문화시설 > 공연장,연극극장",CT1,문화시설,02-362-9826,서울 서대문구 미근동 21-1,서울 서대문구 충정로 60,126.96615169243752,37.56388133027521,http://place.map.kakao.com/17201964,,unknown,unknown,,0,0
1132087621,아트스페이스 선,"문화,예술 > 문화시설 > 미술관",CT1,문화시설,,서울 중구 순화동 1-170,서울 중구 통일로 92,126.969207826134,37.5636172739774,http://place.map.kakao.com/1132087621,,unknown,unknown,,0,0
1776946794,갤러리 선,"문화,예술 > 문화시설 > 전시관",CT1,문화시설,,서울 중구 순화동 1-170,서울 중구 통일로 92,126.969222539533,37.5636190798066,http://place.map.kakao.com/1776946794,,unknown,unknown,,0,0
27375424,영국문화원 분사무소,"문화,예술 > 문화시설 > 문화원",CT1,문화시설,02-3702-0601,서울 중구 정동 34-5,서울 중구 서소문로11길 19,126.972079267039,37.5638333260871,http://place.map.kakao.com/27375424,,unknown,unknown,,0,0
12692417,배재학당역사박물관,"문화,예술 > 문화시설 > 박물관",CT1,문화시설,02-319-5578,서울 중구 정동 34-5,서울 중구 서소문로11길 19,126.972599859421,37.5640064393478,http://place.map.kakao.com/12692417,,unknown,unknown,,7,4.9
10507051,서울시립미술관 서소문본관,"문화,예술 > 문화시설 > 미술관",CT1,문화시설,02-2124-8800,서울 중구 서소문동 37,서울 중구 덕수궁길 61,126.973790543874,37.5641076212639,http://place.map.kakao.com/10507051,,unknown,unknown,,60,2.8
13559605,일우스페이스,"문화,예술 > 문화시설 > 미술관",CT1,문화시설,,서울 중구 서소문동 41-3,서울 중구 서소문로 117,126.974171070572,37.5634697997132,http://place.map.kakao.com/13559605,,unknown,unknown,#미술전시 #사진전시 #아이와체험 ,1,1.0
25121674,CGV 명동,"문화,예술 > 영화,영상 > 영화관 > CJCGV",CT1,문화시설,1544-1122,서울 중구 명동2가 83-5,서울 중구 명동길 14,126.982583010911,37.5634929642429,http://place.map.kakao.com/25121674,,unknown,unknown,#데이트코스 #카카오페이 ,27,2.6
12526895,명동난타극장,"문화,예술 > 문화시설 > 공연장,연극극장",CT1,문화시설,02-739-8288,서울 중구 명동2가 50-14,서울 중구 명동길 26,126.983751090997,37.5634679028825,http://place.map.kakao.com/12526895,,unknown,unknown,,0,0
5687647,주한리스트헝가리문화원,"문화,예술 > 문화시설 > 문화원",CT1,문화시설,02-3789-2106,서울 중구 명동2가 50-14,서울 중구 명동길 26,126.98375788486504,37.56345528986756,http://place.map.kakao.com/5687647,,unknown,unknown,,1,5.0
10883126,펑키하우스,"문화,예술 > 문화시설 > 공연장,연극극장",CT1,문화시설,02-778-0454,서울 중구 명동2가 50-14,서울 중구 명동길 26,126.983751099608,37.5634282590415,http://place.map.kakao.com/10883126,,unknown,unknown,,0,0
860220539,천주교 서울대교구 역사관,"문화,예술 > 문화시설 > 박물관",CT1,문화시설,02-6949-1890,서울 중구 명동2가 1-1,서울 중구 명동길 74,126.986467540083,37.5634826614344,http://place.map.kakao.com/860220539,,unknown,unknown,,0,0
7926624,삼일로창고극장,"문화,예술 > 문화시설 > 공연장,연극극장",CT1,문화시설,02-3789-9640,서울 중구 저동1가 20-2,서울 중구 삼일대로9길 12,126.987984230554,37.5634539936501,http://place.map.kakao.com/7926624,,unknown,unknown,#문화예술공간 #뮤지컬공연 #사진전시 #소극장 #제로페이 ,0,0
27184424,서울중부경찰서 역사박물관,"문화,예술 > 문화시설 > 박물관",CT1,문화시설,,서울 중구 저동2가 62-1,서울 중구 수표로 27,126.989582377239,37.5636848005606,http://place.map.kakao.com/27184424,,unknown,unknown,,0,0
7856720,서울유관순기념관,"문화,예술 > 문화시설 > 기념관",CT1,문화시설,02-752-3363,서울 중구 순화동 1-1,서울 중구 통일로4길 30-1,126.970299752309,37.5644131334488,http://place.map.kakao.com/7856720,,unknown,unknown,#아이와체험 ,8,5.0
8360981,서울시종합자료관,"문화,예술 > 문화시설 > 박물관",CT1,문화시설,,서울 중구 서소문동 37,서울 중구 덕수궁길 15,126.975664810631,37.5644179651838,http://place.map.kakao.com/8360981,,unknown,unknown,,0,0
11082743,롯데시네마 에비뉴엘,"문화,예술 > 영화,영상 > 영화관 > 롯데시네마",CT1,문화시설,1544-8855,서울 중구 소공동 7,서울 중구 남대문로 73,126.981844846266,37.5642965417763,http://place.map.kakao.com/11082743,,unknown,unknown,#카카오페이 ,17,2.2
516939602,그라운드시소 명동,"문화,예술 > 문화시설 > 전시관",CT1,문화시설,02-501-9544,서울 중구 소공동 7,서울 중구 남대문로 73,126.981629814472,37.5642028049001,http://place.map.kakao.com/516939602,,unknown,unknown,#문화예술공간 #미디어아트 #사진전시 #아이와체험 #전시회 ,5,3.6
346533948,롯데백화점 롯데문화홀,"문화,예술 > 문화시설 > 공연장,연극극장",CT1,문화시설,,서울 중구 소공동 1,서울 중구 남대문로 81,126.981772300502,37.5647326127814,http://place.map.kakao.com/346533948,,unknown,unknown,,0,0
7933607,서울YWCA 마루홀,"문화,예술 > 문화시설 > 공연장,연극극장",CT1,문화시설,02-3705-6023,서울 중구 명동1가 1-1,서울 중구 명동11길 20,126.986177523488,37.5648989940215,http://place.map.kakao.com/7933607,,unknown,unknown,#제로페이 ,0,0
27144847,이제홀,"문화,예술 > 문화시설 > 공연장,연극극장",CT1,문화시설,,서울 서대문구 충정로2가 35,서울 서대문구 충정로11길 20,126.965260134214,37.5655686371535,http://place.map.kakao.com/27144847,,unknown,unknown,,0,0
16761236,NH아트홀,"문화,예술 > 문화시설 > 공연장,연극극장",CT1,문화시설,,서울 중구 충정로1가 85,서울 중구 통일로 120,126.96767772388,37.5658468305612,http://place.map.kakao.com/16761236,,unknown,unknown,,0,0
23882476,스크랜톤기념관,"문화,예술 > 문화시설 > 기념관",CT1,문화시설,,서울 중구 순화동 1-1,서울 중구 통일로4길 30,126.968863987366,37.5657462378162,http://place.map.kakao.com/23882476,,unknown,unknown,,0,0
8060966,국립정동극장,"문화,예술 > 문화시설 > 공연장,연극극장",CT1,문화시설,02-751-1500,서울 중구 정동 8-11,서울 중구 정동길 43,126.972775755916,37.5658589281598,http://place.map.kakao.com/8060966,,unknown,unknown,#문화예술공간 #뮤지컬공연 #소극장 #인형극 #제로페이 ,7,4.0
286548081,정동극장 야외마당,"문화,예술 > 문화시설 > 공연장,연극극장",CT1,문화시설,02-751-1500,서울 중구 정동 8-11,서울 중구 정동길 43,126.972811963329,37.5658949763444,http://place.map.kakao.com/286548081,,unknown,unknown,,0,0
7836503,국립현대미술관 덕수궁관,"문화,예술 > 문화시설 > 미술관",CT1,문화시설,02-2022-0600,서울 중구 정동 5-1,서울 중구 세종대로 99,126.973740099183,37.5659384342432,http://place.map.kakao.com/7836503,,y,n,,21,3.8
8709445,궁중유물전시관,"문화,예술 > 문화시설 > 전시관",CT1,문화시설,02-771-9951,서울 중구 정동 5-1,서울 중구 세종대로 99,126.974890221394,37.5655818900246,http://place.map.kakao.com/8709445,,unknown,unknown,,1,3.0
674090659,스페이스mm,"문화,예술 > 문화시설 > 전시관",CT1,문화시설,010-7107-2244,서울 중구 을지로1가 200,서울 중구 을지로 지하 12,126.9792320671494,37.56584222049173,http://place.map.kakao.com/674090659,,unknown,unknown,#아이와체험 ,2,4.5
17434294,롯데호텔서울 크리스탈볼룸,"문화,예술 > 문화시설 > 공연장,연극극장",CT1,문화시설,,서울 중구 을지로1가 180-6,서울 중구 을지로 30,126.981364675044,37.565338018568,http://place.map.kakao.com/17434294,,unknown,unknown,,0,0
24662500,하나은행 화폐전시관,"문화,예술 > 문화시설 > 전시관",CT1,문화시설,,서울 중구 을지로2가 181,서울 중구 을지로 66,126.984810047607,37.5657313464227,http://place.map.kakao.com/24662500,,unknown,unknown,,0,0
302810594,빈칸 을지로점,"문화,예술 > 문화시설 > 전시관",CT1,문화시설,,서울 중구 을지로3가 344-9,서울 중구 수표로 48-12,126.99046046756378,37.56550128320129,http://place.map.kakao.com/302810594,,unknown,unknown,,2,4.5
250480530,네이처리듬,"문화,예술 > 문화시설 > 전시관",CT1,문화시설,,서울 중구 을지로3가 344-4,서울 중구 수표로 48-7,126.990388008822,37.5656418327148,http://place.map.kakao.com/250480530,,unknown,unknown,,0,0
8226363,농업박물관,"문화,예술 > 문화시설 > 박물관",CT1,문화시설,02-2080-5727,서울 중구 충정로1가 75-1,서울 중구 새문안로 16,126.968329319115,37.5667299831859,http://place.map.kakao.com/8226363,,unknown,unknown,,3,4.3
17059143,농협중앙회 쌀박물관,"문화,예술 > 문화시설 > 박물관",CT1,문화시설,02-2080-5727,서울 중구 충정로1가 81-3,서울 중구 새문안로 16,126.96778386357435,37.56644602189297,http://place.map.kakao.com/17059143,,unknown,unknown,,0,0
8557277,이화박물관,"문화,예술 > 문화시설 > 박물관",CT1,문화시설,02-2175-1964,서울 중구 정동 32-1,서울 중구 정동길 26,126.97144909650876,37.56607665581958,http://place.map.kakao.com/8557277,,unknown,unknown,,1,5.0
23883210,이화여자고등학교 심슨기념관,"문화,예술 > 문화시설 > 기념관",CT1,문화시설,,서울 중구 정동 32-1,서울 중구 정동길 26,126.971326813943,37.5661757357425,http://place.map.kakao.com/23883210,,unknown,unknown,,2,5.0
7836503,국립현대미술관 덕수궁관,"문화,예술 > 문화시설 > 미술관",CT1,문화시설,02-2022-0600,서울 중구 정동 5-1,서울 중구 세종대로 99,126.973740099183,37.5659384342432,http://place.map.kakao.com/7836503,,y,n,,21,3.8
23254869,덕수궁 구이왕가미술관신관,"문화,예술 > 문화시설 > 미술관",CT1,문화시설,,서울 중구 정동 5-1,서울 중구 세종대로 99,126.973744616633,37.5659672671204,http://place.map.kakao.com/23254869,,unknown,unknown,,0,0
11731415,세실극장 (2022년7월예정),"문화,예술 > 문화시설 > 공연장,연극극장",CT1,문화시설,,서울 중구 정동 3-7,서울 중구 세종대로19길 16,126.97590401119,37.5667642080192,http://place.map.kakao.com/11731415,,unknown,unknown,,0,0
1447993960,서울특별시청 하늘광장갤러리,"문화,예술 > 문화시설 > 전시관",CT1,문화시설,,서울 중구 태평로1가 31,서울 중구 세종대로 110,126.978485896684,37.5667268649198,http://place.map.kakao.com/1447993960,,unknown,unknown,,0,0
1339609715,시민청 군기시유적전시실,"문화,예술 > 문화시설 > 전시관",CT1,문화시설,,서울 중구 태평로1가 31,서울 중구 세종대로 110,126.978656789016,37.5668151935356,http://place.map.kakao.com/1339609715,,unknown,unknown,,1,5.0
26781276,그레뱅뮤지엄,"문화,예술 > 문화시설 > 박물관",CT1,문화시설,02-752-8201,서울 중구 을지로1가 63,서울 중구 을지로 23,126.980391001423,37.5663073326083,http://place.map.kakao.com/26781276,,unknown,unknown,#뮤지컬공연 #아이와체험 #전시공간 #트릭아이뮤지엄 ,1,1.0
12697270,미래기술 체험관 티움,"문화,예술 > 문화시설 > 전시관",CT1,문화시설,02-6353-6665,서울 중구 을지로2가 11,서울 중구 을지로 65,126.985099651856,37.5665314677789,http://place.map.kakao.com/12697270,,unknown,unknown,,3,3.0
598343139,공간형,"문화,예술 > 문화시설 > 전시관",CT1,문화시설,,서울 중구 을지로2가 101-2,서울 중구 을지로 105,126.989550300605,37.5664382420232,http://place.map.kakao.com/598343139,,unknown,unknown,,0,0
27504840,무한상상실,"문화,예술 > 문화시설 > 전시관",CT1,문화시설,,서울 종로구 평동 85-15,서울 종로구 경교장길 8,126.966305169434,37.5674069717004,http://place.map.kakao.com/27504840,,unknown,unknown,,0,0
8987923,문화일보홀,"문화,예술 > 문화시설 > 공연장,연극극장",CT1,문화시설,02-3701-5832,서울 중구 충정로1가 68,서울 중구 새문안로 22,126.968646123861,37.567036406339,http://place.map.kakao.com/8987923,,unknown,unknown,,1,5.0
13498855,청춘극장,"문화,예술 > 영화,영상 > 영화관",CT1,문화시설,02-739-5423,서울 중구 충정로1가 68,서울 중구 새문안로 22,126.968664210245,37.5670940748742,http://place.map.kakao.com/13498855,,unknown,unknown,#문화예술공간 #제로페이 ,0,0
17066572,아주갤러리,"문화,예술 > 문화시설 > 미술관",CT1,문화시설,02-767-1621,서울 중구 충정로1가 58-3,서울 중구 새문안로 26,126.968804413732,37.5674617182909,http://place.map.kakao.com/17066572,,unknown,unknown,,0,0
1610551587,국토발전전시관,"문화,예술 > 문화시설 > 전시관",CT1,문화시설,02-3425-8900,서울 중구 정동 28-5,서울 중구 정동길 18,126.97008485950153,37.56683765958173,http://place.map.kakao.com/1610551587,,unknown,unknown,,8,4.0
8060842,정동문화예술회관 정동A&C,"문화,예술 > 문화시설 > 공연장,연극극장",CT1,문화시설,02-778-9817,서울 중구 정동 15-5,서울 중구 정동길 21-15,126.970964056141,37.5675956165668,http://place.map.kakao.com/8060842,,unknown,unknown,,0,0
1677777616,성암고서박물관,"문화,예술 > 문화시설 > 박물관",CT1,문화시설,02-725-5227,서울 중구 태평로1가 60-17,서울 중구 세종대로21길 22,126.97604409037,37.5676291925203,http://place.map.kakao.com/1677777616,,unknown,unknown,,0,0
107324777,서울도시건축전시관,"문화,예술 > 문화시설 > 전시관",CT1,문화시설,02-736-8050,서울 중구 태평로1가 60-6,서울 중구 세종대로 119,126.97670535593808,37.56690492421112,http://place.map.kakao.com/107324777,,unknown,unknown,,6,4.3
748166001,서울시민청 바스락홀,"문화,예술 > 문화시설 > 공연장,연극극장",CT1,문화시설,02-739-5225,서울 중구 태평로1가 31,서울 중구 세종대로 110,126.978563388844,37.5668778859271,http://place.map.kakao.com/748166001,,unknown,unknown,,0,0
1534626313,아트스페이스호화,"문화,예술 > 문화시설 > 전시관",CT1,문화시설,,서울 중구 태평로1가 25,서울 중구 세종대로 124,126.977873331336,37.5674205185068,http://place.map.kakao.com/1534626313,,unknown,unknown,,0,0
18809282,페럼타워 페럼홀,"문화,예술 > 문화시설 > 공연장,연극극장",CT1,문화시설,02-6353-8558,서울 중구 수하동 66,서울 중구 을지로5길 19,126.984130644256,37.5670034633584,http://place.map.kakao.com/18809282,,unknown,unknown,,0,0
27510328,KF갤러리,"문화,예술 > 문화시설 > 전시관",CT1,문화시설,,서울 중구 수하동 67,서울 중구 을지로5길 26,126.985475302407,37.5672559152847,http://place.map.kakao.com/27510328,,unknown,unknown,,0,0
8091032,중구문화원,"문화,예술 > 문화시설 > 문화원",CT1,문화시설,02-775-3068(팩스),서울 중구 장교동 1,서울 중구 청계천로 86,126.986525668878,37.5675227345974,http://place.map.kakao.com/8091032,,unknown,unknown,,1,3.0
536646213,서울도시건축센터,"문화,예술 > 문화시설 > 전시관",CT1,문화시설,02-739-2974,서울 종로구 신문로2가 6,서울 종로구 송월길 2,126.968745126477,37.5684852337187,http://place.map.kakao.com/536646213,,unknown,unknown,#문화예술공간 #아이와체험 ,1,5.0
1766344793,서울 도시재생이야기관,"문화,예술 > 문화시설 > 전시관",CT1,문화시설,070-4160-3963,서울 종로구 신문로2가 6,서울 종로구 송월길 2,126.96874510690012,37.56853208548537,http://place.map.kakao.com/1766344793,,unknown,unknown,,2,5.0
26606071,서울아트시네마,"문화,예술 > 영화,영상 > 영화관",CT1,문화시설,02-741-9782,서울 중구 정동 22,서울 중구 정동길 3,126.96997000422864,37.56816479719067,http://place.map.kakao.com/26606071,,unknown,unknown,,16,4.7
8118857,경향아트힐,"문화,예술 > 문화시설 > 공연장,연극극장",CT1,문화시설,,서울 중구 정동 22,서울 중구 정동길 3,126.970044695457,37.5682044599751,http://place.map.kakao.com/8118857,,unknown,unknown,,5,1.8
27144632,롤링볼뮤지엄,"문화,예술 > 문화시설 > 박물관",CT1,문화시설,,서울 중구 정동 22,서울 중구 정동길 3,126.970003953332,37.5681864297172,http://place.map.kakao.com/27144632,,unknown,unknown,,0,0
2102995894,허리우드스카이쇼공연장,"문화,예술 > 문화시설 > 공연장,연극극장",CT1,문화시설,02-762-7870,서울 중구 정동 22-8,서울 중구 정동길 3,126.97023041601506,37.56799187197225,http://place.map.kakao.com/2102995894,,unknown,unknown,,0,0
14867118,밸루션,"문화,예술 > 문화시설 > 전시관",CT1,문화시설,02-1544-3852,서울 중구 정동 22,서울 중구 정동길 3,126.969990376002,37.5681720103361,http://place.map.kakao.com/14867118,,unknown,unknown,,0,0
1631116379,구세군역사박물관,"문화,예술 > 문화시설 > 박물관",CT1,문화시설,02-725-1180,서울 중구 정동 1-23,서울 중구 덕수궁길 130,126.973843530088,37.5679494799678,http://place.map.kakao.com/1631116379,,unknown,unknown,,0,0
12110587,한국금융사박물관 (휴관중),"문화,예술 > 문화시설 > 박물관",CT1,문화시설,02-2151-7677,서울 중구 태평로1가 62-12,서울 중구 세종대로 135-5,126.976410528269,37.568591529702,http://place.map.kakao.com/12110587,,unknown,unknown,#아이와체험 ,2,4.5
8064435,신한갤러리 광화문,"문화,예술 > 문화시설 > 미술관",CT1,문화시설,02-722-8493,서울 중구 태평로1가 62-12,서울 중구 세종대로 135-5,126.9763516826,37.5685446661572,http://place.map.kakao.com/8064435,,unknown,unknown,,0,0
910453874,CKL스테이지,"문화,예술 > 문화시설 > 공연장,연극극장",CT1,문화시설,02-6441-3951,서울 중구 다동 10,서울 중구 청계천로 40,126.981318589692,37.5685815964224,http://place.map.kakao.com/910453874,,unknown,unknown,#뮤지컬공연 #소극장 ,2,5.0
1357502888,아름다운청년전태일기념관,"문화,예술 > 문화시설 > 기념관",CT1,문화시설,02-318-0903,서울 종로구 관수동 152-1,서울 종로구 청계천로 105,126.98938249808266,37.56842041782943,http://place.map.kakao.com/1357502888,,unknown,unknown,,15,4.7
1481203143,돈의문역사관,"문화,예술 > 문화시설 > 전시관",CT1,문화시설,02-724-0271,서울 종로구 신문로2가 7-33,서울 종로구 새문안로 35-54,126.968781044412,37.5692132476349,http://place.map.kakao.com/1481203143,,unknown,unknown,#아이와체험 ,7,4.3
313773882,돈의문전시관 아지오,"문화,예술 > 문화시설 > 전시관",CT1,문화시설,,서울 종로구 신문로2가 7-33,서울 종로구 새문안로 35-54,126.968781044412,37.5692132476349,http://place.map.kakao.com/313773882,,unknown,unknown,,1,5.0
847661120,서대문여관,"문화,예술 > 문화시설 > 전시관",CT1,문화시설,,서울 종로구 신문로2가 22-2,서울 종로구 새문안로 41-3,126.969197728068,37.5688998106424,http://place.map.kakao.com/847661120,,unknown,unknown,,0,0
135579439,스코필드기념관,"문화,예술 > 문화시설 > 기념관",CT1,문화시설,,서울 종로구 신문로2가 31,서울 종로구 새문안로 35-40,126.969066424875,37.5688961723291,http://place.map.kakao.com/135579439,,unknown,unknown,,2,5.0
614300905,템포러리,"문화,예술 > 문화시설 > 전시관",CT1,문화시설,,서울 종로구 신문로2가 18-1,서울 종로구 새문안로 37,126.969324584817,37.5687052286294,http://place.map.kakao.com/614300905,,unknown,unknown,,1,5.0
12110587,한국금융사박물관 (휴관중),"문화,예술 > 문화시설 > 박물관",CT1,문화시설,02-2151-7677,서울 중구 태평로1가 62-12,서울 중구 세종대로 135-5,126.976410528269,37.568591529702,http://place.map.kakao.com/12110587,,unknown,unknown,#아이와체험 ,2,4.5
674500395,청계천광교갤러리,"문화,예술 > 문화시설 > 미술관",CT1,문화시설,,서울 중구 남대문로1가 9,,126.982857972923,37.5687764450283,http://place.map.kakao.com/674500395,,unknown,unknown,#사진전시 ,0,0
18294028,시네코아셰프전용관,"문화,예술 > 문화시설 > 공연장,연극극장",CT1,문화시설,02-766-0815,서울 종로구 관철동 33-1,서울 종로구 삼일대로 386,126.988010499202,37.5690437754281,http://place.map.kakao.com/18294028,,unknown,unknown,,1,5.0
7912425,사춤전용관,"문화,예술 > 문화시설 > 공연장,연극극장",CT1,문화시설,02-3676-7617,서울 종로구 관철동 33-1,서울 종로구 삼일대로 386,126.988200692854,37.5688671994577,http://place.map.kakao.com/7912425,,unknown,unknown,,0,0
12163060,MC코어채플린홀,"문화,예술 > 문화시설 > 공연장,연극극장",CT1,문화시설,,서울 종로구 관철동 33-1,서울 종로구 삼일대로 386,126.988096544365,37.5689320606846,http://place.map.kakao.com/12163060,,unknown,unknown,,0,0
1684105979,세화미술관,"문화,예술 > 문화시설 > 미술관",CT1,문화시설,02-2002-7786,서울 종로구 신문로2가 133,서울 종로구 새문안로 68,126.972031873157,37.5695023810776,http://place.map.kakao.com/1684105979,,unknown,unknown,,3,4.3
15533457,씨네큐브 광화문점,"문화,예술 > 영화,영상 > 영화관",CT1,문화시설,02-2002-7776,서울 종로구 신문로1가 226,서울 종로구 새문안로 68,126.972131429357,37.5696501678756,http://place.map.kakao.com/15533457,,unknown,unknown,#문화예술공간 ,26,4.3
12722556,일주앤선화갤러리,"문화,예술 > 문화시설 > 미술관",CT1,문화시설,02-2002-7777,서울 종로구 신문로1가 226,서울 종로구 새문안로 68,126.972140480917,37.5696609819573,http://place.map.kakao.com/12722556,,unknown,unknown,,0,0
11179476,일민미술관,"문화,예술 > 문화시설 > 미술관",CT1,문화시설,02-2020-2050,서울 종로구 세종로 139-8,서울 종로구 세종대로 152,126.977637157186,37.5698819940064,http://place.map.kakao.com/11179476,,unknown,unknown,,14,3.4
7982743,신문박물관PRESSEUM,"문화,예술 > 문화시설 > 박물관",CT1,문화시설,02-2020-1880,서울 종로구 세종로 139-5,서울 종로구 세종대로 152,126.977682403001,37.5699901220177,http://place.map.kakao.com/7982743,,unknown,unknown,,4,2.3
289102858,세븐픽쳐스,"문화,예술 > 문화시설 > 전시관",CT1,문화시설,,서울 종로구 서린동 154-1,서울 종로구 종로 6,126.977886199385,37.5698387931381,http://place.map.kakao.com/289102858,,unknown,unknown,,0,0
11098140,아트센터나비,"문화,예술 > 문화시설 > 미술관",CT1,문화시설,02-2121-1031,서울 종로구 서린동 99,서울 종로구 종로 26,126.980557593063,37.5698825110856,http://place.map.kakao.com/11098140,,unknown,unknown,,1,1.0
1822812421,갤러리공간미끌,"문화,예술 > 문화시설 > 미술관",CT1,문화시설,,서울 종로구 종로2가 84-1,서울 종로구 종로 74,126.985610614673,37.5699445028014,http://place.map.kakao.com/1822812421,,unknown,unknown,,0,0
2040233934,우미관극장,"문화,예술 > 문화시설 > 공연장,연극극장",CT1,문화시설,,서울 종로구 관철동 15-1,서울 종로구 종로14길 4,126.986710893999,37.5698257003851,http://place.map.kakao.com/2040233934,,unknown,unknown,,1,5.0
655301169,종로아트프라자,"문화,예술 > 문화시설 > 전시관",CT1,문화시설,,서울 종로구 관철동 15-1,서울 종로구 종로14길 4,126.986731264323,37.5698527325395,http://place.map.kakao.com/655301169,,unknown,unknown,,0,0
1789307918,갤러리393,"문화,예술 > 문화시설 > 전시관",CT1,문화시설,02-733-0393,서울 종로구 관철동 6-3,서울 종로구 삼일대로 393,126.987390090167,37.5696744076494,http://place.map.kakao.com/1789307918,,unknown,unknown,,0,0
7934135,서울역사박물관,"문화,예술 > 문화시설 > 박물관",CT1,문화시설,02-724-0274,서울 종로구 신문로2가 2-1,서울 종로구 새문안로 55,126.970546366796,37.5705003227005,http://place.map.kakao.com/7934135,,unknown,unknown,,27,4.3
9113904,서울 역사박물관 전시기획과,"문화,예술 > 문화시설 > 박물관",CT1,문화시설,,서울 종로구 신문로2가 2-1,서울 종로구 새문안로 55,126.970546355442,37.5705291545475,http://place.map.kakao.com/9113904,,unknown,unknown,,0,0
261624688,갤러리내일,"문화,예술 > 문화시설 > 전시관",CT1,문화시설,,서울 종로구 신문로1가 58-45,서울 종로구 새문안로3길 3,126.972393670246,37.57065574032,http://place.map.kakao.com/261624688,,unknown,unknown,,0,0
27319342,교보아트스페이스,"문화,예술 > 문화시설 > 전시관",CT1,문화시설,,서울 종로구 종로1가 1,서울 종로구 종로 1,126.977804291421,37.5712118946362,http://place.map.kakao.com/27319342,,unknown,unknown,#아이와체험 ,0,0
18862658,디프로젝트스페이스 구슬모아당구장,"문화,예술 > 문화시설 > 전시관",CT1,문화시설,02-3785-0667,서울 종로구 청진동 246,서울 종로구 종로3길 17,126.97892272039232,37.57106794037852,http://place.map.kakao.com/18862658,,unknown,unknown,,11,3.5
1262632041,갤러리시선,"문화,예술 > 문화시설 > 미술관",CT1,문화시설,,서울 종로구 청진동 70,서울 종로구 종로 33,126.98163038872454,37.571082808670006,http://place.map.kakao.com/1262632041,,unknown,unknown,,0,0
22316655,국립아시아문화전당 아시아예술커뮤니티,"문화,예술 > 문화시설 > 공연장,연극극장",CT1,문화시설,02-3704-3457,서울 종로구 공평동 70,서울 종로구 종로 51,126.983609144306,37.570755137706,http://place.map.kakao.com/22316655,,unknown,unknown,,0,0
19120053,육의전박물관,"문화,예술 > 문화시설 > 박물관",CT1,문화시설,,서울 종로구 종로2가 40,서울 종로구 수표로 105,126.989087888751,37.5705287204247,http://place.map.kakao.com/19120053,,unknown,unknown,,0,0
27307026,CGV 피카디리1958,"문화,예술 > 영화,영상 > 영화관 > CJCGV",CT1,문화시설,1544-1122,서울 종로구 돈의동 137,서울 종로구 돈화문로5가길 1,126.991311005494,37.5710118384587,http://place.map.kakao.com/27307026,,unknown,unknown,#카카오페이 ,20,2.8
1742544800,피카디리국제미술관,"문화,예술 > 문화시설 > 미술관",CT1,문화시설,070-4251-3888,서울 종로구 돈의동 137,서울 종로구 돈화문로5가길 1,126.99101215115728,37.57113254944832,http://place.map.kakao.com/1742544800,,unknown,unknown,,0,0
206411746,국립기상박물관,"문화,예술 > 문화시설 > 박물관",CT1,문화시설,070-7850-8493,서울 종로구 신문로2가 1-430,서울 종로구 송월길 52,126.966264876069,37.5714163900279,http://place.map.kakao.com/206411746,,y,n,,3,3.7
932087275,팡타개라지,"문화,예술 > 문화시설 > 공연장,연극극장",CT1,문화시설,02-730-5516,서울 종로구 신문로2가 1-181,서울 종로구 경희궁1가길 7,126.969024355752,37.5720820807144,http://place.map.kakao.com/932087275,,unknown,unknown,,0,0
301973138,엔트리갤러리,"문화,예술 > 문화시설 > 전시관",CT1,문화시설,02-720-7201,서울 종로구 신문로1가 238,서울 종로구 새문안로3길 12,126.972945828589,37.5713190006438,http://place.map.kakao.com/301973138,,unknown,unknown,#제로페이 ,0,0
25587453,세종문화회관 미술관,"문화,예술 > 문화시설 > 미술관",CT1,문화시설,02-399-1114,서울 종로구 세종로 81-3,서울 종로구 세종대로 175,126.976183103242,37.5718530872608,http://place.map.kakao.com/25587453,,unknown,unknown,#미술전시 #사진전시 #실내데이트 #아이와체험 #인형극 #팝아트 ,11,3.8
18607961,세종문화회관 M씨어터,"문화,예술 > 문화시설 > 공연장,연극극장",CT1,문화시설,02-399-1114,서울 종로구 세종로 160-1,서울 종로구 세종대로 175,126.975685044186,37.5718133419444,http://place.map.kakao.com/18607961,,unknown,unknown,#문화예술공간 #뮤지컬공연 #어린이뮤지컬 #오페라공연 ,0,0
11571750,세종문화회관 체임버홀,"문화,예술 > 문화시설 > 공연장,연극극장",CT1,문화시설,02-399-1114,서울 종로구 세종로 81-3,서울 종로구 세종대로 175,126.975748352154,37.5720692375751,http://place.map.kakao.com/11571750,,unknown,unknown,#문화예술공간 #뮤지컬공연 #오페라공연 ,2,3.0
17556590,광화문광장 해치마당,"문화,예술 > 문화시설 > 전시관",CT1,문화시설,,서울 종로구 세종로 1-68,서울 종로구 세종대로 175,126.976934695744,37.5719937917344,http://place.map.kakao.com/17556590,,unknown,unknown,,3,4.7
2044073546,서울지하철 시대관,"문화,예술 > 문화시설 > 전시관",CT1,문화시설,,서울 종로구 세종로 1-68,서울 종로구 세종대로 지하 172,126.976568045613,37.571634222476,http://place.map.kakao.com/2044073546,,unknown,unknown,,0,0
8030800,KT스퀘어,"문화,예술 > 문화시설 > 공연장,연극극장",CT1,문화시설,1577-5599,서울 종로구 세종로 100,서울 종로구 세종대로 178,126.97797160567606,37.57195074200544,http://place.map.kakao.com/8030800,,unknown,unknown,,3,3.0
1763422389,KT스퀘어 드림홀,"문화,예술 > 문화시설 > 공연장,연극극장",CT1,문화시설,1577-5599,서울 종로구 세종로 100,서울 종로구 세종대로 178,126.97797612618,37.5719759707117,http://place.map.kakao.com/1763422389,,unknown,unknown,,0,0
243033563,종로홍보관,"문화,예술 > 문화시설 > 전시관",CT1,문화시설,,서울 종로구 청진동 146-3,,126.97989612436156,37.57140328037411,http://place.map.kakao.com/243033563,,unknown,unknown,,0,0
593401689,공평도시유적전시관,"문화,예술 > 문화시설 > 박물관",CT1,문화시설,02-724-0135,서울 종로구 공평동 5-1,서울 종로구 우정국로 26,126.98338702457757,37.57190117255984,http://place.map.kakao.com/593401689,,unknown,unknown,,15,4.1
230775646,하나투어 히스토리룸,"문화,예술 > 문화시설 > 전시관",CT1,문화시설,,서울 종로구 공평동 1,서울 종로구 인사동5길 41,126.98417036713,37.5718508244681,http://place.map.kakao.com/230775646,,unknown,unknown,,0,0
9521439,하나로갤러리,"문화,예술 > 문화시설 > 미술관",CT1,문화시설,02-720-4646,서울 종로구 인사동 194-4,서울 종로구 인사동5길 25,126.985406439834,37.5721140743101,http://place.map.kakao.com/9521439,,unknown,unknown,,0,0
23680078,박물관은살아있다 인사동점,"문화,예술 > 문화시설 > 박물관",CT1,문화시설,02-2034-0600,서울 종로구 인사동 43,서울 종로구 인사동길 12,126.987276534799,37.5717935364132,http://place.map.kakao.com/23680078,,unknown,unknown,,5,3.6
8053124,한국미술관,"문화,예술 > 문화시설 > 미술관",CT1,문화시설,02-720-1161,서울 종로구 인사동 43,서울 종로구 인사동길 12,126.98723576319,37.571912463369,http://place.map.kakao.com/8053124,,unknown,unknown,,1,5.0
514610734,호산붓박물관,"문화,예술 > 문화시설 > 박물관",CT1,문화시설,02-734-4197,서울 종로구 인사동 153-1,서울 종로구 인사동3길 6,126.9864784505,37.5720024785696,http://place.map.kakao.com/514610734,,unknown,unknown,#아이와체험 ,1,4.0
22341898,한국예술문화원,"문화,예술 > 문화시설 > 문화원",CT1,문화시설,,서울 종로구 인사동 43,서울 종로구 인사동길 12,126.98722218001387,37.571908857919134,http://place.map.kakao.com/22341898,,unknown,unknown,,1,1.0
13641851,아트앤스마트 갤러리,"문화,예술 > 문화시설 > 전시관",CT1,문화시설,02-735-6266,서울 종로구 인사동 39,서울 종로구 인사동길 14,126.986954994402,37.5721250675226,http://place.map.kakao.com/13641851,,unknown,unknown,,0,0
10949995,한국예술문화센터,"문화,예술 > 문화시설 > 미술관",CT1,문화시설,,서울 종로구 인사동 131,서울 종로구 인사동길 5,126.98700039223,37.5714439202046,http://place.map.kakao.com/10949995,,unknown,unknown,,0,0
24941134,남인사마당,"문화,예술 > 문화시설 > 공연장,연극극장",CT1,문화시설,,서울 종로구 인사동 43-2,서울 종로구 인사동길 6,126.98736374801648,37.571493514391584,http://place.map.kakao.com/24941134,,unknown,unknown,,0,0
19083666,춘원당한의약박물관,"문화,예술 > 문화시설 > 박물관",CT1,문화시설,02-3672-2005,서울 종로구 낙원동 155,서울 종로구 돈화문로9길 27,126.99032160228836,37.57149289294144,http://place.map.kakao.com/19083666,,unknown,unknown,,0,0
1478977958,양정원갤러리,"문화,예술 > 문화시설 > 미술관",CT1,문화시설,010-3619-0667,서울 종로구 행촌동 6,서울 종로구 송월1길 56,126.964831383097,37.5722935409127,http://place.map.kakao.com/1478977958,,unknown,unknown,,0,0
1847666883,세종문화회관 S씨어터,"문화,예술 > 문화시설 > 공연장,연극극장",CT1,문화시설,02-399-1114,서울 종로구 세종로 81-7,서울 종로구 세종대로 175,126.97515948536,37.5727754952377,http://place.map.kakao.com/1847666883,,unknown,unknown,#문화예술공간 #뮤지컬공연 #소극장 #어린이공연 #오페라공연 ,0,0
8373453,세종문화회관,"문화,예술 > 문화시설 > 공연장,연극극장",CT1,문화시설,02-399-1000,서울 종로구 세종로 81-3,서울 종로구 세종대로 175,126.97572100551191,37.57262064091815,http://place.map.kakao.com/8373453,,unknown,unknown,,29,3.7
27151624,세종문화회관 대극장,"문화,예술 > 문화시설 > 공연장,연극극장",CT1,문화시설,02-399-1111,서울 종로구 세종로 81-4,서울 종로구 세종대로 175,126.976069582189,37.5728621787462,http://place.map.kakao.com/27151624,,unknown,unknown,#뮤지컬공연 #오페라공연 ,5,3.2
12729157,충무공이야기,"문화,예술 > 문화시설 > 기념관",CT1,문화시설,02-399-1000,서울 종로구 세종로 81-3,서울 종로구 세종대로 175,126.976173863688,37.5724297222418,http://place.map.kakao.com/12729157,,unknown,unknown,,1,4.0
18583642,세종문화회관 세종예술아카데미,"문화,예술 > 문화시설 > 공연장,연극극장",CT1,문화시설,02-399-1606,서울 종로구 세종로 81-4,서울 종로구 세종대로 175,126.97589412977398,37.5728400686737,http://place.map.kakao.com/18583642,,unknown,unknown,#제로페이 ,0,0
1780832908,세종문화회관 서비스플라자,"문화,예술 > 문화시설 > 공연장,연극극장",CT1,문화시설,,서울 종로구 세종로 81-4,서울 종로구 세종대로 175,126.975888492884,37.5727684384225,http://place.map.kakao.com/1780832908,,unknown,unknown,,0,0
18583637,세종문화회관 전시관,"문화,예술 > 문화시설 > 전시관",CT1,문화시설,02-399-1152,서울 종로구 세종로 81-4,서울 종로구 세종대로 175,126.975870396071,37.5727215829861,http://place.map.kakao.com/18583637,,unknown,unknown,,0,0
11571761,세종문화회관 광화랑,"문화,예술 > 문화시설 > 전시관",CT1,문화시설,,서울 종로구 세종로 81-4,서울 종로구 세종대로 175,126.97589755814,37.5727396084344,http://place.map.kakao.com/11571761,,unknown,unknown,,0,0
11238239,세종문화회관 대관안내,"문화,예술 > 문화시설 > 공연장,연극극장",CT1,문화시설,02-399-1617,서울 종로구 세종로 81-4,서울 종로구 세종대로 175,126.975897554656,37.5727504203734,http://place.map.kakao.com/11238239,,unknown,unknown,,0,0
10587734,세종문화회관 뮤지컬단,"문화,예술 > 문화시설 > 공연장,연극극장",CT1,문화시설,02-399-1771,서울 종로구 세종로 81-4,서울 종로구 세종대로 175,126.975902091927,37.5727215894603,http://place.map.kakao.com/10587734,,unknown,unknown,,0,0
9892529,세종문화회관 무용단,"문화,예술 > 문화시설 > 공연장,연극극장",CT1,문화시설,02-399-1765,서울 종로구 세종로 81-4,서울 종로구 세종대로 175,126.975888513798,37.5727035667882,http://place.map.kakao.com/9892529,,unknown,unknown,,0,0
9314636,세종문화회관 화원,"문화,예술 > 문화시설 > 공연장,연극극장",CT1,문화시설,02-399-1594,서울 종로구 세종로 81-4,서울 종로구 세종대로 175,126.975888499855,37.5727468145445,http://place.map.kakao.com/9314636,,unknown,unknown,,0,0
10582522,세종문화회관 청소년교향악단,"문화,예술 > 문화시설 > 공연장,연극극장",CT1,문화시설,02-399-1789,서울 종로구 세종로 81-4,서울 종로구 세종대로 175,126.97588850217902,37.57273960658514,http://place.map.kakao.com/10582522,,unknown,unknown,,0,0
10600218,세종문화회관 소년소녀합창단,"문화,예술 > 문화시설 > 공연장,연극극장",CT1,문화시설,02-399-1753,서울 종로구 세종로 81-4,서울 종로구 세종대로 175,126.975902094249,37.572714381501,http://place.map.kakao.com/10600218,,unknown,unknown,,0,0
9282607,세종문화회관 아루비쥬,"문화,예술 > 문화시설 > 공연장,연극극장",CT1,문화시설,02-399-1596,서울 종로구 세종로 81-3,서울 종로구 세종대로 175,126.975720994982,37.5726530767358,http://place.map.kakao.com/9282607,,unknown,unknown,,0,0
24767256,유비쿼터스드림전시관,"문화,예술 > 문화시설 > 전시관",CT1,문화시설,,서울 종로구 세종로 100,서울 종로구 세종대로 178,126.977953437639,37.5721417495727,http://place.map.kakao.com/24767256,,unknown,unknown,,0,0
23713424,일조원갤러리,"문화,예술 > 문화시설 > 미술관",CT1,문화시설,02-723-3588,서울 종로구 견지동 111,서울 종로구 우정국로 38,126.983500125824,37.5723408740229,http://place.map.kakao.com/23713424,,unknown,unknown,,0,0
27316531,갤러리라메르,"문화,예술 > 문화시설 > 미술관",CT1,문화시설,02-730-5454,서울 종로구 관훈동 198-1,서울 종로구 인사동5길 26,126.98494223644524,37.57255730558019,http://place.map.kakao.com/27316531,,unknown,unknown,#문화예술공간 #미술전시 #사진전시 #아이와체험 ,4,3.8
11118966,아름다운차박물관,"문화,예술 > 문화시설 > 박물관",CT1,문화시설,02-735-6678,서울 종로구 인사동 193-1,서울 종로구 인사동길 19-11,126.985881825528,37.5723700147182,http://place.map.kakao.com/11118966,,unknown,unknown,,14,3.7
2042226786,블루원갤러리,"문화,예술 > 문화시설 > 미술관",CT1,문화시설,,서울 종로구 인사동 190-2,서울 종로구 인사동5길 15-1,126.98552860067102,37.57259792369035,http://place.map.kakao.com/2042226786,,unknown,unknown,,0,0
186498394,갤러리케이티에이,"문화,예술 > 문화시설 > 미술관",CT1,문화시설,02-757-7485,서울 종로구 관훈동 198-33,서울 종로구 인사동5길 14,126.985356506153,37.5727591805743,http://place.map.kakao.com/186498394,,unknown,unknown,,0,0
899393968,무우수갤러리,"문화,예술 > 문화시설 > 미술관",CT1,문화시설,02-732-3690,서울 종로구 인사동 168,서울 종로구 인사동길 19-2,126.986325511411,37.572665593314,http://place.map.kakao.com/899393968,,unknown,unknown,,0,0
590416928,갤러리시작,"문화,예술 > 문화시설 > 미술관",CT1,문화시설,,서울 종로구 인사동 39,서울 종로구 인사동길 14,126.986982153281,37.5721755262452,http://place.map.kakao.com/590416928,,unknown,unknown,,0,0
1010192998,갤러리보아,"문화,예술 > 문화시설 > 미술관",CT1,문화시설,,서울 종로구 인사동 15,서울 종로구 인사동길 24,126.986506580393,37.5729431206036,http://place.map.kakao.com/1010192998,,unknown,unknown,,0,0
1490290749,한국미술협회 문화원,"문화,예술 > 문화시설 > 문화원",CT1,문화시설,02-722-8643,서울 종로구 인사동 37,서울 종로구 인사동길 16,126.986868927408,37.5723304848572,http://place.map.kakao.com/1490290749,,unknown,unknown,,0,0
1348730757,실버영화관,"문화,예술 > 영화,영상 > 영화관",CT1,문화시설,02-3672-4232,서울 종로구 낙원동 284-6,서울 종로구 삼일대로 428,126.9878299395856,37.57261620326433,http://place.map.kakao.com/1348730757,,unknown,unknown,,3,4.3
12165606,모두의 극장,"문화,예술 > 영화,영상 > 영화관",CT1,문화시설,02-742-4231,서울 종로구 낙원동 284-6,서울 종로구 삼일대로 428,126.987827673399,37.5726297179559,http://place.map.kakao.com/12165606,,unknown,unknown,,0,0
1345891117,낭만극장,"문화,예술 > 영화,영상 > 영화관",CT1,문화시설,,서울 종로구 낙원동 252,서울 종로구 삼일대로 428,126.988108388023,37.5727540838764,http://place.map.kakao.com/1345891117,,unknown,unknown,,0,0
201548590,d/p,"문화,예술 > 문화시설 > 전시관",CT1,문화시설,,서울 종로구 낙원동 288,서울 종로구 삼일대로 428,126.987898967415,37.5727630725455,http://place.map.kakao.com/201548590,,unknown,unknown,,0,0
17672074,아트라운지멋진하늘,"문화,예술 > 문화시설 > 공연장,연극극장",CT1,문화시설,02-745-0517,서울 종로구 낙원동 284-6,서울 종로구 삼일대로 428,126.988109512283,37.572802737719,http://place.map.kakao.com/17672074,,unknown,unknown,,1,3.0
743057672,우리열린극장,"문화,예술 > 문화시설 > 공연장,연극극장",CT1,문화시설,,서울 종로구 낙원동 288,서울 종로구 삼일대로 428,126.987643226932,37.5722152410742,http://place.map.kakao.com/743057672,,unknown,unknown,,0,0
1832546941,스페이스 사직,"문화,예술 > 문화시설 > 박물관",CT1,문화시설,070-4912-6544,서울 종로구 사직동 181-3,서울 종로구 경희궁3가길 8-4,126.967043975881,37.5733023926656,http://place.map.kakao.com/1832546941,,unknown,unknown,,0,0
11147054,성곡미술관,"문화,예술 > 문화시설 > 미술관",CT1,문화시설,02-737-7650,서울 종로구 신문로2가 1-101,서울 종로구 경희궁길 42,126.969780082012,37.5731706785274,http://place.map.kakao.com/11147054,,unknown,unknown,,8,3.8
12728670,축구전시관,"문화,예술 > 문화시설 > 전시관",CT1,문화시설,02-2002-0707,서울 종로구 신문로2가 1-131,서울 종로구 경희궁길 46,126.969096223497,37.5734840477058,http://place.map.kakao.com/12728670,,unknown,unknown,,2,5.0
471727157,세상에서 제일작은한평극장,"문화,예술 > 문화시설 > 공연장,연극극장",CT1,문화시설,,서울 종로구 내수동 74,서울 종로구 사직로8길 42,126.973117006386,37.5737733501373,http://place.map.kakao.com/471727157,,unknown,unknown,,0,0
12729021,세종이야기,"문화,예술 > 문화시설 > 기념관",CT1,문화시설,02-399-1154,서울 종로구 세종로 1-68,,126.97691619022386,37.57326959703341,http://place.map.kakao.com/12729021,,unknown,unknown,,7,4.9
442375548,대한민국역사박물관 상설기증관,"문화,예술 > 문화시설 > 박물관",CT1,문화시설,,서울 종로구 세종로 82-1,서울 종로구 세종대로 198,126.977831815185,37.5738283893336,http://place.map.kakao.com/442375548,,unknown,unknown,,1,5.0
19339316,조계사 도심포교100주년기념관,"문화,예술 > 문화시설 > 기념관",CT1,문화시설,02-768-8562,서울 종로구 수송동 46-10,서울 종로구 우정국로 45-20,126.981724956405,37.5732019637732,http://place.map.kakao.com/19339316,,unknown,unknown,,0,0
18573750,OCI미술관,"문화,예술 > 문화시설 > 미술관",CT1,문화시설,02-734-0440,서울 종로구 수송동 46-15,서울 종로구 우정국로 45-14,126.9821098451121,37.57316868591575,http://place.map.kakao.com/18573750,,unknown,unknown,,0,0
25047223,아라아트센터,"문화,예술 > 문화시설 > 전시관",CT1,문화시설,02-733-1981,서울 종로구 견지동 85-15,서울 종로구 인사동9길 26,126.983649336439,37.5733103653783,http://place.map.kakao.com/25047223,,unknown,unknown,,3,2.3
12776797,인사동 홍보관,"문화,예술 > 문화시설 > 전시관",CT1,문화시설,02-737-7891,서울 종로구 견지동 85-18,서울 종로구 인사동11길 19,126.98364018738,37.5737356336895,http://place.map.kakao.com/12776797,,unknown,unknown,#데이트코스 #한복체험 ,0,0
2100994611,아라모던아트뮤지엄,"문화,예술 > 문화시설 > 전시관",CT1,문화시설,02-732-1177,서울 종로구 견지동 85-24,서울 종로구 인사동9길 26,126.983622116258,37.5735482242546,http://place.map.kakao.com/2100994611,,unknown,unknown,#아이와체험 ,1,4.0
8099727,인사아트센터,"문화,예술 > 문화시설 > 전시관",CT1,문화시설,02-736-1020,서울 종로구 관훈동 188,서울 종로구 인사동길 41-1,126.98460576893604,37.573848387905215,http://place.map.kakao.com/8099727,,unknown,unknown,,3,3.3
8316656,백악미술관,"문화,예술 > 문화시설 > 미술관",CT1,문화시설,02-734-4205,서울 종로구 관훈동 192-21,서울 종로구 인사동9길 16,126.984233374424,37.5736708427746,http://place.map.kakao.com/8316656,,unknown,unknown,,0,0
26601040,뮤지엄김치간,"문화,예술 > 문화시설 > 박물관",CT1,문화시설,02-6002-6456,서울 종로구 관훈동 192-15,서울 종로구 인사동길 35-4,126.984903537733,37.5736024547676,http://place.map.kakao.com/26601040,,unknown,unknown,,2,3.0
11991801,전북도립미술관 서울관,"문화,예술 > 문화시설 > 미술관",CT1,문화시설,02-720-4354,서울 종로구 관훈동 188,서울 종로구 인사동길 41-1,126.984600102383,37.5738799219848,http://place.map.kakao.com/11991801,,unknown,unknown,,0,0
25040611,서경갤러리,"문화,예술 > 문화시설 > 미술관",CT1,문화시설,02-733-0434,서울 종로구 관훈동 192-18,서울 종로구 인사동7길 32,126.984382912536,37.5731302657177,http://place.map.kakao.com/25040611,,unknown,unknown,,0,0
10200703,풀무원김치박물관,"문화,예술 > 문화시설 > 박물관",CT1,문화시설,,서울 종로구 관훈동 192-15,서울 종로구 인사동길 35-4,126.984867322949,37.5735555983981,http://place.map.kakao.com/10200703,,unknown,unknown,,0,0
1947932267,G&J 광주전남갤러리,"문화,예술 > 문화시설 > 전시관",CT1,문화시설,02-725-0040,서울 종로구 관훈동 192-15,서울 종로구 인사동길 35-4,126.98484015367296,37.573561000881455,http://place.map.kakao.com/1947932267,,unknown,unknown,,0,0
12519557,갤러리스카이연,"문화,예술 > 문화시설 > 전시관",CT1,문화시설,,서울 종로구 관훈동 197-28,서울 종로구 인사동7길 12,126.985089286961,37.5731015252116,http://place.map.kakao.com/12519557,,unknown,unknown,,0,0
25700794,인사아트프라자 갤러리,"문화,예술 > 문화시설 > 미술관",CT1,문화시설,02-736-6347,서울 종로구 관훈동 21,서울 종로구 인사동길 34-1,126.985709475946,37.5738728535309,http://place.map.kakao.com/25700794,,unknown,unknown,,2,5.0
297684466,인사아트홀,"문화,예술 > 문화시설 > 공연장,연극극장",CT1,문화시설,02-722-9969,서울 종로구 관훈동 21,서울 종로구 인사동길 34-1,126.985591757773,37.5738151755535,http://place.map.kakao.com/297684466,,unknown,unknown,#문화예술공간 ,0,0
27212291,올갤러리,"문화,예술 > 문화시설 > 미술관",CT1,문화시설,,서울 종로구 관훈동 23,서울 종로구 인사동길 36,126.98544007490392,37.573780919139686,http://place.map.kakao.com/27212291,,unknown,unknown,,0,0
15549527,백송화랑,"문화,예술 > 문화시설 > 미술관",CT1,문화시설,02-730-5824,서울 종로구 관훈동 197-9,서울 종로구 인사동길 31-8,126.985496758971,37.5733502505713,http://place.map.kakao.com/15549527,,unknown,unknown,,0,0
17126923,아틀리에서울,"문화,예술 > 문화시설 > 미술관",CT1,문화시설,02-730-7837,서울 종로구 관훈동 7,서울 종로구 인사동길 30,126.986098983313,37.5733611349594,http://place.map.kakao.com/17126923,,unknown,unknown,,0,0
27159434,화봉책박물관,"문화,예술 > 문화시설 > 박물관",CT1,문화시설,02-737-0057,서울 종로구 관훈동 197-28,서울 종로구 인사동7길 12,126.98542548184874,37.573149319927325,http://place.map.kakao.com/27159434,,unknown,unknown,,0,0
21810304,창의물류갤러리낳이,"문화,예술 > 문화시설 > 미술관",CT1,문화시설,,서울 종로구 관훈동 196-3,서울 종로구 인사동길 35,126.985360869059,37.5736025123648,http://place.map.kakao.com/21810304,,unknown,unknown,,0,0
2070793963,갤러리산촌,"문화,예술 > 문화시설 > 전시관",CT1,문화시설,02-735-0312,서울 종로구 관훈동 2-1,서울 종로구 인사동길 30-13,126.986261911867,37.5737972355466,http://place.map.kakao.com/2070793963,,unknown,unknown,,0,0
1497768434,원에이치갤러리,"문화,예술 > 문화시설 > 미술관",CT1,문화시설,,서울 종로구 낙원동 280-4,서울 종로구 삼일대로 437,126.987303408663,37.5735234497186,http://place.map.kakao.com/1497768434,,unknown,unknown,,0,0
11470744,광화문아트홀,"문화,예술 > 문화시설 > 공연장,연극극장",CT1,문화시설,02-725-2311,서울 종로구 사직동 284-1,서울 종로구 인왕산로1길 21,126.964671968408,37.5742756820333,http://place.map.kakao.com/11470744,,unknown,unknown,#공간대여 #뮤지컬공연 #소극장 ,0,0
15104327,대한민국역사박물관,"문화,예술 > 문화시설 > 박물관",CT1,문화시설,02-3703-9200,서울 종로구 세종로 82-1,서울 종로구 세종대로 198,126.97785780450153,37.57398696929644,http://place.map.kakao.com/15104327,,unknown,unknown,,36,4.3
1589921532,서울지방국세청 국세홍보관,"문화,예술 > 문화시설 > 전시관",CT1,문화시설,02-2114-5615,서울 종로구 수송동 104,서울 종로구 종로5길 86,126.9798999142,37.5741495137175,http://place.map.kakao.com/1589921532,,unknown,unknown,,0,0
17808472,조계사 불교역사문화기념관,"문화,예술 > 문화시설 > 기념관",CT1,문화시설,02-2011-1700,서울 종로구 수송동 38-2,서울 종로구 우정국로 55,126.981733745705,37.5742939708717,http://place.map.kakao.com/17808472,,unknown,unknown,,0,0
8079764,전통문화예술공연장,"문화,예술 > 문화시설 > 공연장,연극극장",CT1,문화시설,02-2011-1700,서울 종로구 수송동 44-2,서울 종로구 우정국로 55,126.9817292097058,37.57432640598065,http://place.map.kakao.com/8079764,,unknown,unknown,,0,0
844839897,체신기념관,"문화,예술 > 문화시설 > 기념관",CT1,문화시설,02-734-8369,서울 종로구 견지동 39-7,서울 종로구 우정국로 59,126.982616685933,37.5744418673248,http://place.map.kakao.com/844839897,,unknown,unknown,,2,5.0
8138151,불교중앙박물관,"문화,예술 > 문화시설 > 박물관",CT1,문화시설,02-2011-1960,서울 종로구 수송동 38-2,서울 종로구 우정국로 55,126.9819894929616,37.57466341800256,http://place.map.kakao.com/8138151,,unknown,unknown,,1,1.0
309581586,컬러풀뮤지엄,"문화,예술 > 문화시설 > 전시관",CT1,문화시설,02-6954-2872,서울 종로구 견지동 74-1,서울 종로구 인사동길 49,126.983549473557,37.5744311890571,http://place.map.kakao.com/309581586,,unknown,unknown,#문화예술공간 #아이와체험 #제로페이 ,3,1.3
555421049,인사센트럴뮤지엄,"문화,예술 > 문화시설 > 전시관",CT1,문화시설,,서울 종로구 관훈동 155-2,서울 종로구 인사동길 49,126.984070210405,37.5743970226732,http://place.map.kakao.com/555421049,,unknown,unknown,,7,4.3
1236834953,쌈지길 기획전시실,"문화,예술 > 문화시설 > 전시관",CT1,문화시설,1661-3972,서울 종로구 관훈동 38,서울 종로구 인사동길 44,126.984741505955,37.574360170564,http://place.map.kakao.com/1236834953,,unknown,unknown,,0,0
24266251,갤러리인덱스,"문화,예술 > 문화시설 > 미술관",CT1,문화시설,02-722-6635,서울 종로구 관훈동 185,서울 종로구 인사동길 45,126.984432498524,37.5741970501689,http://place.map.kakao.com/24266251,,unknown,unknown,,0,0
536322865,헬로우심쿵,"문화,예술 > 문화시설 > 전시관",CT1,문화시설,1661-3972,서울 종로구 관훈동 38,서울 종로구 인사동길 44,126.984894360099,37.5742043181291,http://place.map.kakao.com/536322865,,unknown,unknown,,1,5.0
25701401,다크룸,"문화,예술 > 문화시설 > 전시관",CT1,문화시설,02-6959-4392,서울 종로구 관훈동 38,서울 종로구 인사동길 44,126.984935075697,37.5743881262616,http://place.map.kakao.com/25701401,,unknown,unknown,,1,5.0
408691051,갤러리통큰,"문화,예술 > 문화시설 > 미술관",CT1,문화시설,,서울 종로구 관훈동 74,서울 종로구 인사동길 52,126.98426486822,37.574633109396,http://place.map.kakao.com/408691051,,unknown,unknown,,0,0
27470110,코사스페이스갤러리,"문화,예술 > 문화시설 > 미술관",CT1,문화시설,,서울 종로구 관훈동 37,서울 종로구 인사동길 40,126.985138908073,37.574042170107,http://place.map.kakao.com/27470110,,unknown,unknown,,0,0
1180792779,라이프러리 아카이브,"문화,예술 > 문화시설 > 전시관",CT1,문화시설,02-363-5855,서울 종로구 관훈동 72,서울 종로구 인사동길 50,126.984446013021,37.5745322219945,http://place.map.kakao.com/1180792779,,unknown,unknown,,0,0
8199463,경인미술관,"문화,예술 > 문화시설 > 미술관",CT1,문화시설,02-733-4448,서울 종로구 관훈동 30-1,서울 종로구 인사동10길 11-4,126.985442208787,37.5744494575308,http://place.map.kakao.com/8199463,,unknown,unknown,,9,4.3
8556588,인사갤러리,"문화,예술 > 문화시설 > 미술관",CT1,문화시설,,서울 종로구 관훈동 29-23,서울 종로구 인사동10길 10,126.985646063195,37.5739773612357,http://place.map.kakao.com/8556588,,unknown,unknown,#제로페이 ,0,0
12721519,하나아트갤러리,"문화,예술 > 문화시설 > 미술관",CT1,문화시설,02-736-0877,서울 종로구 관훈동 27-5,서울 종로구 인사동10길 2,126.985288358852,37.5739160495538,http://place.map.kakao.com/12721519,,unknown,unknown,,1,5.0
27470110,코사스페이스갤러리,"문화,예술 > 문화시설 > 미술관",CT1,문화시설,,서울 종로구 관훈동 37,서울 종로구 인사동길 40,126.985138908073,37.574042170107,http://place.map.kakao.com/27470110,,unknown,unknown,,0,0
14594707,아트피플,"문화,예술 > 문화시설 > 미술관",CT1,문화시설,02-2269-5061,서울 종로구 관훈동 37,서울 종로구 인사동길 40,126.985143433269,37.5740565865933,http://place.map.kakao.com/14594707,,unknown,unknown,#제로페이 ,0,0
1350420752,갤러리해인,"문화,예술 > 문화시설 > 전시관",CT1,문화시설,010-9190-7750,서울 종로구 경운동 64-13,서울 종로구 인사동10길 24,126.986252754416,37.5743486432913,http://place.map.kakao.com/1350420752,,unknown,unknown,#제로페이 ,0,0
26984139,갤러리건국,"문화,예술 > 문화시설 > 전시관",CT1,문화시설,070-8226-0806,서울 종로구 경운동 47-17,서울 종로구 삼일대로 443,126.987081459953,37.5739595071422,http://place.map.kakao.com/26984139,,unknown,unknown,,0,0
15962051,중앙공예,"문화,예술 > 문화시설 > 미술관",CT1,문화시설,02-732-6494,서울 종로구 낙원동 58-1,서울 종로구 삼일대로30길 21,126.988494173068,37.5742191397822,http://place.map.kakao.com/15962051,,unknown,unknown,,0,0
18860686,정선갤러리,"문화,예술 > 문화시설 > 전시관",CT1,문화시설,02-720-6676,서울 종로구 와룡동 69,서울 종로구 돈화문로 68,126.991174748192,37.5745797685051,http://place.map.kakao.com/18860686,,unknown,unknown,#아이와체험 #제로페이 ,1,5.0
216995295,운경기념관,"문화,예술 > 문화시설 > 기념관",CT1,문화시설,,서울 종로구 사직동 1-57,서울 종로구 인왕산로 7,126.966338029996,37.5748744293253,http://place.map.kakao.com/216995295,,unknown,unknown,,0,0
12447673,동덕아트갤러리,"문화,예술 > 문화시설 > 전시관",CT1,문화시설,02-732-6458,서울 종로구 관훈동 151-8,서울 종로구 우정국로 68,126.983268609845,37.5749789543555,http://place.map.kakao.com/12447673,,unknown,unknown,,0,0
1417941448,갤러리 인사아트,"문화,예술 > 문화시설 > 전시관",CT1,문화시설,02-734-1333,서울 종로구 관훈동 119,서울 종로구 인사동길 56,126.983936503121,37.5749970670194,http://place.map.kakao.com/1417941448,,unknown,unknown,#아이와체험 ,0,0
27112644,북인사마당,"문화,예술 > 문화시설 > 공연장,연극극장",CT1,문화시설,,서울 종로구 관훈동 130-3,서울 종로구 인사동길 62,126.983508504633,37.5754114655268,http://place.map.kakao.com/27112644,,unknown,unknown,,0,0
12531729,예당,"문화,예술 > 문화시설 > 전시관",CT1,문화시설,02-732-5364,서울 종로구 관훈동 118-25,서울 종로구 인사동16길 3-10,126.983947731356,37.5754259419822,http://place.map.kakao.com/12531729,,unknown,unknown,,0,0
612212492,나무아트,"문화,예술 > 문화시설 > 미술관",CT1,문화시설,,서울 종로구 관훈동 105,서울 종로구 인사동길 54-1,126.98402482065696,37.57490697953872,http://place.map.kakao.com/612212492,,unknown,unknown,,0,0
1490573702,서울문화홍보원,"문화,예술 > 문화시설 > 문화원",CT1,문화시설,02-2273-1253,서울 종로구 관훈동 110,서울 종로구 율곡로 44-8,126.98448655947736,37.57552692541305,http://place.map.kakao.com/1490573702,,unknown,unknown,,0,0
1412204668,리수갤러리,"문화,예술 > 문화시설 > 전시관",CT1,문화시설,02-720-0342,서울 종로구 관훈동 84-24,서울 종로구 인사동14길 24-3,126.98553495783295,37.57484590660004,http://place.map.kakao.com/1412204668,,unknown,unknown,#아이와체험 ,0,0
9290049,예전사,"문화,예술 > 문화시설 > 전시관",CT1,문화시설,,서울 종로구 경운동 88,서울 종로구 삼일대로 457,126.986157479321,37.5753505382311,http://place.map.kakao.com/9290049,,unknown,unknown,,0,0
27558021,한글전각미술관,"문화,예술 > 문화시설 > 미술관",CT1,문화시설,02-723-2324,서울 종로구 경운동 89-4,서울 종로구 삼일대로 461,126.98582687874092,37.57559556952654,http://place.map.kakao.com/27558021,,unknown,unknown,,0,0
27495541,학아재미술관,"문화,예술 > 문화시설 > 미술관",CT1,문화시설,02-766-7647,서울 종로구 경운동 89-4,서울 종로구 삼일대로 461,126.9858348077885,37.57557034263061,http://place.map.kakao.com/27495541,,unknown,unknown,,0,0
16471912,동인문화원,"문화,예술 > 문화시설 > 문화원",CT1,문화시설,02-762-4034,서울 종로구 익선동 30-6,서울 종로구 삼일대로32길 36,126.989105315554,37.5752283118195,http://place.map.kakao.com/16471912,,unknown,unknown,,0,0
8344444,떡박물관,"문화,예술 > 문화시설 > 박물관",CT1,문화시설,02-741-5447,서울 종로구 와룡동 164-2,서울 종로구 돈화문로 71,126.990649448489,37.5749076901335,http://place.map.kakao.com/8344444,,unknown,unknown,,2,3.0
919372338,나마갤러리,"문화,예술 > 문화시설 > 미술관",CT1,문화시설,02-379-5687,서울 종로구 와룡동 93-1,서울 종로구 돈화문로 80-1,126.990830487242,37.5756068761527,http://place.map.kakao.com/919372338,,unknown,unknown,,1,5.0
8430934,서울메트로미술관,"문화,예술 > 문화시설 > 전시관",CT1,문화시설,,서울 종로구 적선동 81-1,서울 종로구 사직로 지하 130,126.973673233759,37.5758241393372,http://place.map.kakao.com/8430934,,unknown,unknown,,1,4.0
2032093531,광화시대,"문화,예술 > 문화시설 > 전시관",CT1,문화시설,,서울 종로구 적선동 81-1,서울 종로구 사직로 지하 130,126.973717399222,37.5757790994531,http://place.map.kakao.com/2032093531,,unknown,unknown,,0,0
8071409,종로문화원,"문화,예술 > 문화시설 > 문화원",CT1,문화시설,02-2148-4087,서울 종로구 중학동 24,서울 종로구 율곡로 5,126.980365790249,37.5761101564138,http://place.map.kakao.com/8071409,,unknown,unknown,,1,5.0
24268177,탑골미술관,"문화,예술 > 문화시설 > 미술관",CT1,문화시설,02-6220-8663,서울 종로구 경운동 90-3,서울 종로구 삼일대로 467,126.985840397691,37.575941553048,http://place.map.kakao.com/24268177,,unknown,unknown,,0,0
1364166565,한국국제아트페어,"문화,예술 > 문화시설 > 미술관",CT1,문화시설,,서울 종로구 경운동 89-4,서울 종로구 삼일대로 461,126.98550082337964,37.57574149104632,http://place.map.kakao.com/1364166565,,unknown,unknown,,0,0
11494384,제이갤러리,"문화,예술 > 문화시설 > 미술관",CT1,문화시설,,서울 종로구 경운동 89-4,서울 종로구 삼일대로 461,126.98550082337964,37.57574149104632,http://place.map.kakao.com/11494384,,unknown,unknown,,0,0
17574803,운현궁 유물전시관,"문화,예술 > 문화시설 > 전시관",CT1,문화시설,,서울 종로구 운니동 114-10,서울 종로구 삼일대로 464,126.986881789335,37.5764462302652,http://place.map.kakao.com/17574803,,unknown,unknown,#유물전시 ,0,0
16021641,대한황실문화원,"문화,예술 > 문화시설 > 문화원",CT1,문화시설,02-743-1897,서울 종로구 와룡동 139,서울 종로구 돈화문로 89,126.990151148504,37.57648439006445,http://place.map.kakao.com/16021641,,unknown,unknown,,1,5.0
11285860,국악기전시관,"문화,예술 > 문화시설 > 전시관",CT1,문화시설,02-742-1318,서울 종로구 운니동 49-1,서울 종로구 돈화문로11가길 77-7,126.98980708063,37.5759275462779,http://place.map.kakao.com/11285860,,unknown,unknown,,0,0
26905709,황학정 국궁전시관,"문화,예술 > 문화시설 > 전시관",CT1,문화시설,02-722-1600,서울 종로구 사직동 산 1-11,서울 종로구 사직로9길 15-32,126.964765745351,37.5770615850763,http://place.map.kakao.com/26905709,,unknown,unknown,,1,5.0
26981008,서울유치원역사전시관,"문화,예술 > 문화시설 > 전시관",CT1,문화시설,,서울 종로구 사직동 1-27,서울 종로구 사직로9길 15-8,126.967043566907,37.5767991526228,http://place.map.kakao.com/26981008,,unknown,unknown,,0,0
8214304,국립고궁박물관,"문화,예술 > 문화시설 > 박물관",CT1,문화시설,02-3701-7500,서울 종로구 세종로 1-57,서울 종로구 효자로 12,126.974823115204,37.576635285174,http://place.map.kakao.com/8214304,,unknown,unknown,,22,4.5
9475956,갤러리현대,"문화,예술 > 문화시설 > 미술관",CT1,문화시설,02-2287-3500,서울 종로구 사간동 80,서울 종로구 삼청로 14,126.97985039338867,37.57728226325563,http://place.map.kakao.com/9475956,,unknown,unknown,,2,4.5
17513074,갤러리현대 본관,"문화,예술 > 문화시설 > 미술관",CT1,문화시설,02-2287-3591,서울 종로구 사간동 122,서울 종로구 삼청로 8,126.97985056770656,37.57663534934952,http://place.map.kakao.com/17513074,,unknown,unknown,,1,4.0
1395978192,서울공예박물관 어린이박물관,"문화,예술 > 문화시설 > 박물관",CT1,문화시설,,서울 종로구 안국동 175-112,서울 종로구 율곡로3길 4,126.982895731892,37.5769043261638,http://place.map.kakao.com/1395978192,,unknown,unknown,,0,0
1038056172,서울공예박물관,"문화,예술 > 문화시설 > 박물관",CT1,문화시설,02-6450-7000,서울 종로구 안국동 175-2,서울 종로구 율곡로3길 4,126.98329088000077,37.57663678742704,http://place.map.kakao.com/1038056172,,unknown,unknown,,35,4.4
1479985456,갤러리더플럭스,"문화,예술 > 문화시설 > 전시관",CT1,문화시설,02-3663-7537,서울 종로구 안국동 63-1,서울 종로구 윤보선길 28,126.983974487784,37.5773504697247,http://place.map.kakao.com/1479985456,,unknown,unknown,,1,3.0
1058701476,아트로직스페이스,"문화,예술 > 문화시설 > 전시관",CT1,문화시설,02-735-7955,서울 종로구 안국동 63-1,서울 종로구 윤보선길 28,126.983971094487,37.5773369543497,http://place.map.kakao.com/1058701476,,unknown,unknown,,0,0
176787398,아티스트큐브,"문화,예술 > 문화시설 > 전시관",CT1,문화시설,,서울 종로구 안국동 63-1,서울 종로구 윤보선길 28,126.983979022221,37.577321638523,http://place.map.kakao.com/176787398,,unknown,unknown,,0,0
2108894844,킵인터치,"문화,예술 > 문화시설 > 전시관",CT1,문화시설,,서울 종로구 안국동 109,서울 종로구 북촌로1길 13,126.984948070912,37.5773145581055,http://place.map.kakao.com/2108894844,,unknown,unknown,,0,0
549419880,한옥란갤러리,"문화,예술 > 문화시설 > 전시관",CT1,문화시설,,서울 종로구 안국동 110,서울 종로구 율곡로5길 18-5,126.984979779575,37.5772605024865,http://place.map.kakao.com/549419880,,unknown,unknown,,0,0
1037171324,일본문화원,"문화,예술 > 문화시설 > 문화원",CT1,문화시설,,서울 종로구 운니동 114-8,서울 종로구 율곡로 64,126.98662361395,37.5768246189401,http://place.map.kakao.com/1037171324,,unknown,unknown,,9,3.2
1811870430,서울우리소리박물관,"문화,예술 > 문화시설 > 박물관",CT1,문화시설,02-742-2600,서울 종로구 와룡동 5-9,서울 종로구 율곡로 96,126.9896189928122,37.57714207035938,http://place.map.kakao.com/1811870430,,unknown,unknown,,8,4.3
26952171,서울돈화문국악당,"문화,예술 > 문화시설 > 공연장,연극극장",CT1,문화시설,02-3210-7002,서울 종로구 와룡동 13,서울 종로구 율곡로 102,126.990671800431,37.5772214457464,http://place.map.kakao.com/26952171,,unknown,unknown,,7,4.7
14930642,서울무형문화재 돈화문 교육전시장,"문화,예술 > 문화시설 > 전시관",CT1,문화시설,02-742-6444,서울 종로구 권농동 127-4,서울 종로구 율곡로10길 13,126.9911065465007,37.576936765090245,http://place.map.kakao.com/14930642,,unknown,unknown,,1,5.0
8129692,표갤러리,"문화,예술 > 문화시설 > 미술관",CT1,문화시설,02-543-7337,서울 종로구 체부동 120-2,서울 종로구 자하문로5길 18-4,126.97082873644398,37.57789575768786,http://place.map.kakao.com/8129692,,unknown,unknown,,0,0
136380522,TYA서촌,"문화,예술 > 문화시설 > 미술관",CT1,문화시설,010-8060-9481,서울 종로구 체부동 126,서울 종로구 자하문로5길 28,126.970312542225,37.5778172425068,http://place.map.kakao.com/136380522,,unknown,unknown,,0,0
1050667060,스페이스깨,"문화,예술 > 문화시설 > 전시관",CT1,문화시설,,서울 종로구 체부동 134,서울 종로구 자하문로5길 15,126.970969217053,37.5776290980353,http://place.map.kakao.com/1050667060,,unknown,unknown,,0,0
595557737,갤러리B,"문화,예술 > 문화시설 > 미술관",CT1,문화시설,02-737-8574,서울 종로구 체부동 28-2,서울 종로구 자하문로7길 5,126.971276934955,37.5781625618643,http://place.map.kakao.com/595557737,,unknown,unknown,#제로페이 ,0,0
341652379,그라운드시소 서촌,"문화,예술 > 문화시설 > 전시관",CT1,문화시설,02-501-9544,서울 종로구 통의동 35-17,서울 종로구 자하문로6길 18-8,126.972916300185,37.5778385914657,http://place.map.kakao.com/341652379,,unknown,unknown,,40,3.1
8299285,대림미술관,"문화,예술 > 문화시설 > 미술관",CT1,문화시설,02-720-0667,서울 종로구 통의동 35-1,서울 종로구 자하문로4길 21,126.97336244129605,37.5775449688657,http://place.map.kakao.com/8299285,,unknown,unknown,,29,3.8
8778944,갤러리시몬,"문화,예술 > 문화시설 > 미술관",CT1,문화시설,02-549-3031,서울 종로구 통의동 35-9,서울 종로구 자하문로6길 20,126.97329204906,37.5781161832806,http://place.map.kakao.com/8778944,,unknown,unknown,,1,4.0
1054632204,국립고궁박물관 별관,"문화,예술 > 문화시설 > 박물관",CT1,문화시설,,서울 종로구 세종로 1-1,서울 종로구 사직로 161,126.974574804154,37.5777858016662,http://place.map.kakao.com/1054632204,,unknown,unknown,,1,5.0
12163059,금호미술관,"문화,예술 > 문화시설 > 미술관",CT1,문화시설,02-720-5114,서울 종로구 사간동 78,서울 종로구 삼청로 18,126.979894494703,37.577465172613,http://place.map.kakao.com/12163059,,unknown,unknown,,5,3.6
10589343,아프리카미술관,"문화,예술 > 문화시설 > 미술관",CT1,문화시설,02-730-2430,서울 종로구 사간동 69,서울 종로구 삼청로 22,126.979912482877,37.5779300886963,http://place.map.kakao.com/10589343,,unknown,unknown,,0,0
1664494795,아트비앤,"문화,예술 > 문화시설 > 전시관",CT1,문화시설,02-6012-1434,서울 종로구 사간동 41,서울 종로구 삼청로 22-31,126.980505718632,37.577818464872,http://place.map.kakao.com/1664494795,,unknown,unknown,,0,0
14982312,아라리오뮤지엄 인 스페이스,"문화,예술 > 문화시설 > 미술관",CT1,문화시설,02-736-5700,서울 종로구 원서동 229,서울 종로구 율곡로 83,126.988547970142,37.5777438354931,http://place.map.kakao.com/14982312,,unknown,unknown,,17,4.1
26557632,이상범가옥,"문화,예술 > 문화시설 > 전시관",CT1,문화시설,,서울 종로구 누하동 178,서울 종로구 필운대로 31-7,126.968396632153,37.5788682052583,http://place.map.kakao.com/26557632,,unknown,unknown,,0,0
1231489264,아트스페이스3,"문화,예술 > 문화시설 > 전시관",CT1,문화시설,02-730-5322,서울 종로구 통의동 7-33,서울 종로구 효자로7길 23,126.973319096728,37.5784585671646,http://place.map.kakao.com/1231489264,,unknown,unknown,#아이와체험 ,0,0
158908100,인디프레스갤러리,"문화,예술 > 문화시설 > 미술관",CT1,문화시설,070-7686-1125,서울 종로구 통의동 7-25,서울 종로구 효자로 31,126.973717475463,37.5787830144003,http://place.map.kakao.com/158908100,,unknown,unknown,,2,5.0
2118809273,보안1942,"문화,예술 > 문화시설 > 전시관",CT1,문화시설,,서울 종로구 통의동 2-1,서울 종로구 효자로 33,126.973668718956,37.579001044091,http://place.map.kakao.com/2118809273,,unknown,unknown,,5,4.2
23298803,진갤러리,"문화,예술 > 문화시설 > 미술관",CT1,문화시설,02-738-7570,서울 종로구 통의동 7-35,서울 종로구 자하문로6길 25,126.97349913667044,37.57834868643844,http://place.map.kakao.com/23298803,,unknown,unknown,#아이와체험 ,2,3.5
17952661,국립현대미술관 서울관,"문화,예술 > 문화시설 > 미술관",CT1,문화시설,02-3701-9500,서울 종로구 소격동 165-10,서울 종로구 삼청로 30,126.9800979573524,37.578627489574416,http://place.map.kakao.com/17952661,,unknown,unknown,,93,4.5
51384906,국립현대미술관서울관 아트팹랩,"문화,예술 > 문화시설 > 미술관",CT1,문화시설,,서울 종로구 소격동 165,서울 종로구 삼청로 30,126.980097955914,37.5786328955387,http://place.map.kakao.com/51384906,,unknown,unknown,,0,0
11048641,갤러리담,"문화,예술 > 문화시설 > 미술관",CT1,문화시설,,서울 종로구 안국동 7-1,서울 종로구 윤보선길 72,126.983444298366,37.5790803053311,http://place.map.kakao.com/11048641,,unknown,unknown,,2,4.5
251821607,제이콥1212,"문화,예술 > 문화시설 > 미술관",CT1,문화시설,,서울 종로구 재동 27-1,서울 종로구 북촌로 25,126.984845829227,37.579070582637,http://place.map.kakao.com/251821607,,unknown,unknown,,0,0
1571068944,명인옥션,"문화,예술 > 문화시설 > 미술관",CT1,문화시설,02-742-3111,서울 종로구 재동 38-1,서울 종로구 북촌로 21,126.98491040841786,37.57882281754813,http://place.map.kakao.com/1571068944,,unknown,unknown,,0,0
257207231,전통주갤러리,"문화,예술 > 문화시설 > 전시관",CT1,문화시설,02-555-2283,서울 종로구 재동 55,서울 종로구 북촌로 18,126.9858376674118,37.57840306918705,http://place.map.kakao.com/257207231,,unknown,unknown,,17,4.5
1462966471,갤러리재동,"문화,예술 > 문화시설 > 미술관",CT1,문화시설,,서울 종로구 재동 60,서울 종로구 북촌로 20-3,126.985579508481,37.5786336924248,http://place.map.kakao.com/1462966471,,unknown,unknown,,0,0
1192511266,통통바이츄,"문화,예술 > 문화시설 > 전시관",CT1,문화시설,,서울 종로구 계동 104-1,서울 종로구 계동길 33-2,126.986564372696,37.5789077108233,http://place.map.kakao.com/1192511266,,unknown,unknown,,0,0
11935558,북촌아트홀,"문화,예술 > 문화시설 > 공연장,연극극장",CT1,문화시설,02-988-2258,서울 종로구 원서동 157-1,서울 종로구 창덕궁길 29-4,126.98900062357,37.5789331908008,http://place.map.kakao.com/11935558,,unknown,unknown,#뮤지컬공연 #소극장 #아이와함께 #어린이공연 #어린이뮤지컬 #오페라공연 #제로페이 ,0,0
7910481,북촌창우극장,"문화,예술 > 문화시설 > 공연장,연극극장",CT1,문화시설,02-747-3809,서울 종로구 원서동 158-1,서울 종로구 창덕궁길 29-6,126.988864779873,37.5788863263743,http://place.map.kakao.com/7910481,,unknown,unknown,,1,5.0
534290752,북촌나래홀,"문화,예술 > 문화시설 > 공연장,연극극장",CT1,문화시설,,서울 종로구 원서동 174,서울 종로구 창덕궁길 29-38,126.988434593589,37.5788394333206,http://place.map.kakao.com/534290752,,unknown,unknown,,1,5.0
26325176,갤러리소행성,"문화,예술 > 문화시설 > 전시관",CT1,문화시설,,서울 종로구 누하동 64,서울 종로구 필운대로 43,126.968532056482,37.5798809586351,http://place.map.kakao.com/26325176,,unknown,unknown,,0,0
24894302,협동조합사진공방 공간291,"문화,예술 > 문화시설 > 전시관",CT1,문화시설,02-395-0291,서울 종로구 통인동 124,서울 종로구 자하문로11길 10-4,126.970791747074,37.5798491036006,http://place.map.kakao.com/24894302,,unknown,unknown,,0,0
798993249,창성동실험실,"문화,예술 > 문화시설 > 전시관",CT1,문화시설,,서울 종로구 창성동 144,서울 종로구 자하문로12길 11-5,126.97190566977498,37.58002596876224,http://place.map.kakao.com/798993249,,unknown,unknown,,0,0
26887803,온그라운드 지상소,"문화,예술 > 문화시설 > 전시관",CT1,문화시설,02-720-8260,서울 종로구 창성동 117-12,서울 종로구 자하문로10길 23,126.972779846692,37.5794999931382,http://place.map.kakao.com/26887803,,unknown,unknown,,60,3.3
12592063,갤러리에이큐브,"문화,예술 > 문화시설 > 미술관",CT1,문화시설,02-793-1115,서울 종로구 창성동 122-8,서울 종로구 자하문로12길 10-13,126.972553349153,37.5797125752589,http://place.map.kakao.com/12592063,,unknown,unknown,,1,3.0
1494934750,더그라운드,"문화,예술 > 문화시설 > 전시관",CT1,문화시설,,서울 종로구 창성동 117-10,서울 종로구 자하문로12길 10-15,126.972725442912,37.5796729714145,http://place.map.kakao.com/1494934750,,unknown,unknown,,0,0
8474452,아트선재센터,"문화,예술 > 문화시설 > 미술관",CT1,문화시설,02-733-8949,서울 종로구 소격동 144-2,서울 종로구 율곡로3길 87,126.981836609,37.5795738136114,http://place.map.kakao.com/8474452,,unknown,unknown,,8,4.1
27148388,송원아트센터,"문화,예술 > 문화시설 > 전시관",CT1,문화시설,02-735-9277,서울 종로구 화동 106-5,서울 종로구 윤보선길 75,126.983471413583,37.579328983475,http://place.map.kakao.com/27148388,,unknown,unknown,,2,3.0
12447800,서울교육박물관,"문화,예술 > 문화시설 > 박물관",CT1,문화시설,02-2011-5780,서울 종로구 화동 2,서울 종로구 북촌로5길 48,126.983276586049,37.5798082848136,http://place.map.kakao.com/12447800,,unknown,unknown,,3,5.0
1646297495,북촌전시실,"문화,예술 > 문화시설 > 전시관",CT1,문화시설,,서울 종로구 화동 2,서울 종로구 북촌로5길 48,126.983072860692,37.5795739973557,http://place.map.kakao.com/1646297495,,unknown,unknown,,0,0
27139183,코너갤러리,"문화,예술 > 문화시설 > 전시관",CT1,문화시설,,서울 종로구 재동 2-1,서울 종로구 북촌로5길 18,126.98394233236851,37.5794813164535,http://place.map.kakao.com/27139183,,unknown,unknown,,0,0
1392219290,소공헌,"문화,예술 > 문화시설 > 전시관",CT1,문화시설,02-6465-2210,서울 종로구 원서동 134-1,서울 종로구 창덕궁길 47,126.989131840857,37.5796558001363,http://place.map.kakao.com/1392219290,,unknown,unknown,,10,2.7
17132461,은덕문화원,"문화,예술 > 문화시설 > 문화원",CT1,문화시설,,서울 종로구 원서동 129-5,서울 종로구 창덕궁길 49,126.989127299618,37.5797440971233,http://place.map.kakao.com/17132461,,unknown,unknown,,3,5.0
548131450,갤러리 오뉴월,"문화,예술 > 문화시설 > 미술관",CT1,문화시설,02-745-6741,서울 종로구 원서동 136-3,서울 종로구 창덕궁1길 12,126.988574878137,37.5794566278812,http://place.map.kakao.com/548131450,,unknown,unknown,,0,0
11377187,전통문화원,"문화,예술 > 문화시설 > 문화원",CT1,문화시설,02-722-8254,서울 종로구 통인동 111,서울 종로구 자하문로 51,126.970886578474,37.5805302783619,http://place.map.kakao.com/11377187,,unknown,unknown,#아이와함께 #전통문화체험 #한복체험 ,0,0
12447481,국제갤러리 본관,"문화,예술 > 문화시설 > 미술관",CT1,문화시설,02-735-8449,서울 종로구 소격동 59-1,서울 종로구 삼청로 54,126.980459686997,37.5806836181488,http://place.map.kakao.com/12447481,,unknown,unknown,,21,2.8
1476542248,바라캇서울,"문화,예술 > 문화시설 > 미술관",CT1,문화시설,02-730-1949,서울 종로구 소격동 55,서울 종로구 삼청로 58-4,126.980640776938,37.5808710546875,http://place.map.kakao.com/1476542248,,unknown,unknown,#아이와체험 ,2,4.0
26462712,세움아트스페이스,"문화,예술 > 문화시설 > 미술관",CT1,문화시설,02-733-1943,서울 종로구 소격동 73,서울 종로구 삼청로 48,126.980206224812,37.5801862273384,http://place.map.kakao.com/26462712,,unknown,unknown,,0,0
1756998252,BGA 마루,"문화,예술 > 문화시설 > 전시관",CT1,문화시설,010-9217-8225,서울 종로구 소격동 90,서울 종로구 삼청로2길 26,126.981265819995,37.5804170546749,http://place.map.kakao.com/1756998252,,unknown,unknown,,0,0
2998056,JY아트갤러리,"문화,예술 > 문화시설 > 전시관",CT1,문화시설,,서울 종로구 소격동 35-3,서울 종로구 북촌로5가길 25,126.9817639156,37.5805540837313,http://place.map.kakao.com/2998056,,unknown,unknown,,0,0
1691396042,가고시포갤러리,"문화,예술 > 문화시설 > 미술관",CT1,문화시설,02-722-9669,서울 종로구 화동 99,서울 종로구 북촌로5가길 16,126.98216701332,37.5802802431958,http://place.map.kakao.com/1691396042,,unknown,unknown,,2,5.0
25973504,갤러리 기체,"문화,예술 > 문화시설 > 미술관",CT1,문화시설,010-553-3414,서울 종로구 화동 90-1,서울 종로구 북촌로5가길 20,126.98210923887864,37.58043430439741,http://place.map.kakao.com/25973504,,unknown,unknown,,0,0
667592658,갤러리단정,"문화,예술 > 문화시설 > 전시관",CT1,문화시설,02-6154-0058,서울 종로구 화동 102,서울 종로구 북촌로5가길 8-7,126.982420616822,37.5802334295553,http://place.map.kakao.com/667592658,,unknown,unknown,,0,0
974437016,크래프트온더힐,"문화,예술 > 문화시설 > 전시관",CT1,문화시설,02-747-5854,서울 종로구 가회동 97,서울 종로구 북촌로7길 20,126.983890004886,37.5806462943974,http://place.map.kakao.com/974437016,,unknown,unknown,,0,0
27139251,역사가옥박물관,"문화,예술 > 문화시설 > 박물관",CT1,문화시설,,서울 종로구 가회동 93-1,서울 종로구 북촌로7길 16,126.984032584012,37.5809616615844,http://place.map.kakao.com/27139251,,unknown,unknown,,0,0
1482475694,러브컨템포러리아트 서울,"문화,예술 > 문화시설 > 미술관",CT1,문화시설,,서울 종로구 가회동 99,서울 종로구 북촌로7길 18-4,126.984025864444,37.5806192830469,http://place.map.kakao.com/1482475694,,unknown,unknown,,0,0
20058590,북촌박물관,"문화,예술 > 문화시설 > 박물관",CT1,문화시설,02-766-8402,서울 종로구 가회동 170-4,서울 종로구 북촌로 39,126.984739162023,37.5802986236203,http://place.map.kakao.com/20058590,,unknown,unknown,,1,2.0
9987279,청남문화원,"문화,예술 > 문화시설 > 문화원",CT1,문화시설,02-762-7189,서울 종로구 가회동 170-4,서울 종로구 북촌로 39,126.98479236164512,37.58034548216515,http://place.map.kakao.com/9987279,,unknown,unknown,,0,0
9757996,명인박물관,"문화,예술 > 문화시설 > 박물관",CT1,문화시설,02-766-0272,서울 종로구 가회동 208-7,서울 종로구 북촌로6길 1,126.985210153839,37.5801256927512,http://place.map.kakao.com/9757996,,unknown,unknown,#아이와체험 ,1,5.0
1215851258,소쇼,"문화,예술 > 문화시설 > 미술관",CT1,문화시설,,서울 종로구 계동 92,서울 종로구 북촌로6길 32-4,126.986369416946,37.5802051197612,http://place.map.kakao.com/1215851258,,unknown,unknown,,2,5.0
27579022,성재전통건축자료관,"문화,예술 > 문화시설 > 박물관",CT1,문화시설,02-742-1311,서울 종로구 원서동 135-2,서울 종로구 창덕궁1가길 19,126.987972469986,37.580280977462,http://place.map.kakao.com/27579022,,unknown,unknown,,0,0
21631695,종로구립 박노수미술관,"문화,예술 > 문화시설 > 미술관",CT1,문화시설,,서울 종로구 옥인동 168-2,서울 종로구 옥인1길 34,126.966783450397,37.5813184655898,http://place.map.kakao.com/21631695,,unknown,n,#문화예술공간 #사진전시 #아이와체험 ,11,2.9
661026280,세종이야기미술관,"문화,예술 > 문화시설 > 미술관",CT1,문화시설,,서울 종로구 통인동 36-4,서울 종로구 자하문로17길 33,126.968839399754,37.581293798387,http://place.map.kakao.com/661026280,,unknown,unknown,,0,0
661026280,세종이야기미술관,"문화,예술 > 문화시설 > 미술관",CT1,문화시설,,서울 종로구 통인동 36-4,서울 종로구 자하문로17길 33,126.968839399754,37.581293798387,http://place.map.kakao.com/661026280,,unknown,unknown,,0,0
8191467,국립민속박물관,"문화,예술 > 문화시설 > 박물관",CT1,문화시설,02-3704-3114,서울 종로구 세종로 1-1,서울 종로구 사직로 161,126.9790329340514,37.5817087041721,http://place.map.kakao.com/8191467,,unknown,unknown,,22,2.4
11132352,세계장신구박물관,"문화,예술 > 문화시설 > 박물관",CT1,문화시설,02-730-0610,서울 종로구 화동 75-3,서울 종로구 북촌로5나길 2,126.981809094039,37.5809901716813,http://place.map.kakao.com/11132352,,unknown,unknown,,2,4.0
8125507,가회민화박물관,"문화,예술 > 문화시설 > 박물관",CT1,문화시설,02-741-0466,서울 종로구 가회동 28,서울 종로구 북촌로 52,126.985227994125,37.581509621394,http://place.map.kakao.com/8125507,,unknown,unknown,,1,1.0
7841800,동림매듭공방,"문화,예술 > 문화시설 > 박물관",CT1,문화시설,02-3673-2778,서울 종로구 가회동 11-7,서울 종로구 북촌로12길 10,126.985635502714,37.5818088015703,http://place.map.kakao.com/7841800,,unknown,unknown,,1,5.0
983287184,뮤지엄헤드,"문화,예술 > 문화시설 > 전시관",CT1,문화시설,02-595-9147,서울 종로구 계동 133-6,서울 종로구 계동길 84-3,126.9869647231712,37.58125304275514,http://place.map.kakao.com/983287184,,unknown,unknown,,0,0
1360720141,태오양스튜디오,"문화,예술 > 문화시설 > 전시관",CT1,문화시설,02-3672-2302,서울 종로구 계동 67-22,서울 종로구 계동길 97-8,126.986323857061,37.5817115760173,http://place.map.kakao.com/1360720141,,unknown,unknown,,0,0
10758949,인사미술공간,"문화,예술 > 문화시설 > 미술관",CT1,문화시설,02-760-4721,서울 종로구 원서동 90,서울 종로구 창덕궁길 89,126.989222137403,37.5815388854428,http://place.map.kakao.com/10758949,,unknown,unknown,,1,3.0
1164236447,갤러리림,"문화,예술 > 문화시설 > 미술관",CT1,문화시설,,서울 종로구 원서동 92,,126.9892561167921,37.5814307693015,http://place.map.kakao.com/1164236447,,unknown,unknown,,0,0
