id,place_name,category_name,category_group_code,category_group_name,phone,address_name,road_address_name,x,y,place_url,distance,wheelchair,animal,keyword,evalnum,rate
1946963150,한국수력원자력 서울부속의원,"의료,건강 > 병원 > 일반의원",HP8,병원,02-6106-4333,서울 중구 중림동 500,서울 중구 서소문로 38,126.966217778491,37.5604044033997,http://place.map.kakao.com/1946963150,,unknown,unknown,,0,0
8229478,이준걸통증의원,"의료,건강 > 병원 > 통증클리닉",HP8,병원,02-318-2428,서울 중구 남대문로4가 20-2,서울 중구 남대문시장길 17,126.9769428475,37.560237597594,http://place.map.kakao.com/8229478,,unknown,unknown,,0,0
1262068818,신마취통증의학과,"의료,건강 > 병원 > 통증클리닉",HP8,병원,,서울 중구 회현동1가 210,서울 중구 퇴계로 67,126.979570947685,37.5600668921679,http://place.map.kakao.com/1262068818,,unknown,unknown,,0,0
247056668,더본재활의학과의원,"의료,건강 > 병원 > 재활의학과",HP8,병원,,서울 중구 회현동1가 210,서울 중구 퇴계로 67,126.979573209816,37.5600722985409,http://place.map.kakao.com/247056668,,unknown,unknown,,0,0
9309814,명동 아름다운치과의원,"의료,건강 > 병원 > 치과",HP8,병원,02-777-0020,서울 중구 회현동3가 11-3,서울 중구 퇴계로 108,126.98372797243798,37.56047749185824,http://place.map.kakao.com/9309814,,unknown,unknown,,4,3.0
17351034,여노피산부인과,"의료,건강 > 병원 > 산부인과",HP8,병원,02-757-4747,서울 중구 남산동1가 1-2,서울 중구 퇴계로 120,126.98507820138,37.5605776808778,http://place.map.kakao.com/17351034,,unknown,unknown,,32,3.8
7870568,명동박내과의원,"의료,건강 > 병원 > 내과",HP8,병원,02-3789-6688,서울 중구 남산동1가 1-2,서울 중구 퇴계로 120,126.98507367665172,37.56056506634996,http://place.map.kakao.com/7870568,,unknown,unknown,,25,4.8
1167541241,빈센트의원,"의료,건강 > 병원 > 일반의원",HP8,병원,02-507-8000,서울 중구 남산동1가 7-3,서울 중구 퇴계로16길 5,126.98466626274552,37.56037940878588,http://place.map.kakao.com/1167541241,,unknown,unknown,#예약진료가능 ,0,0
12697535,트루맨남성의원 명동점,"의료,건강 > 병원 > 비뇨기과",HP8,병원,02-777-7081,서울 중구 남산동1가 1-2,서울 중구 퇴계로 120,126.985064617488,37.5605884911225,http://place.map.kakao.com/12697535,,unknown,unknown,,20,4.8
23382975,멘파워비뇨기과 강북점,"의료,건강 > 병원 > 비뇨기과",HP8,병원,02-757-2001,서울 중구 회현동3가 1-5,서울 중구 퇴계로 116-1,126.984634528451,37.5605920399206,http://place.map.kakao.com/23382975,,unknown,unknown,,0,0
26557510,유앤아이의원 명동점,"의료,건강 > 병원 > 피부과",HP8,병원,,서울 중구 회현동3가 1-5,서울 중구 퇴계로 116-1,126.98463001082952,37.5605451874962,http://place.map.kakao.com/26557510,,unknown,unknown,#레이저제모술 #리프팅 #보톡스 #비만치료 #아쿠아필 #여드름치료 #윤곽주사 #피부질환 ,7,4.6
9351702,이플랜치과,"의료,건강 > 병원 > 치과",HP8,병원,02-319-8193,서울 중구 남산동1가 1-2,서울 중구 퇴계로 120,126.985082727906,37.5605812854372,http://place.map.kakao.com/9351702,,unknown,unknown,,0,0
1620824757,유앤영피부과의원 명동점,"의료,건강 > 병원 > 피부과",HP8,병원,02-318-7533,서울 중구 남산동1가 1-2,서울 중구 퇴계로 120,126.98507820138,37.5605776808778,http://place.map.kakao.com/1620824757,,unknown,unknown,,18,3.4
1268539866,서울믿음치과의원,"의료,건강 > 병원 > 치과",HP8,병원,02-362-8750,서울 중구 중림동 419,서울 중구 서소문로 50,126.967027927764,37.5609163986134,http://place.map.kakao.com/1268539866,,unknown,unknown,,3,5.0
2062521482,서울원하트내과,"의료,건강 > 병원 > 내과",HP8,병원,02-362-9703,서울 중구 중림동 355,서울 중구 청파로 464,126.968227694183,37.5608194199201,http://place.map.kakao.com/2062521482,,unknown,unknown,,12,4.3
9831699,브라이트치과의원,"의료,건강 > 병원 > 치과",HP8,병원,02-312-2875,서울 중구 중림동 355,서울 중구 청파로 464,126.968273027899,37.5606752726232,http://place.map.kakao.com/9831699,,unknown,unknown,,8,4.0
7960432,소중한나의원,"의료,건강 > 병원 > 피부과",HP8,병원,02-318-5036,서울 중구 순화동 53,서울 중구 세종대로7길 37,126.972279600143,37.5607952128685,http://place.map.kakao.com/7960432,,unknown,unknown,,9,1.3
1708936151,메이치과의원,"의료,건강 > 병원 > 치과",HP8,병원,02-776-2882,서울 중구 순화동 53,서울 중구 세종대로7길 37,126.972487869885,37.560752013737,http://place.map.kakao.com/1708936151,,unknown,unknown,#임플란트 ,4,4.0
298407327,소중한나 비뇨의학과의원,"의료,건강 > 병원 > 비뇨기과",HP8,병원,02-318-5027,서울 중구 순화동 53,서울 중구 세종대로7길 37,126.972528617824,37.5607448152507,http://place.map.kakao.com/298407327,,unknown,unknown,,1,1.0
2125938659,서울삼성치과의원,"의료,건강 > 병원 > 치과",HP8,병원,,서울 중구 서소문동 135,서울 중구 세종대로9길 41,126.972994703886,37.5613576005762,http://place.map.kakao.com/2125938659,,unknown,unknown,,0,0
27572268,최앤이치과의원,"의료,건강 > 병원 > 치과",HP8,병원,02-6271-2875,서울 중구 남대문로4가 45,서울 중구 세종대로 39,126.973642283039,37.5608567927256,http://place.map.kakao.com/27572268,,unknown,unknown,#임플란트 #치아교정 #통증치료 ,14,3.9
8414275,신한은행부속치과의원,"의료,건강 > 병원 > 치과",HP8,병원,02-2151-5039,서울 중구 태평로2가 120,서울 중구 세종대로9길 20,126.9745499235119,37.56107863706978,http://place.map.kakao.com/8414275,,unknown,unknown,,0,0
107107575,신한은행부속의원,"의료,건강 > 병원 > 일반의원",HP8,병원,02-2151-5824,서울 중구 태평로2가 120,서울 중구 세종대로9길 20,126.974574809438,37.5611200882823,http://place.map.kakao.com/107107575,,unknown,unknown,,0,0
10214662,김기홍치과의원,"의료,건강 > 병원 > 치과",HP8,병원,02-771-7575,서울 중구 남대문로4가 3-8,서울 중구 남대문로 16,126.9775063489933,37.56069631369589,http://place.map.kakao.com/10214662,,unknown,unknown,,1,1.0
8989551,미래의원,"의료,건강 > 병원 > 일반의원",HP8,병원,02-778-5801,서울 중구 남대문로3가 30-8,서울 중구 남대문로 18-1,126.977798329183,37.560789171634,http://place.map.kakao.com/8989551,,unknown,unknown,,2,5.0
9902007,심상선독일치과의원,"의료,건강 > 병원 > 치과",HP8,병원,02-752-7528,서울 중구 남대문로3가 30-7,서울 중구 남대문로 20,126.977897934164,37.5607711703859,http://place.map.kakao.com/9902007,,unknown,unknown,,0,0
1987570223,유디치과의원 남대문점,"의료,건강 > 병원 > 치과",HP8,병원,02-777-9393,서울 중구 남창동 1-1,서울 중구 남대문로 30,126.979084055122,37.5608434662141,http://place.map.kakao.com/1987570223,,unknown,unknown,,0,0
12387221,신통증의학과의원,"의료,건강 > 병원 > 정형외과",HP8,병원,02-516-3302,서울 중구 회현동1가 202-6,서울 중구 남대문시장길 73,126.979989505301,37.5608508311205,http://place.map.kakao.com/12387221,,unknown,unknown,,3,5.0
307225510,민치과의원,"의료,건강 > 병원 > 치과",HP8,병원,02-319-2898,서울 중구 회현동1가 202-6,서울 중구 남대문시장길 73,126.979998559823,37.5608508326547,http://place.map.kakao.com/307225510,,unknown,unknown,,5,4.2
13614841,김경희건강한마음의원,"의료,건강 > 병원 > 정신건강의학과",HP8,병원,02-310-5388,서울 중구 충무로1가 52-5,서울 중구 소공로 63,126.981112238739,37.5609591356841,http://place.map.kakao.com/13614841,,unknown,unknown,,0,0
11505029,서울중앙의료의원,"의료,건강 > 병원 > 일반의원",HP8,병원,02-6450-5500,서울 중구 충무로1가 21-1,서울 중구 소공로 70,126.982216766969,37.5614854893174,http://place.map.kakao.com/11505029,,unknown,unknown,,41,2.5
8620175,한누리치과병원,"의료,건강 > 병원 > 치과",HP8,병원,02-753-1922,서울 중구 충무로1가 25-5,서울 중구 퇴계로 97,126.98254738593,37.5609449406015,http://place.map.kakao.com/8620175,,unknown,unknown,,2,5.0
2124980934,뮤즈의원 명동점,"의료,건강 > 병원 > 일반의원",HP8,병원,02-754-5599,서울 중구 충무로1가 25-5,서울 중구 퇴계로 97,126.982547382568,37.5609593565496,http://place.map.kakao.com/2124980934,,unknown,unknown,,0,0
1586054016,슬림앤영의원,"의료,건강 > 병원 > 일반의원",HP8,병원,02-754-5599,서울 중구 충무로1가 25-5,서울 중구 퇴계로 97,126.98254738593,37.5609449406015,http://place.map.kakao.com/1586054016,,unknown,unknown,,3,5.0
11115544,신세기치과,"의료,건강 > 병원 > 치과",HP8,병원,02-757-0028,서울 중구 충무로1가 25-11,서울 중구 소공로 66,126.982031242901,37.561089022662,http://place.map.kakao.com/11115544,,unknown,unknown,,0,0
27116000,아비쥬의원 명동,"의료,건강 > 병원 > 가정의학과",HP8,병원,1544-0377,서울 중구 충무로1가 24-31,서울 중구 퇴계로 109,126.98386481900688,37.56095233596868,http://place.map.kakao.com/27116000,,unknown,unknown,,52,4.5
613757191,더끌림 산부인과의원,"의료,건강 > 병원 > 산부인과",HP8,병원,02-318-0308,서울 중구 충무로1가 24-31,서울 중구 퇴계로 109,126.983864819007,37.5609523359687,http://place.map.kakao.com/613757191,,unknown,unknown,,2,0
18806265,미앤미의원,"의료,건강 > 병원 > 피부과",HP8,병원,02-754-1108,서울 중구 충무로1가 24-31,서울 중구 퇴계로 109,126.983860292517,37.5609487313628,http://place.map.kakao.com/18806265,,unknown,unknown,,0,0
11561872,나사랑의원,"의료,건강 > 병원 > 일반의원",HP8,병원,02-318-0678,서울 중구 충무로1가 24-31,서울 중구 퇴계로 109,126.983864819007,37.5609523359687,http://place.map.kakao.com/11561872,,unknown,unknown,,0,0
23477254,명동독일치과의원,"의료,건강 > 병원 > 치과",HP8,병원,02-757-8275,서울 중구 충무로1가 24-31,서울 중구 퇴계로 109,126.983869347051,37.5609487326002,http://place.map.kakao.com/23477254,,unknown,n,,5,2.6
16296109,노태래치과의원,"의료,건강 > 병원 > 치과",HP8,병원,02-776-7334,서울 중구 충무로1가 24-28,서울 중구 명동2길 57,126.98342454486428,37.56094056202082,http://place.map.kakao.com/16296109,,unknown,unknown,,0,0
18561207,명동리본의원,"의료,건강 > 병원 > 피부과",HP8,병원,02-754-5012,서울 중구 충무로1가 24-31,서울 중구 퇴계로 109,126.98387160375096,37.56098089849399,http://place.map.kakao.com/18561207,,unknown,unknown,,0,0
1352463832,톡스앤필의원 명동점,"의료,건강 > 병원 > 피부과",HP8,병원,02-318-5113,서울 중구 충무로1가 24-6,서울 중구 명동8나길 9,126.98443065616614,37.56129479071301,http://place.map.kakao.com/1352463832,,unknown,unknown,,17,3.1
17083577,명동서울밝은안과의원,"의료,건강 > 병원 > 안과",HP8,병원,02-3789-2200,서울 중구 충무로2가 65-9,서울 중구 퇴계로 123,126.9852070668147,37.56139219819254,http://place.map.kakao.com/17083577,,unknown,unknown,,13,1.9
10563757,센트럴이비인후과의원,"의료,건강 > 병원 > 이비인후과",HP8,병원,02-2079-0800,서울 중구 충무로2가 65-9,서울 중구 퇴계로 123,126.985390453884,37.561230041614,http://place.map.kakao.com/10563757,,unknown,unknown,,16,4.5
776893818,세린산부인과 명동점,"의료,건강 > 병원 > 산부인과",HP8,병원,02-6261-3600,서울 중구 충무로2가 65-9,서울 중구 퇴계로 123,126.985354215859,37.5613309487599,http://place.map.kakao.com/776893818,,unknown,unknown,,9,3.9
8442883,엠와이치과의원,"의료,건강 > 병원 > 치과",HP8,병원,02-318-2202,서울 중구 충무로2가 65-9,서울 중구 퇴계로 123,126.98537687731508,37.561203010030646,http://place.map.kakao.com/8442883,,unknown,unknown,,4,5.0
1710825306,다오클리닉,"의료,건강 > 병원 > 성형외과",HP8,병원,02-776-7582,서울 중구 충무로2가 65-9,서울 중구 퇴계로 123,126.985371206057,37.561265178104,http://place.map.kakao.com/1710825306,,unknown,unknown,,0,0
14506293,아름다운미탐의원,"의료,건강 > 병원 > 일반의원",HP8,병원,02-3789-1110,서울 중구 충무로2가 65-9,서울 중구 퇴계로 123,126.985367809006,37.5612732866538,http://place.map.kakao.com/14506293,,unknown,unknown,#여드름치료 #피부관리 #제로페이 ,5,5.0
19877725,체리쉬 다오&셀의원,"의료,건강 > 병원 > 일반의원",HP8,병원,1661-5336,서울 중구 충무로2가 65-9,서울 중구 퇴계로 123,126.98536441636124,37.56125887028532,http://place.map.kakao.com/19877725,,unknown,unknown,,1,5.0
1173015153,명동톡의원,"의료,건강 > 병원 > 성형외과",HP8,병원,,서울 중구 충무로2가 65-11,서울 중구 퇴계로 125,126.98570738511155,37.56111835680733,http://place.map.kakao.com/1173015153,,unknown,unknown,,0,0
1302647773,아이차이의원,"의료,건강 > 병원 > 일반의원",HP8,병원,,서울 중구 충무로2가 65-9,서울 중구 퇴계로 123,126.98536328313,37.5612660781188,http://place.map.kakao.com/1302647773,,unknown,unknown,,0,0
27495770,올의원,"의료,건강 > 병원 > 피부과",HP8,병원,02-544-1110,서울 중구 남산동3가 13-31,서울 중구 퇴계로 132,126.98646803435004,37.56074993874708,http://place.map.kakao.com/27495770,,unknown,unknown,,21,4.7
9028411,명동고운세상피부과의원,"의료,건강 > 병원 > 피부과",HP8,병원,02-755-5411,서울 중구 충무로2가 64-5,서울 중구 퇴계로 131,126.986404557005,37.5612770145752,http://place.map.kakao.com/9028411,,unknown,unknown,,11,3.1
128427592,시청역성모정형외과,"의료,건강 > 병원 > 정형외과",HP8,병원,02-776-6600,서울 중구 서소문동 120-12,서울 중구 세종대로11길 30,126.974205413901,37.5623453636141,http://place.map.kakao.com/128427592,,unknown,unknown,,0,0
27385321,미소담치과의원,"의료,건강 > 병원 > 치과",HP8,병원,02-777-2824,서울 중구 서소문동 120-23,서울 중구 세종대로9길 42,126.973791432696,37.5615704153453,http://place.map.kakao.com/27385321,,unknown,unknown,,5,4.2
10665041,이구치과의원,"의료,건강 > 병원 > 치과",HP8,병원,02-775-8277,서울 중구 서소문동 120-14,서울 중구 세종대로11길 42,126.97363159880712,37.5622695531419,http://place.map.kakao.com/10665041,,unknown,unknown,,0,0
218795627,강북삼성태평로의원,"의료,건강 > 병원 > 일반의원",HP8,병원,02-2001-1140,서울 중구 태평로2가 250,서울 중구 세종대로 67,126.975561343836,37.5623816919311,http://place.map.kakao.com/218795627,,unknown,unknown,,0,0
445104135,연세예감치과,"의료,건강 > 병원 > 치과",HP8,병원,02-318-8275,서울 중구 태평로2가 69-15,서울 중구 세종대로 70,126.97664339482672,37.56233866311455,http://place.map.kakao.com/445104135,,unknown,unknown,,1,5.0
10226330,권명대치과의원,"의료,건강 > 병원 > 치과",HP8,병원,02-755-5841,서울 중구 태평로2가 69-13,서울 중구 세종대로 68,126.97670001252791,37.56225578261637,http://place.map.kakao.com/10226330,,unknown,unknown,,0,0
2050418229,탑라인치과의원,"의료,건강 > 병원 > 치과",HP8,병원,02-6450-5010,서울 중구 충무로1가 21-1,서울 중구 소공로 70,126.98216241445776,37.5615899967357,http://place.map.kakao.com/2050418229,,unknown,unknown,,2,3.5
1594671161,이지앤치과의원,"의료,건강 > 병원 > 치과",HP8,병원,02-6450-5010,서울 중구 충무로1가 21-1,서울 중구 소공로 70,126.9821624090876,37.56161252165221,http://place.map.kakao.com/1594671161,,unknown,unknown,,0,0
14720152,아름다운나라피부과의원 명동,"의료,건강 > 병원 > 피부과",HP8,병원,02-755-2105,서울 중구 충무로1가 23-10,서울 중구 명동8나길 6,126.98457319551444,37.5616353861823,http://place.map.kakao.com/14720152,,unknown,unknown,,13,1.9
9011091,백명기의원,"의료,건강 > 병원 > 신경과",HP8,병원,02-775-9238,서울 중구 충무로2가 66-12,서울 중구 명동8길 45,126.9850508082075,37.56172734928417,http://place.map.kakao.com/9011091,,unknown,unknown,,1,3.0
11504993,노정식성형외과,"의료,건강 > 병원 > 성형외과",HP8,병원,02-778-7933,서울 중구 충무로1가 23-5,서울 중구 명동8길 40,126.98473386533183,37.56187867616791,http://place.map.kakao.com/11504993,,unknown,unknown,,2,5.0
1520072370,명동예쁨주의쁨의원,"의료,건강 > 병원 > 피부과",HP8,병원,02-752-8887,서울 중구 충무로2가 66-27,서울 중구 명동8가길 11,126.985680087631,37.561817526952,http://place.map.kakao.com/1520072370,,unknown,unknown,,21,4.0
19807300,플로레의원,"의료,건강 > 병원 > 피부과",HP8,병원,02-777-7805,서울 중구 충무로2가 7-1,서울 중구 명동10길 41,126.985874716787,37.5620590174986,http://place.map.kakao.com/19807300,,unknown,unknown,,2,5.0
2058358532,가디언즈치과의원,"의료,건강 > 병원 > 치과",HP8,병원,02-771-1400,서울 중구 충무로2가 11-1,서울 중구 명동8가길 27,126.986562888907,37.5619626911857,http://place.map.kakao.com/2058358532,,y,n,,18,4.3
15187101,MJ올피부과의원,"의료,건강 > 병원 > 피부과",HP8,병원,02-777-8275,서울 중구 충무로2가 11-1,서울 중구 명동8가길 27,126.986499496717,37.5620158427556,http://place.map.kakao.com/15187101,,unknown,unknown,,1,1.0
782236745,와이즈유의원,"의료,건강 > 병원 > 성형외과",HP8,병원,02-777-0528,서울 중구 충무로2가 61-2,서울 중구 명동8가길 52,126.987961867752,37.5617493059077,http://place.map.kakao.com/782236745,,unknown,unknown,,3,5.0
10657152,연세 하늘치과의원,"의료,건강 > 병원 > 치과",HP8,병원,02-2278-2875,서울 중구 충무로2가 51-15,서울 중구 삼일대로4길 12,126.989854263661,37.5619116630926,http://place.map.kakao.com/10657152,,unknown,unknown,,0,0
12592672,세연치과,"의료,건강 > 병원 > 치과",HP8,병원,02-2274-7570,서울 중구 충무로3가 57-8,서울 중구 퇴계로27길 28,126.9915893076429,37.56238752565549,http://place.map.kakao.com/12592672,,unknown,unknown,,2,5.0
11276130,대혜의원,"의료,건강 > 병원 > 일반의원",HP8,병원,02-2266-6963,서울 중구 충무로3가 59-12,서울 중구 수표로2길 1,126.990632930239,37.5621784224414,http://place.map.kakao.com/11276130,,unknown,unknown,,2,1.0
27344670,베스트힐링의원,"의료,건강 > 병원 > 일반의원",HP8,병원,02-313-2223,서울 서대문구 미근동 257,서울 서대문구 통일로 87,126.968512087885,37.5627764608081,http://place.map.kakao.com/27344670,,unknown,unknown,,4,5.0
9166910,서울중앙치과의원,"의료,건강 > 병원 > 치과",HP8,병원,02-735-3351,서울 중구 순화동 215,서울 중구 통일로 86,126.9695713662439,37.56309118633341,http://place.map.kakao.com/9166910,,unknown,unknown,,0,0
16561934,김의원,"의료,건강 > 병원 > 내과",HP8,병원,02-754-9147,서울 중구 서소문동 55-4,서울 중구 서소문로 103,126.972672644873,37.5630586080237,http://place.map.kakao.com/16561934,,unknown,unknown,#제로페이 ,20,2.8
11560690,프리미어중앙치과의원,"의료,건강 > 병원 > 치과",HP8,병원,02-3789-1875,서울 중구 서소문동 57-9,서울 중구 서소문로 99,126.97217923997172,37.56284045164268,http://place.map.kakao.com/11560690,,unknown,unknown,,1,1.0
13503553,하림치과의원,"의료,건강 > 병원 > 치과",HP8,병원,02-755-2014,서울 중구 서소문동 55-4,서울 중구 서소문로 103,126.972681707558,37.5630369862061,http://place.map.kakao.com/13503553,,unknown,unknown,,0,0
9023458,맑은숲이비인후과의원,"의료,건강 > 병원 > 이비인후과",HP8,병원,02-753-5075,서울 중구 서소문동 75-95,서울 중구 서소문로 116,126.974026434638,37.5627741987253,http://place.map.kakao.com/9023458,,unknown,unknown,#신속항원검사 #호흡기진료 #감기 #어지럼증 #이석증 ,10,3.3
12281938,더블유치과의원,"의료,건강 > 병원 > 치과",HP8,병원,02-771-3920,서울 중구 서소문동 48-2,서울 중구 서소문로 113,126.9735339641218,37.56310835904917,http://place.map.kakao.com/12281938,,unknown,unknown,#제로페이 ,3,5.0
19699217,현명신경외과의원,"의료,건강 > 병원 > 신경외과",HP8,병원,02-3789-9790,서울 중구 서소문동 136,서울 중구 서소문로 120,126.97467834524052,37.56286804397762,http://place.map.kakao.com/19699217,,y,n,,62,4.1
26583786,연세네이처치과의원,"의료,건강 > 병원 > 치과",HP8,병원,02-318-7522,서울 중구 서소문동 136,서울 중구 서소문로 120,126.974637597573,37.5628716392173,http://place.map.kakao.com/26583786,,unknown,unknown,,4,5.0
1131285765,임채균치과,"의료,건강 > 병원 > 치과",HP8,병원,02-757-2875,서울 중구 태평로2가 69-5,서울 중구 세종대로 74,126.976860602922,37.5626773904863,http://place.map.kakao.com/1131285765,,unknown,unknown,,0,0
9071852,밸런스치과의원,"의료,건강 > 병원 > 치과",HP8,병원,02-773-2877,서울 중구 소공동 32-7,서울 중구 남대문로 63,126.981392414842,37.5630278684389,http://place.map.kakao.com/9071852,,unknown,unknown,,0,0
132661642,명동라라의원,"의료,건강 > 병원 > 일반의원",HP8,병원,02-318-7944,서울 중구 명동2가 87-2,서울 중구 남대문로 68,126.982266182,37.5631108945912,http://place.map.kakao.com/132661642,,unknown,unknown,#제로페이 ,1,2.0
16036094,명동하나이비인후과의원,"의료,건강 > 병원 > 이비인후과",HP8,병원,02-3789-1345,서울 중구 명동2가 86,서울 중구 남대문로 68,126.98221751140252,37.56311539225291,http://place.map.kakao.com/16036094,,unknown,unknown,,27,4.4
13513304,아미스킨의원,"의료,건강 > 병원 > 피부과",HP8,병원,02-771-7890,서울 중구 명동2가 87-4,서울 중구 남대문로 66-1,126.982193764221,37.5630243880305,http://place.map.kakao.com/13513304,,unknown,unknown,,15,3.8
26786362,제이디의원,"의료,건강 > 병원 > 피부과",HP8,병원,02-6677-8660,서울 중구 명동2가 86,서울 중구 남대문로 68,126.98221185151225,37.56311809438968,http://place.map.kakao.com/26786362,,unknown,unknown,,2,5.0
1939750294,덕수치과의원,"의료,건강 > 병원 > 치과",HP8,병원,02-777-2510,서울 중구 명동2가 95-1,서울 중구 남대문로 64,126.98206140193444,37.56275767303117,http://place.map.kakao.com/1939750294,,unknown,unknown,,0,0
1749902056,빛이난다의원,"의료,건강 > 병원 > 피부과",HP8,병원,02-318-1102,서울 중구 명동2가 54-33,서울 중구 명동8길 8-9,126.984018261097,37.5632228683219,http://place.map.kakao.com/1749902056,,y,n,,2,5.0
11687292,CNP차앤박피부과 명동점,"의료,건강 > 병원 > 피부과 > CNP 차앤박피부과",HP8,병원,02-777-2488,서울 중구 명동2가 32-5,서울 중구 명동8길 17,126.984801539439,37.5630391684739,http://place.map.kakao.com/11687292,,unknown,unknown,,7,2.4
11187293,영락내과의원,"의료,건강 > 병원 > 내과",HP8,병원,02-2272-9211,서울 중구 저동2가 50-1,서울 중구 수표로 23,126.990139315587,37.5631983103236,http://place.map.kakao.com/11187293,,unknown,unknown,,10,2.3
26550296,사람사랑치과의원 서대문지점,"의료,건강 > 병원 > 치과",HP8,병원,02-392-2080,서울 서대문구 충정로2가 192,서울 서대문구 충정로 59,126.96488955203544,37.56412693366601,http://place.map.kakao.com/26550296,,unknown,unknown,#스케일링 #제로페이 ,8,4.6
97462647,광화문자생한방병원,"의료,건강 > 병원 > 한방병원",HP8,병원,1577-0007,서울 중구 순화동 1-170,서울 중구 통일로 92,126.96922254954114,37.56359475290744,http://place.map.kakao.com/97462647,,unknown,unknown,,28,3.6
9156717,소중한이치과,"의료,건강 > 병원 > 치과",HP8,병원,02-3789-2875,서울 중구 순화동 217,서울 중구 서소문로9길 28,126.97000692260066,37.56360396473993,http://place.map.kakao.com/9156717,,unknown,unknown,#제로페이 ,3,3.7
1973871695,다올치과의원 서대문점,"의료,건강 > 병원 > 치과",HP8,병원,02-779-8325,서울 중구 순화동 217,서울 중구 서소문로9길 28,126.970041967588,37.5637102912078,http://place.map.kakao.com/1973871695,,unknown,unknown,,0,0
968262220,라이즈치과의원,"의료,건강 > 병원 > 치과",HP8,병원,02-755-2125,서울 중구 서소문동 47-2,서울 중구 서소문로 115,126.973654992049,37.5633354372182,http://place.map.kakao.com/968262220,,unknown,unknown,,10,5.0
880572583,바른마음치과의원,"의료,건강 > 병원 > 치과",HP8,병원,02-2039-2835,서울 중구 서소문동 26,서울 중구 서소문로 129,126.975224719106,37.5637970872019,http://place.map.kakao.com/880572583,,unknown,unknown,,13,5.0
1243224357,서울바움치과의원,"의료,건강 > 병원 > 치과",HP8,병원,02-6242-2875,서울 중구 서소문동 34,서울 중구 서소문로 125,126.974945183234,37.563697017616,http://place.map.kakao.com/1243224357,,unknown,unknown,,7,4.7
447685712,민트정신건강의학과의원,"의료,건강 > 병원 > 정신건강의학과",HP8,병원,02-3789-7359,서울 중구 서소문동 26,서울 중구 서소문로 129,126.975225850668,37.5637979884357,http://place.map.kakao.com/447685712,,unknown,unknown,,3,3.7
8055093,임이비인후과의원,"의료,건강 > 병원 > 이비인후과",HP8,병원,02-752-0788,서울 중구 서소문동 91,서울 중구 서소문로 130,126.975524797245,37.5633835924535,http://place.map.kakao.com/8055093,,unknown,unknown,#코로나19전화상담 #신속항원검사 #호흡기진료 #비염 #제로페이 ,14,3.6
7888981,밝은안과,"의료,건강 > 병원 > 안과",HP8,병원,02-771-0061,서울 중구 태평로2가 340-6,서울 중구 서소문로 138,126.976326045766,37.5637117185217,http://place.map.kakao.com/7888981,,unknown,unknown,,23,2.2
9966151,서울가정의학과의원,"의료,건강 > 병원 > 가정의학과",HP8,병원,02-755-9955,서울 중구 태평로2가 340-6,서울 중구 서소문로 138,126.9763034268609,37.56365405021665,http://place.map.kakao.com/9966151,,unknown,unknown,#코로나19외래진료 #신속항원검사 #호흡기진료 #방광염 ,11,3.8
27107372,시청곧바른의원,"의료,건강 > 병원 > 정형외과",HP8,병원,02-6482-2580,서울 중구 태평로2가 340-6,서울 중구 서소문로 138,126.97629890000128,37.56365224731523,http://place.map.kakao.com/27107372,,unknown,unknown,,15,4.2
18567591,닥터노아치과의원,"의료,건강 > 병원 > 치과",HP8,병원,02-3789-7524,서울 중구 서소문동 21-1,서울 중구 서소문로 135,126.9758369723142,37.564053998047285,http://place.map.kakao.com/18567591,,n,y,,14,4.5
8516086,제일치과,"의료,건강 > 병원 > 치과",HP8,병원,02-318-2828,서울 중구 서소문동 99,서울 중구 서소문로 134,126.97587335002,37.5635638634749,http://place.map.kakao.com/8516086,,unknown,unknown,#제로페이 ,0,0
18166496,씨에라여성의원,"의료,건강 > 병원 > 산부인과",HP8,병원,02-777-3553,서울 중구 서소문동 97-2,서울 중구 서소문로 134,126.9758552298516,37.56359629564032,http://place.map.kakao.com/18166496,,unknown,unknown,#여성클리닉 #자궁경부암검사 #카카오페이 #제로페이 ,2,4.5
8555272,임승현비뇨기과의원,"의료,건강 > 병원 > 비뇨기과",HP8,병원,02-777-0606,서울 중구 태평로2가 340-6,서울 중구 서소문로 138,126.976312466888,37.5637009038418,http://place.map.kakao.com/8555272,,unknown,unknown,,0,0
9556613,한일치과의원,"의료,건강 > 병원 > 치과",HP8,병원,02-776-1594,서울 중구 태평로2가 340-6,서울 중구 서소문로 138,126.976307938313,37.5637045069185,http://place.map.kakao.com/9556613,,unknown,unknown,#제로페이 ,0,0
778960407,유덴치과의원,"의료,건강 > 병원 > 치과",HP8,병원,02-754-7575,서울 중구 서소문동 90-5,서울 중구 서소문로 130,126.9755055507198,37.56339890540099,http://place.map.kakao.com/778960407,,unknown,unknown,,1,5.0
9911000,연세수치과의원,"의료,건강 > 병원 > 치과",HP8,병원,02-319-7528,서울 중구 북창동 35,서울 중구 세종대로18길 16,126.978001253586,37.5635174273296,http://place.map.kakao.com/9911000,,unknown,unknown,,0,0
10405017,밀레니엄연세치과,"의료,건강 > 병원 > 치과",HP8,병원,02-773-8863,서울 중구 소공동 112-38,서울 중구 세종대로18길 36,126.979114930055,37.5637663045874,http://place.map.kakao.com/10405017,,unknown,unknown,,0,0
900429457,명동수치과의원,"의료,건강 > 병원 > 치과",HP8,병원,02-776-2880,서울 중구 소공동 28,서울 중구 남대문로7길 11,126.981256426921,37.563690980295,http://place.map.kakao.com/900429457,,unknown,unknown,,4,3.3
17789447,서울라인치과의원,"의료,건강 > 병원 > 치과",HP8,병원,02-2118-6200,서울 중구 소공동 7,서울 중구 남대문로 73,126.9818222404432,37.56416679483217,http://place.map.kakao.com/17789447,,unknown,unknown,,10,4.6
13502728,정치과의원,"의료,건강 > 병원 > 치과",HP8,병원,02-775-7473,서울 중구 소공동 25,서울 중구 남대문로7길 13,126.981120572103,37.5638170981394,http://place.map.kakao.com/13502728,,unknown,unknown,,2,5.0
13504624,소공치과의원,"의료,건강 > 병원 > 치과",HP8,병원,02-757-8285,서울 중구 소공동 24,서울 중구 남대문로7길 15,126.98097569675564,37.56380626292743,http://place.map.kakao.com/13504624,,unknown,unknown,,2,5.0
1109460580,리엔장의원 명동점,"의료,건강 > 병원 > 일반의원",HP8,병원,02-3789-3625,서울 중구 명동2가 83-5,서울 중구 명동길 14,126.982886367076,37.563410116935,http://place.map.kakao.com/1109460580,,unknown,unknown,,0,0
10337091,명동연세의원,"의료,건강 > 병원 > 내과",HP8,병원,02-755-5254,서울 중구 명동2가 50-14,서울 중구 명동길 26,126.983751065949,37.5635832304182,http://place.map.kakao.com/10337091,,unknown,unknown,,18,2.7
10665485,윤윤보내과의원,"의료,건강 > 병원 > 내과",HP8,병원,02-756-9855,서울 중구 명동1가 54-8,서울 중구 명동3길 6,126.98364007917976,37.56387964289632,http://place.map.kakao.com/10665485,,unknown,unknown,,22,4.3
13505730,한피부과의원,"의료,건강 > 병원 > 피부과",HP8,병원,02-776-3518,서울 중구 명동2가 50-14,서울 중구 명동길 26,126.983742032243,37.5634859215635,http://place.map.kakao.com/13505730,,unknown,unknown,,11,3.6
9831644,민유선산부인과의원,"의료,건강 > 병원 > 산부인과",HP8,병원,02-773-1456,서울 중구 명동2가 50-14,서울 중구 명동길 26,126.983714873995,37.5634570859355,http://place.map.kakao.com/9831644,,unknown,unknown,,26,4.3
17727454,리버스클리닉 명동점,"의료,건강 > 병원 > 피부과",HP8,병원,1544-0890,서울 중구 명동2가 50-14,서울 중구 명동길 26,126.983760148966,37.5634534881862,http://place.map.kakao.com/17727454,,unknown,unknown,,15,4.6
8493892,연세미소래치과,"의료,건강 > 병원 > 치과",HP8,병원,02-771-2828,서울 중구 명동2가 50-14,서울 중구 명동길 26,126.983868779036,37.5635832465602,http://place.map.kakao.com/8493892,,unknown,unknown,,0,0
8055459,라임나무치과병원 명동점,"의료,건강 > 병원 > 치과",HP8,병원,02-754-2879,서울 중구 명동1가 53-1,서울 중구 명동길 43,126.98473116955384,37.56399601757348,http://place.map.kakao.com/8055459,,unknown,unknown,,3,3.3
8708271,김동진성형외과의원,"의료,건강 > 병원 > 성형외과",HP8,병원,02-753-7383,서울 중구 명동2가 50-3,서울 중구 명동길 36-1,126.9843079325975,37.563615741615685,http://place.map.kakao.com/8708271,,unknown,unknown,,2,3.0
17819419,티안나의원,"의료,건강 > 병원 > 성형외과",HP8,병원,02-756-5600,서울 중구 명동1가 51,서울 중구 명동7길 6,126.984552314014,37.5640987078877,http://place.map.kakao.com/17819419,,unknown,unknown,,0,0
8403528,클래식피부과의원,"의료,건강 > 병원 > 피부과",HP8,병원,02-778-0330,서울 중구 명동2가 2-16,서울 중구 명동길 60,126.9857487602638,37.56375467776919,http://place.map.kakao.com/8403528,,unknown,unknown,,11,4.9
14536190,아이플란트치과,"의료,건강 > 병원 > 치과",HP8,병원,02-772-9828,서울 중구 명동2가 2-20,서울 중구 명동길 58,126.985584638942,37.563763667808,http://place.map.kakao.com/14536190,,unknown,unknown,,4,3.3
1829519381,명동연세치과의원,"의료,건강 > 병원 > 치과",HP8,병원,02-6956-2879,서울 중구 명동2가 2-19,서울 중구 명동길 60,126.985752152066,37.5637745000986,http://place.map.kakao.com/1829519381,,unknown,unknown,,0,0
911765365,서대문정형외과의원,"의료,건강 > 병원 > 정형외과",HP8,병원,02-365-0119,서울 서대문구 미근동 332,서울 서대문구 충정로 70,126.966360686038,37.5647724752957,http://place.map.kakao.com/911765365,,unknown,unknown,,0,0
13597412,베리굿치과의원,"의료,건강 > 병원 > 치과",HP8,병원,02-730-2878,서울 서대문구 미근동 332,서울 서대문구 충정로 70,126.966338004764,37.5648697764175,http://place.map.kakao.com/13597412,,unknown,unknown,,0,0
8790595,김안과의원,"의료,건강 > 병원 > 안과",HP8,병원,02-313-2509,서울 서대문구 미근동 193,서울 서대문구 통일로 107,126.96745193532,37.564491670365,http://place.map.kakao.com/8790595,,unknown,unknown,,9,3.6
8232843,김성철치과의원,"의료,건강 > 병원 > 치과",HP8,병원,02-738-9897,서울 중구 의주로1가 32-2,서울 중구 통일로 102,126.96846162737,37.564340577036,http://place.map.kakao.com/8232843,,unknown,unknown,,4,4.0
15428611,이앤이치과의원,"의료,건강 > 병원 > 치과",HP8,병원,02-773-9430,서울 중구 순화동 1-104,서울 중구 통일로4길 20,126.96891436556172,37.56436232101874,http://place.map.kakao.com/15428611,,unknown,unknown,,0,0
1045513824,이&이 치과,"의료,건강 > 병원 > 치과",HP8,병원,,서울 중구 순화동 1-104,서울 중구 통일로4길 20,126.968907574352,37.5643623192304,http://place.map.kakao.com/1045513824,,unknown,unknown,,0,0
20222692,서울특별시청치과의원,"의료,건강 > 병원 > 치과",HP8,병원,02-2133-1827,서울 중구 서소문동 37,서울 중구 덕수궁길 15,126.975614963747,37.5645549063275,http://place.map.kakao.com/20222692,,unknown,unknown,,0,0
8315278,백송치과의원,"의료,건강 > 병원 > 치과",HP8,병원,02-752-6663,서울 중구 태평로2가 360-1,서울 중구 세종대로 93,126.97666303577714,37.56468576259988,http://place.map.kakao.com/8315278,,unknown,unknown,,0,0
10192841,남도현프로덴탈치과의원,"의료,건강 > 병원 > 치과",HP8,병원,02-6366-2875,서울 중구 태평로2가 43,서울 중구 세종대로 92,126.977620731263,37.5642489648395,http://place.map.kakao.com/10192841,,unknown,unknown,,5,4.2
26826339,명동콤비치과의원,"의료,건강 > 병원 > 치과",HP8,병원,02-754-2114,서울 중구 남대문로2가 9-1,서울 중구 남대문로 84,126.98284080112089,37.56468231712421,http://place.map.kakao.com/26826339,,unknown,unknown,,356,4.9
11842177,위즈앤미의원,"의료,건강 > 병원 > 성형외과",HP8,병원,02-777-0900,서울 중구 을지로2가 199-40,서울 중구 명동7길 21,126.9838798588088,37.56469147353066,http://place.map.kakao.com/11842177,,unknown,unknown,,9,3.7
2044456887,시스템치과,"의료,건강 > 병원 > 치과",HP8,병원,02-771-2875,서울 중구 을지로2가 199-40,서울 중구 명동7길 21,126.98386514367763,37.56469507550543,http://place.map.kakao.com/2044456887,,unknown,unknown,,23,4.0
20689159,단아의원,"의료,건강 > 병원 > 일반의원",HP8,병원,02-779-7412,서울 중구 을지로2가 199-40,서울 중구 명동7길 21,126.98376895828494,37.564585140781205,http://place.map.kakao.com/20689159,,unknown,unknown,#반영구 #여드름치료 #여의사진료 #제로페이 ,6,4.2
13503498,덴티스타치과의원,"의료,건강 > 병원 > 치과",HP8,병원,02-752-2878,서울 중구 명동1가 59-25,서울 중구 명동3길 12,126.983692067211,37.5642355436347,http://place.map.kakao.com/13503498,,unknown,unknown,,3,4.7
13513866,메디코스의원,"의료,건강 > 병원 > 피부과",HP8,병원,02-3789-5868,서울 중구 을지로2가 199-58,서울 중구 명동7가길 20,126.98330263998854,37.5645274119922,http://place.map.kakao.com/13513866,,unknown,unknown,,0,0
26884884,준비뇨기과의원,"의료,건강 > 병원 > 비뇨기과",HP8,병원,02-773-3456,서울 중구 을지로2가 195-3,서울 중구 명동9길 23,126.98449329346587,37.56488797286799,http://place.map.kakao.com/26884884,,unknown,unknown,,46,4.5
529582823,한번에치과,"의료,건강 > 병원 > 치과",HP8,병원,02-753-2275,서울 중구 을지로2가 195-3,서울 중구 명동9길 23,126.98449782097128,37.56488797346256,http://place.map.kakao.com/529582823,,y,y,,6,5.0
13511327,루비의원,"의료,건강 > 병원 > 피부과",HP8,병원,02-774-8575,서울 중구 명동1가 5-1,서울 중구 명동길 65,126.98591958791276,37.56419618646935,http://place.map.kakao.com/13511327,,unknown,unknown,,21,2.0
10361454,루덴치과병원 명동점,"의료,건강 > 병원 > 치과",HP8,병원,02-757-2879,서울 중구 명동1가 5-1,서울 중구 명동길 65,126.985919587913,37.5641961864693,http://place.map.kakao.com/10361454,,unknown,unknown,,3,3.7
27469116,휴의원,"의료,건강 > 병원 > 일반의원",HP8,병원,,서울 중구 명동1가 1-3,서울 중구 명동길 73,126.98622402267384,37.564398045552025,http://place.map.kakao.com/27469116,,unknown,unknown,,3,2.7
27469116,휴의원,"의료,건강 > 병원 > 일반의원",HP8,병원,,서울 중구 명동1가 1-3,서울 중구 명동길 73,126.98622402267384,37.564398045552025,http://place.map.kakao.com/27469116,,unknown,unknown,,3,2.7
10657624,연치과의원,"의료,건강 > 병원 > 치과",HP8,병원,02-778-0028,서울 중구 저동1가 2-3,서울 중구 삼일대로 330,126.988183295802,37.5643478021181,http://place.map.kakao.com/10657624,,unknown,unknown,#제로페이 ,6,4.5
14492754,서울미인치과의원,"의료,건강 > 병원 > 치과",HP8,병원,02-2275-2580,서울 중구 저동1가 1-2,서울 중구 삼일대로 340,126.98818431724256,37.56504697529106,http://place.map.kakao.com/14492754,,unknown,unknown,,0,0
22213244,인제대학교 서울백병원,"의료,건강 > 병원 > 대학병원",HP8,병원,02-2270-0114,서울 중구 저동2가 85,서울 중구 마른내로 9,126.988839674516,37.5650506430451,http://place.map.kakao.com/22213244,,unknown,unknown,,45,2.5
9507508,최성제치과의원,"의료,건강 > 병원 > 치과",HP8,병원,02-319-0210,서울 중구 저동2가 88-5,서울 중구 마른내로 6,126.98864055249538,37.56446677850626,http://place.map.kakao.com/9507508,,unknown,unknown,#제로페이 ,1,5.0
2141353293,인제대학교 서울백병원 정형외과,"의료,건강 > 병원 > 정형외과",HP8,병원,02-2270-0114,서울 중구 저동2가 85,서울 중구 마른내로 9,126.988844203107,37.5650434355037,http://place.map.kakao.com/2141353293,,unknown,unknown,,0,0
26094768,인제대학교 서울백병원 가정의학과,"의료,건강 > 병원 > 가정의학과",HP8,병원,02-2270-0097,서울 중구 저동2가 85,서울 중구 마른내로 9,126.988839677742,37.5650290191373,http://place.map.kakao.com/26094768,,unknown,unknown,,0,0
1537742309,센트럴성모정형외과의원,"의료,건강 > 병원 > 정형외과",HP8,병원,02-2279-7788,서울 중구 저동2가 24-1,서울 중구 수표로 34,126.990356478569,37.5643804354932,http://place.map.kakao.com/1537742309,,unknown,unknown,,26,3.6
9327747,이영호치과의원,"의료,건강 > 병원 > 치과",HP8,병원,02-2272-2469,서울 중구 저동2가 73-6,서울 중구 마른내로 18,126.989767875792,37.564607437005,http://place.map.kakao.com/9327747,,unknown,unknown,,2,5.0
9181876,쌍용치과의원,"의료,건강 > 병원 > 치과",HP8,병원,02-2273-5654,서울 중구 저동2가 20-1,서울 중구 마른내로 23,126.99060542858412,37.56486699353393,http://place.map.kakao.com/9181876,,unknown,unknown,,1,4.0
1302755665,서울중앙요양병원,"의료,건강 > 병원 > 노인,요양병원",HP8,병원,02-3147-0999,서울 서대문구 충정로2가 78,서울 서대문구 충정로 71-5,126.96543914585578,37.56519297432565,http://place.map.kakao.com/1302755665,,y,n,,0,0
11349266,서울삼성내과의원,"의료,건강 > 병원 > 내과",HP8,병원,02-365-1478,서울 중구 의주로1가 25-10,서울 중구 통일로 114,126.96792247421914,37.56523602198247,http://place.map.kakao.com/11349266,,unknown,unknown,,0,0
294413616,이원철치과의원,"의료,건강 > 병원 > 치과",HP8,병원,02-779-2277,서울 중구 을지로1가 188-3,서울 중구 을지로 16,126.979431337397,37.5656332242918,http://place.map.kakao.com/294413616,,unknown,unknown,,0,0
688444189,본점치과의원,"의료,건강 > 병원 > 치과",HP8,병원,02-318-4003,서울 중구 을지로1가 180-6,서울 중구 을지로 30,126.98101038327,37.5653866159039,http://place.map.kakao.com/688444189,,unknown,unknown,,1,5.0
25489675,명동연세이비인후과의원,"의료,건강 > 병원 > 이비인후과",HP8,병원,02-3789-9898,서울 중구 을지로2가 199-77,서울 중구 명동9가길 12,126.98392731851168,37.565059086448265,http://place.map.kakao.com/25489675,,unknown,unknown,,14,2.7
9022392,명동성모안과,"의료,건강 > 병원 > 안과",HP8,병원,02-319-9300,서울 중구 을지로2가 199-4,서울 중구 남대문로 92,126.98337265838262,37.56523650587715,http://place.map.kakao.com/9022392,,unknown,unknown,,18,3.6
9943277,이윤수조성완비뇨기과의원,"의료,건강 > 병원 > 비뇨기과",HP8,병원,02-779-4500,서울 중구 을지로2가 199-63,서울 중구 명동9길 39,126.983981544135,37.5655474337195,http://place.map.kakao.com/9943277,,unknown,unknown,,7,3.0
9024515,메트로노치과의원,"의료,건강 > 병원 > 치과",HP8,병원,02-3789-2882,서울 중구 을지로2가 199-77,서울 중구 명동9가길 12,126.983922770471,37.5651545914218,http://place.map.kakao.com/9024515,,unknown,unknown,,5,5.0
16847519,평화치과의원,"의료,건강 > 병원 > 치과",HP8,병원,02-776-2875,서울 중구 을지로2가 163-5,서울 중구 을지로 78,126.98650332837,37.5658721075244,http://place.map.kakao.com/16847519,,unknown,unknown,,2,5.0
9075100,백순지치과의원,"의료,건강 > 병원 > 치과",HP8,병원,02-776-9811,서울 중구 을지로2가 163-3,서울 중구 을지로 80-1,126.986838379595,37.5658072736362,http://place.map.kakao.com/9075100,,unknown,unknown,,0,0
1454946270,두리이비인후과의원,"의료,건강 > 병원 > 이비인후과",HP8,병원,02-6031-0088,서울 중구 을지로2가 203,서울 중구 을지로 100,126.98872751519446,37.56573629043616,http://place.map.kakao.com/1454946270,,unknown,unknown,,35,4.1
299345703,굿본정형외과재활의학과의원,"의료,건강 > 병원 > 정형외과",HP8,병원,02-2269-0096,서울 중구 을지로2가 203,서울 중구 을지로 100,126.9887592026768,37.56577233329999,http://place.map.kakao.com/299345703,,unknown,unknown,,1,0
17584233,연세오슬로치과의원,"의료,건강 > 병원 > 치과",HP8,병원,02-6031-0077,서울 중구 을지로2가 203,서울 중구 을지로 100,126.988703736405,37.5657966548995,http://place.map.kakao.com/17584233,,unknown,unknown,,0,0
336635555,신한카드부속의원,"의료,건강 > 병원 > 가정의학과",HP8,병원,02-6950-1688,서울 중구 을지로2가 203,서울 중구 을지로 100,126.988758068214,37.5657894521171,http://place.map.kakao.com/336635555,,unknown,unknown,,0,0
1260506231,인제대학교 서울백병원 이비인후과,"의료,건강 > 병원 > 이비인후과",HP8,병원,02-2270-0070,서울 중구 저동2가 85,서울 중구 마른내로 9,126.988845327865,37.565091188407,http://place.map.kakao.com/1260506231,,unknown,unknown,,0,0
2011625992,서울유비뇨기과의원,"의료,건강 > 병원 > 비뇨기과",HP8,병원,02-6383-3320,서울 서대문구 충정로2가 2-2,서울 서대문구 통일로 135,126.96545442341852,37.56642464035306,http://place.map.kakao.com/2011625992,,unknown,unknown,,2,5.0
20533155,박비뇨기과의원,"의료,건강 > 병원 > 비뇨기과",HP8,병원,02-363-2875,서울 서대문구 냉천동 251,서울 서대문구 통일로 139,126.965390872811,37.5667796141236,http://place.map.kakao.com/20533155,,unknown,unknown,,2,4.0
14500116,김현기치과,"의료,건강 > 병원 > 치과",HP8,병원,02-365-2275,서울 서대문구 충정로2가 2-2,서울 서대문구 통일로 135,126.965463471126,37.5664408609268,http://place.map.kakao.com/14500116,,unknown,unknown,,7,4.9
341231567,경희궁삼성마취통증의학과의원,"의료,건강 > 병원 > 정형외과",HP8,병원,02-6351-7979,서울 서대문구 충정로2가 2-2,서울 서대문구 통일로 135,126.9653853404474,37.5665048087552,http://place.map.kakao.com/341231567,,unknown,unknown,#도수치료 #운동치료 #체외충격파 #통증치료 #제로페이 ,3,5.0
8226262,서대문하나이비인후과,"의료,건강 > 병원 > 이비인후과",HP8,병원,02-364-9925,서울 서대문구 충정로2가 5-4,서울 서대문구 통일로 131,126.965848458519,37.5661310303149,http://place.map.kakao.com/8226262,,unknown,unknown,,29,2.3
13640835,하얀나라피부과의원,"의료,건강 > 병원 > 피부과",HP8,병원,02-364-7582,서울 서대문구 충정로2가 5-4,서울 서대문구 통일로 131,126.96588692528194,37.56616978426253,http://place.map.kakao.com/13640835,,unknown,unknown,,19,2.7
293226812,서울본재활의학과의원 서대문점,"의료,건강 > 병원 > 정형외과",HP8,병원,02-6248-7575,서울 종로구 평동 222,서울 종로구 통일로 134,126.966246584314,37.5667987827858,http://place.map.kakao.com/293226812,,unknown,unknown,,32,3.2
1033263397,연세조이산부인과의원,"의료,건강 > 병원 > 산부인과",HP8,병원,02-2135-9191,서울 종로구 평동 222,서울 종로구 통일로 134,126.96625563914796,37.56679968637008,http://place.map.kakao.com/1033263397,,unknown,unknown,,4,5.0
782286339,미즈미산부인과의원,"의료,건강 > 병원 > 산부인과",HP8,병원,02-363-7677,서울 서대문구 충정로2가 5-4,서울 서대문구 통일로 131,126.965862023168,37.5661706780605,http://place.map.kakao.com/782286339,,unknown,unknown,#제로페이 ,4,3.5
618131344,서대문봄정신건강의학과의원,"의료,건강 > 병원 > 정신건강의학과",HP8,병원,02-365-1334,서울 서대문구 충정로2가 5-4,서울 서대문구 통일로 131,126.965862031391,37.5661526581436,http://place.map.kakao.com/618131344,,unknown,unknown,,2,5.0
8315469,미치과의원,"의료,건강 > 병원 > 치과",HP8,병원,02-365-7365,서울 서대문구 충정로2가 5-4,서울 서대문구 통일로 131,126.96587222009342,37.56614905710544,http://place.map.kakao.com/8315469,,unknown,unknown,,1,5.0
27173540,연세이비인후과의원,"의료,건강 > 병원 > 이비인후과",HP8,병원,02-755-5300,서울 중구 을지로1가 32,서울 중구 남대문로9길 51,126.979530623004,37.5668045363248,http://place.map.kakao.com/27173540,,unknown,unknown,,21,3.9
199015667,연세웰정신건강의학과의원,"의료,건강 > 병원 > 정신건강의학과",HP8,병원,02-3789-9888,서울 중구 을지로1가 32,서울 중구 남대문로9길 51,126.97954647164973,37.56679733110445,http://place.map.kakao.com/199015667,,unknown,unknown,,12,2.8
8013726,행복한예인치과의원,"의료,건강 > 병원 > 치과",HP8,병원,02-756-2828,서울 중구 을지로1가 32,서울 중구 남대문로9길 51,126.979530621032,37.5668117442916,http://place.map.kakao.com/8013726,,unknown,unknown,,2,5.0
2118758723,KEB하나은행 부속치과의원,"의료,건강 > 병원 > 치과",HP8,병원,02-2002-2147,서울 중구 을지로1가 101-1,서울 중구 을지로 35,126.981866951611,37.566491371702,http://place.map.kakao.com/2118758723,,unknown,unknown,,2,3.0
718124136,하나은행부속의원,"의료,건강 > 병원 > 일반의원",HP8,병원,02-2002-2153,서울 중구 을지로1가 101-1,서울 중구 을지로 35,126.981866951611,37.566491371702,http://place.map.kakao.com/718124136,,unknown,unknown,,0,0
1628355085,을지로정형외과의원,"의료,건강 > 병원 > 정형외과",HP8,병원,02-6925-5375,서울 중구 을지로2가 9-10,서울 중구 을지로 55,126.984026658176,37.5663033755038,http://place.map.kakao.com/1628355085,,unknown,unknown,,73,4.5
17357464,삼성드림이비인후과의원 종로,"의료,건강 > 병원 > 이비인후과",HP8,병원,0507-1350-1365,서울 중구 을지로2가 6,서울 중구 을지로 51,126.9836825201804,37.566491636596886,http://place.map.kakao.com/17357464,,unknown,unknown,,22,4.0
2024323737,온유마취통증의학과의원,"의료,건강 > 병원 > 통증클리닉",HP8,병원,02-3789-5975,서울 중구 을지로2가 6,서울 중구 을지로 51,126.983677992578,37.566491635971,http://place.map.kakao.com/2024323737,,unknown,unknown,,26,5.0
27321767,이의홍치과의원,"의료,건강 > 병원 > 치과",HP8,병원,02-2275-3690,서울 중구 을지로2가 101-3,서울 중구 을지로 103-1,126.989437114184,37.5664130040637,http://place.map.kakao.com/27321767,,unknown,unknown,,1,2.0
14583723,즐거운이치과,"의료,건강 > 병원 > 치과",HP8,병원,02-2268-2872,서울 중구 을지로3가 346-1,서울 중구 을지로 110,126.990066501486,37.566027432412,http://place.map.kakao.com/14583723,,unknown,unknown,#제로페이 ,0,0
25528053,을지연세치과의원,"의료,건강 > 병원 > 치과",HP8,병원,02-2275-2879,서울 중구 을지로3가 5-6,서울 중구 을지로 109,126.9901049296156,37.56645270574664,http://place.map.kakao.com/25528053,,unknown,unknown,,2,1.0
7827883,서울적십자병원,"의료,건강 > 병원 > 종합병원",HP8,병원,02-2002-8000,서울 종로구 평동 164,서울 종로구 새문안로 9,126.966998002757,37.5671765124824,http://place.map.kakao.com/7827883,,unknown,unknown,,17,2.2
1743147867,임경임마취통증의학과의원,"의료,건강 > 병원 > 통증클리닉",HP8,병원,02-723-3233,서울 종로구 평동 169,서울 종로구 새문안로 15-1,126.96746999899672,37.5672009703658,http://place.map.kakao.com/1743147867,,unknown,unknown,,2,3.0
1980368516,헤세드의원,"의료,건강 > 병원 > 성형외과",HP8,병원,02-737-0191,서울 종로구 평동 169,서울 종로구 새문안로 15-1,126.967473391204,37.5672090802627,http://place.map.kakao.com/1980368516,,unknown,unknown,,3,3.7
1288815792,평생주치의딱좋은치과의원,"의료,건강 > 병원 > 치과",HP8,병원,02-735-2804,서울 종로구 평동 169,서울 종로구 새문안로 15-1,126.9674869757068,37.56720548002136,http://place.map.kakao.com/1288815792,,unknown,unknown,,2,5.0
25548447,프레스치과의원,"의료,건강 > 병원 > 치과",HP8,병원,02-733-2714,서울 중구 태평로1가 25,서울 중구 세종대로 124,126.97787333133611,37.56742051850681,http://place.map.kakao.com/25548447,,unknown,unknown,,0,0
22211759,어뉴의원,"의료,건강 > 병원 > 피부과",HP8,병원,02-755-1010,서울 중구 무교동 21-3,서울 중구 무교로 12,126.979390199224,37.5670495827722,http://place.map.kakao.com/22211759,,unknown,unknown,,17,3.9
19244356,이승진가정의학과의원,"의료,건강 > 병원 > 가정의학과",HP8,병원,02-319-0434,서울 중구 무교동 32-2,서울 중구 무교로 15,126.978919259053,37.5672837585381,http://place.map.kakao.com/19244356,,unknown,unknown,,21,5.0
608031486,라민클리닉,"의료,건강 > 병원 > 피부과",HP8,병원,02-772-9770,서울 중구 무교동 45,서울 중구 무교로 19,126.9789802861228,37.56762614782051,http://place.map.kakao.com/608031486,,y,n,,8,4.6
8378193,박환실비뇨기과의원,"의료,건강 > 병원 > 비뇨기과",HP8,병원,02-734-2542,서울 중구 무교동 33-1,서울 중구 무교로 17,126.979041468248,37.5674171276762,http://place.map.kakao.com/8378193,,unknown,unknown,,1,4.0
8999347,아이비치과의원 시청역센터,"의료,건강 > 병원 > 치과",HP8,병원,02-778-2828,서울 중구 무교동 21-3,서울 중구 무교로 12,126.979363040367,37.567024350144,http://place.map.kakao.com/8999347,,unknown,unknown,,0,0
11166473,이치과의원,"의료,건강 > 병원 > 치과",HP8,병원,02-776-4117,서울 중구 무교동 25-1,서울 중구 세종대로20길 23,126.97878120814536,37.5671341684993,http://place.map.kakao.com/11166473,,unknown,unknown,,0,0
8723457,강북센트럴치과의원,"의료,건강 > 병원 > 치과",HP8,병원,02-318-2854,서울 중구 무교동 32-2,서울 중구 무교로 15,126.97883322146,37.567326990943,http://place.map.kakao.com/8723457,,unknown,unknown,#제로페이 ,0,0
599263752,서울세연치과의원,"의료,건강 > 병원 > 치과",HP8,병원,02-755-0203,서울 중구 무교동 32-2,서울 중구 무교로 15,126.978923674553,37.5672800652436,http://place.map.kakao.com/599263752,,unknown,unknown,,1,5.0
1177602874,더정신건강의학과의원,"의료,건강 > 병원 > 정신건강의학과",HP8,병원,02-6031-8985,서울 중구 다동 155,서울 중구 남대문로9길 40,126.980368144035,37.5671434530106,http://place.map.kakao.com/1177602874,,unknown,unknown,,25,4.4
1229211419,연세공감마취통증의학과의원 을지로점,"의료,건강 > 병원 > 통증클리닉",HP8,병원,02-6410-0210,서울 중구 다동 155,서울 중구 남대문로9길 40,126.98048361559138,37.5670795014504,http://place.map.kakao.com/1229211419,,unknown,unknown,,16,4.6
11296530,밝은미소치과의원,"의료,건강 > 병원 > 치과",HP8,병원,02-752-2880,서울 중구 다동 117,서울 중구 남대문로9길 12,126.981751413349,37.56683733633208,http://place.map.kakao.com/11296530,,unknown,unknown,#스케일링 #임플란트 #제로페이 ,8,5.0
565051030,당신의숲 정신건강의학과의원,"의료,건강 > 병원 > 정신건강의학과",HP8,병원,02-2135-1898,서울 중구 다동 115,서울 중구 남대문로9길 6,126.98194607592742,37.56694188178306,http://place.map.kakao.com/565051030,,unknown,unknown,,1,5.0
27333402,을지로신경외과의원,"의료,건강 > 병원 > 정형외과",HP8,병원,02-737-5200,서울 중구 삼각동 115,서울 중구 남대문로10길 9,126.98315487676226,37.56728083488616,http://place.map.kakao.com/27333402,,unknown,unknown,,18,4.1
27585282,연세웰이비인후과의원,"의료,건강 > 병원 > 이비인후과",HP8,병원,02-732-5050,서울 중구 삼각동 115,서울 중구 남대문로10길 9,126.983270348769,37.5672051676558,http://place.map.kakao.com/27585282,,unknown,unknown,,8,4.3
12147658,황혜경치과이야기,"의료,건강 > 병원 > 치과",HP8,병원,02-774-2275,서울 중구 삼각동 115,서울 중구 남대문로10길 9,126.98322959915,37.5672087658577,http://place.map.kakao.com/12147658,,unknown,unknown,,4,3.0
19339199,탄탄치과,"의료,건강 > 병원 > 치과",HP8,병원,02-778-5515,서울 중구 수하동 40-2,서울 중구 남대문로10길 28,126.984257328493,37.5674287503536,http://place.map.kakao.com/19339199,,unknown,unknown,,0,0
268093586,센터원지앤이내과의원,"의료,건강 > 병원 > 일반의원",HP8,병원,02-6030-8966,서울 중구 수하동 67,서울 중구 을지로5길 26,126.985178708567,37.5674216616533,http://place.map.kakao.com/268093586,,unknown,unknown,,0,0
9378672,정훈치과의원,"의료,건강 > 병원 > 치과",HP8,병원,02-774-7724,서울 중구 장교동 1,서울 중구 삼일대로 363,126.987109801621,37.5671515895424,http://place.map.kakao.com/9378672,,unknown,unknown,,0,0
10069777,이범권치과의원,"의료,건강 > 병원 > 치과",HP8,병원,02-776-1719,서울 중구 장교동 1,서울 중구 삼일대로 363,126.98704641337804,37.56715879057123,http://place.map.kakao.com/10069777,,unknown,unknown,,2,1.0
17790511,서울우리원치과의원,"의료,건강 > 병원 > 치과",HP8,병원,02-750-0075,서울 중구 수표동 99,서울 중구 청계천로 100,126.98841709239484,37.56757789606076,http://place.map.kakao.com/17790511,,unknown,unknown,,8,1.1
1347311740,강북삼성병원 C관,"의료,건강 > 병원 > 종합병원",HP8,병원,,서울 종로구 평동 73,서울 종로구 새문안로 29,126.966992937601,37.5683946572783,http://place.map.kakao.com/1347311740,,unknown,unknown,,0,0
8178752,강북삼성병원,"의료,건강 > 병원 > 종합병원",HP8,병원,1599-8114,서울 종로구 평동 108-1,서울 종로구 새문안로 29,126.96791880666925,37.568509338947926,http://place.map.kakao.com/8178752,,unknown,unknown,,63,2.4
8162187,강북삼성병원 안과,"의료,건강 > 병원 > 안과",HP8,병원,02-2001-2250,서울 종로구 평동 60,서울 종로구 새문안로 29,126.96793011941236,37.56852465894687,http://place.map.kakao.com/8162187,,unknown,unknown,,0,0
8725022,강북삼성병원 정형외과,"의료,건강 > 병원 > 정형외과",HP8,병원,02-2001-2168,서울 종로구 평동 108-1,서울 종로구 새문안로 29,126.967943730389,37.5684597909593,http://place.map.kakao.com/8725022,,unknown,unknown,,0,0
8725019,강북삼성병원 순환기내과,"의료,건강 > 병원 > 내과",HP8,병원,02-2001-2050,서울 종로구 평동 108-1,서울 종로구 새문안로 29,126.9679516326686,37.568509347863504,http://place.map.kakao.com/8725019,,unknown,unknown,,0,0
8731975,강북삼성병원 산부인과,"의료,건강 > 병원 > 산부인과",HP8,병원,02-2001-2188,서울 종로구 평동 60,서울 종로구 새문안로 29,126.96789729998004,37.568509333101744,http://place.map.kakao.com/8731975,,unknown,unknown,,0,0
8693177,강북삼성병원 흉부외과,"의료,건강 > 병원 > 흉부외과",HP8,병원,02-2001-2050,서울 종로구 평동 60,서울 종로구 새문안로 29,126.967930113232,37.5685390748749,http://place.map.kakao.com/8693177,,unknown,unknown,,0,0
233656049,강북삼성병원 염증성장질환센터,"의료,건강 > 병원 > 종합병원",HP8,병원,,서울 종로구 평동 108-1,서울 종로구 새문안로 29,126.968496253522,37.5681247693124,http://place.map.kakao.com/233656049,,unknown,unknown,,1,1.0
8723456,강북삼성병원 정신건강의학과,"의료,건강 > 병원 > 정신건강의학과",HP8,병원,02-2001-2214,서울 종로구 평동 108-1,서울 종로구 새문안로 29,126.967916545512,37.5685030313642,http://place.map.kakao.com/8723456,,unknown,unknown,,0,0
11044402,강북삼성병원 비뇨기과,"의료,건강 > 병원 > 비뇨기과",HP8,병원,,서울 종로구 평동 60,서울 종로구 새문안로 29,126.9679335001422,37.56855979869378,http://place.map.kakao.com/11044402,,unknown,unknown,,0,0
9681668,강북삼성병원 이비인후과,"의료,건강 > 병원 > 이비인후과",HP8,병원,02-2001-2264,서울 종로구 평동 108-1,서울 종로구 새문안로 29,126.967930136409,37.5684850151446,http://place.map.kakao.com/9681668,,unknown,unknown,,0,0
24923357,서상렬내과의원,"의료,건강 > 병원 > 내과",HP8,병원,02-730-7588,서울 중구 충정로1가 51-6,서울 중구 새문안로 32,126.969134726257,37.5679627587379,http://place.map.kakao.com/24923357,,unknown,unknown,,32,4.3
10502421,서울연치과의원,"의료,건강 > 병원 > 치과",HP8,병원,02-730-2875,서울 중구 충정로1가 51-6,서울 중구 새문안로 32,126.96926606039246,37.56788710936176,http://place.map.kakao.com/10502421,,unknown,unknown,,0,0
9583931,하버디안치과,"의료,건강 > 병원 > 치과",HP8,병원,02-318-7528,서울 중구 태평로1가 84,서울 중구 세종대로 136,126.9780892369866,37.56841075307136,http://place.map.kakao.com/9583931,,unknown,unknown,,4,3.0
10146332,광화문예치과의원,"의료,건강 > 병원 > 치과",HP8,병원,02-318-3633,서울 중구 무교동 7,서울 중구 무교로 28,126.97958450003296,37.568469585828495,http://place.map.kakao.com/10146332,,unknown,unknown,,1,1.0
8818039,김용호치과의원,"의료,건강 > 병원 > 치과",HP8,병원,02-757-2275,서울 중구 다동 70,서울 중구 다동길 43,126.981622036961,37.5682176418063,http://place.map.kakao.com/8818039,,unknown,unknown,,2,5.0
10794519,종로치과의원,"의료,건강 > 병원 > 치과",HP8,병원,02-752-2802,서울 중구 다동 92,서울 중구 다동길 46,126.981708150642,37.5678608608801,http://place.map.kakao.com/10794519,,unknown,unknown,,0,0
12154394,서울도담치과의원,"의료,건강 > 병원 > 치과",HP8,병원,02-725-9200,서울 종로구 관철동 11-3,서울 종로구 종로14길 32,126.986738281916,37.5685787256449,http://place.map.kakao.com/12154394,,unknown,unknown,#스케일링 #치아교정 ,7,3.3
25489952,아우라의원 광화문본점,"의료,건강 > 병원 > 피부과",HP8,병원,02-733-2638,서울 중구 태평로1가 62-2,서울 중구 세종대로21길 58,126.97616706090383,37.568911334237605,http://place.map.kakao.com/25489952,,n,n,,20,4.0
9665033,광화문연치과의원,"의료,건강 > 병원 > 치과",HP8,병원,02-722-8272,서울 중구 태평로1가 62-4,서울 중구 세종대로21길 52,126.976125238758,37.5687248197024,http://place.map.kakao.com/9665033,,unknown,unknown,,12,2.7
1143385737,우리본정형외과의원,"의료,건강 > 병원 > 정형외과",HP8,병원,02-755-8575,서울 중구 무교동 77,서울 중구 청계천로 14,126.9788192241803,37.56879020544934,http://place.map.kakao.com/1143385737,,y,n,,33,3.8
10414172,미래이비인후과의원,"의료,건강 > 병원 > 이비인후과",HP8,병원,02-778-9275,서울 중구 무교동 1,서울 중구 무교로 32,126.979498386387,37.5687867213618,http://place.map.kakao.com/10414172,,unknown,unknown,#코로나19전화상담 #신속항원검사 #호흡기진료 #제로페이 ,9,3.6
8343075,사랑담은내과의원,"의료,건강 > 병원 > 내과",HP8,병원,02-3789-8575,서울 중구 무교동 1,서울 중구 무교로 32,126.97955839619505,37.56872366207604,http://place.map.kakao.com/8343075,,unknown,unknown,,15,1.0
10497100,서린 치과의원,"의료,건강 > 병원 > 치과",HP8,병원,02-3789-7783,서울 중구 무교동 1,서울 중구 무교로 32,126.97957989999624,37.568734477744606,http://place.map.kakao.com/10497100,,unknown,unknown,#스케일링 #제로페이 ,5,5.0
10417443,문준식치과의원,"의료,건강 > 병원 > 치과",HP8,병원,02-733-2053,서울 종로구 서린동 88,서울 종로구 청계천로 35,126.981377261739,37.5693384419671,http://place.map.kakao.com/10417443,,unknown,unknown,,1,5.0
12147925,홍예표치과의원,"의료,건강 > 병원 > 치과",HP8,병원,02-734-8711,서울 종로구 관철동 266,서울 종로구 청계천로 53,126.983623103505,37.5690396443541,http://place.map.kakao.com/12147925,,unknown,unknown,,0,0
12009758,지앤미치과 종로점,"의료,건강 > 병원 > 치과",HP8,병원,02-738-2875,서울 종로구 관철동 155,서울 종로구 청계천로 67,126.985130900933,37.5687659412301,http://place.map.kakao.com/12009758,,unknown,unknown,,3,5.0
8003976,종로에스앤유피부과의원,"의료,건강 > 병원 > 피부과",HP8,병원,02-720-7582,서울 종로구 관철동 13-13,서울 종로구 종로12길 15,126.985905037196,37.5693354653844,http://place.map.kakao.com/8003976,,unknown,unknown,,7,2.7
1763678097,서울미유치과,"의료,건강 > 병원 > 치과",HP8,병원,02-725-2804,서울 종로구 관철동 12-13,서울 종로구 종로12길 23,126.985914164687,37.5689534443637,http://place.map.kakao.com/1763678097,,unknown,unknown,,31,5.0
10371584,보스톤치과의원,"의료,건강 > 병원 > 치과",HP8,병원,02-720-5673,서울 종로구 관철동 32-7,서울 종로구 청계천로 71,126.985624439847,37.568686714745,http://place.map.kakao.com/10371584,,unknown,unknown,,5,3.2
13508595,닥터포유의원,"의료,건강 > 병원 > 성형외과",HP8,병원,02-733-7582,서울 종로구 관철동 32-7,서울 종로구 청계천로 71,126.985515760241,37.56875878111,http://place.map.kakao.com/13508595,,unknown,unknown,,0,0
27469672,화인마취통증의학과의원 광화문점,"의료,건강 > 병원 > 통증클리닉",HP8,병원,02-6245-2215,서울 종로구 신문로1가 116,서울 종로구 새문안로 82,126.97393344086096,37.56979473877544,http://place.map.kakao.com/27469672,,unknown,unknown,#거북목교정 #관절염 #도수치료 #디스크질환 #무릎관절치료 #물리치료 #손목터널증후군 #어지럼증 #오십견 #족저근막염 #체외충격파 #체형교정 #통증치료 #협착증 #회전근개손상 ,5,1.8
8035474,원비뇨기과의원,"의료,건강 > 병원 > 비뇨기과",HP8,병원,02-735-1214,서울 종로구 신문로1가 30,서울 종로구 새문안로 87,126.97434527708631,37.57035975309456,http://place.map.kakao.com/8035474,,unknown,unknown,,0,0
24942372,광화문오피시아치과의원,"의료,건강 > 병원 > 치과",HP8,병원,02-3276-2875,서울 종로구 신문로1가 163,서울 종로구 새문안로 92,126.974906949753,37.5697012461836,http://place.map.kakao.com/24942372,,unknown,unknown,,1,5.0
171843253,연세정인치과의원,"의료,건강 > 병원 > 치과",HP8,병원,02-722-2080,서울 종로구 신문로1가 135-2,서울 종로구 새문안로 96,126.975432094832,37.56994282340904,http://place.map.kakao.com/171843253,,unknown,unknown,,14,4.4
17341889,리오산부인과의원,"의료,건강 > 병원 > 산부인과",HP8,병원,02-722-1470,서울 종로구 신문로1가 135-2,서울 종로구 새문안로 96,126.975427571757,37.5699284065412,http://place.map.kakao.com/17341889,,unknown,unknown,,5,3.2
8702849,공안과의원 구관,"의료,건강 > 병원 > 안과",HP8,병원,02-733-5411,서울 종로구 서린동 111-1,서울 종로구 종로 22,126.979674674498,37.5698679464523,http://place.map.kakao.com/8702849,,unknown,unknown,,19,2.6
456169022,더프리티영의원,"의료,건강 > 병원 > 피부과",HP8,병원,02-3210-0300,서울 종로구 서린동 111-1,서울 종로구 종로 22,126.979688254983,37.5698787607347,http://place.map.kakao.com/456169022,,unknown,unknown,,92,4.9
1331611628,참바른정형외과의원,"의료,건강 > 병원 > 정형외과",HP8,병원,0507-1420-7594,서울 종로구 서린동 145-1,서울 종로구 무교로 39,126.97913823696,37.5694822268236,http://place.map.kakao.com/1331611628,,unknown,unknown,,8,5.0
13511116,백내과의원,"의료,건강 > 병원 > 내과",HP8,병원,02-738-6143,서울 종로구 서린동 111-1,서울 종로구 종로 22,126.979692794532,37.5698355137352,http://place.map.kakao.com/13511116,,unknown,unknown,,3,1.0
16818306,새서울치과,"의료,건강 > 병원 > 치과",HP8,병원,02-735-2288,서울 종로구 서린동 111-1,서울 종로구 종로 22,126.979701836448,37.569885971034,http://place.map.kakao.com/16818306,,unknown,unknown,,0,0
784557643,박창증정신건강의학과의원,"의료,건강 > 병원 > 정신건강의학과",HP8,병원,02-723-2375,서울 종로구 서린동 111-1,서울 종로구 종로 22,126.97967014620195,37.56986974766344,http://place.map.kakao.com/784557643,,unknown,unknown,#제로페이 ,0,0
9110607,서린연세치과,"의료,건강 > 병원 > 치과",HP8,병원,02-720-2840,서울 종로구 서린동 136,서울 종로구 종로 14,126.978859679479,37.5698317635081,http://place.map.kakao.com/9110607,,unknown,unknown,#제로페이 ,1,5.0
24527999,로엘심장혈관 흉부외과의원,"의료,건강 > 병원 > 일반의원",HP8,병원,02-6959-5287,서울 종로구 종로2가 84-8,서울 종로구 종로 68,126.984949562174,37.5699047765795,http://place.map.kakao.com/24527999,,unknown,unknown,,23,3.1
1054985918,와이산부인과 종로점,"의료,건강 > 병원 > 산부인과",HP8,병원,02-733-5100,서울 종로구 종로2가 84-8,서울 종로구 종로 68,126.98494843004048,37.56990567743062,http://place.map.kakao.com/1054985918,,unknown,unknown,,52,4.1
10638834,예본안과의원,"의료,건강 > 병원 > 안과",HP8,병원,02-737-0030,서울 종로구 종로2가 75-9,서울 종로구 종로 78,126.9860362336633,37.56991932603902,http://place.map.kakao.com/10638834,,unknown,unknown,,59,4.0
720485888,리버스클리닉 종로점,"의료,건강 > 병원 > 피부과",HP8,병원,02-738-3365,서울 종로구 종로2가 84-6,서울 종로구 종로 70,126.9851600960004,37.56995165499357,http://place.map.kakao.com/720485888,,unknown,unknown,,4,4.8
26847414,로앤산부인과의원 종로점,"의료,건강 > 병원 > 산부인과",HP8,병원,02-722-1001,서울 종로구 종로2가 75-9,서울 종로구 종로 78,126.986036227608,37.5699517618735,http://place.map.kakao.com/26847414,,unknown,unknown,,22,3.2
402321195,톡톡의원,"의료,건강 > 병원 > 가정의학과",HP8,병원,02-722-1854,서울 종로구 관철동 15-5,서울 종로구 종로 78,126.986035110458,37.5698724741439,http://place.map.kakao.com/402321195,,unknown,unknown,,0,0
10359081,리즈산부인과의,"의료,건강 > 병원 > 산부인과",HP8,병원,02-732-3100,서울 종로구 종로2가 75-9,서울 종로구 종로 78,126.986036227608,37.5699517618735,http://place.map.kakao.com/10359081,,unknown,unknown,,29,1.1
12526653,종로밀레니엄 치과의원,"의료,건강 > 병원 > 치과",HP8,병원,02-732-2875,서울 종로구 관철동 15-4,서울 종로구 종로 78,126.98614491378696,37.56985086319102,http://place.map.kakao.com/12526653,,unknown,unknown,,6,4.3
24637265,연세아인의원,"의료,건강 > 병원 > 피부과",HP8,병원,02-723-9889,서울 종로구 종로2가 71-4,서울 종로구 종로 88,126.98719534685,37.5699554972656,http://place.map.kakao.com/24637265,,unknown,unknown,,42,4.1
25528159,이루미치과의원 서울,"의료,건강 > 병원 > 치과",HP8,병원,02-3789-8255,서울 종로구 종로2가 71-6,서울 종로구 종로 86,126.987014235615,37.5699482695196,http://place.map.kakao.com/25528159,,unknown,unknown,,3,5.0
8433641,새얀안과의원,"의료,건강 > 병원 > 안과",HP8,병원,02-735-3121,서울 종로구 종로2가 71-2,서울 종로구 삼일대로 395,126.98734477440902,37.56989784967102,http://place.map.kakao.com/8433641,,unknown,unknown,,33,4.4
8687856,김치과의원,"의료,건강 > 병원 > 치과",HP8,병원,02-2265-7566,서울 종로구 관수동 4-1,서울 종로구 수표로 93-1,126.989237444088,37.5695808869861,http://place.map.kakao.com/8687856,,unknown,unknown,,0,0
12725201,서울플란트치과의원,"의료,건강 > 병원 > 치과",HP8,병원,02-3298-2875,서울 종로구 관수동 20,서울 종로구 수표로 96,126.989979979848,37.5697431315274,http://place.map.kakao.com/12725201,,unknown,unknown,,5,2.6
260877907,서울나은치과의원,"의료,건강 > 병원 > 치과",HP8,병원,02-2264-9595,서울 종로구 종로3가 119,서울 종로구 종로 120,126.99100209424869,37.5700450473239,http://place.map.kakao.com/260877907,,unknown,unknown,,108,4.7
21125753,타워비뇨기과의원 종로점,"의료,건강 > 병원 > 비뇨기과",HP8,병원,02-2277-6699,서울 종로구 종로3가 118,서울 종로구 종로 120,126.99091719493222,37.57006756570781,http://place.map.kakao.com/21125753,,unknown,unknown,,9,4.6
1376144851,르미엘성형외과의원,"의료,건강 > 병원 > 성형외과",HP8,병원,02-1800-8204,서울 종로구 종로3가 119,서울 종로구 종로 120,126.990917194932,37.5700675657078,http://place.map.kakao.com/1376144851,,unknown,unknown,,13,4.7
839452196,바이오엠재활의학과의원,"의료,건강 > 병원 > 재활의학과",HP8,병원,02-720-2466,서울 종로구 신문로2가 1-143,서울 종로구 경희궁길 7,126.971872899254,37.5708358164491,http://place.map.kakao.com/839452196,,unknown,unknown,,0,0
13506347,마인드힐정신건강의학과의원,"의료,건강 > 병원 > 정신건강의학과",HP8,병원,02-720-1566,서울 종로구 신문로1가 58-1,서울 종로구 새문안로 69,126.972262456033,37.5704034308769,http://place.map.kakao.com/13506347,,unknown,unknown,,3,3.7
8438549,성혜내과의원,"의료,건강 > 병원 > 내과",HP8,병원,02-735-6116,서울 종로구 신문로1가 34,서울 종로구 새문안로 83,126.97391965890291,37.57036416481336,http://place.map.kakao.com/8438549,,unknown,unknown,#제로페이 ,12,2.5
23345099,유정이비인후과,"의료,건강 > 병원 > 이비인후과",HP8,병원,02-732-7231,서울 종로구 신문로1가 24,서울 종로구 새문안로 91,126.974730095382,37.5705012923587,http://place.map.kakao.com/23345099,,unknown,unknown,,16,3.3
8014810,연세메트로비뇨기과,"의료,건강 > 병원 > 비뇨기과",HP8,병원,02-738-9115,서울 종로구 신문로1가 25,서울 종로구 새문안로 89,126.9745354201379,37.5704363788647,http://place.map.kakao.com/8014810,,unknown,unknown,,9,3.3
1602374348,스마일마취통증의학과의원,"의료,건강 > 병원 > 통증클리닉",HP8,병원,02-730-0088,서울 종로구 신문로1가 27-5,서울 종로구 새문안로 89,126.974510483237,37.5705354829686,http://place.map.kakao.com/1602374348,,unknown,unknown,,12,4.9
8035474,원비뇨기과의원,"의료,건강 > 병원 > 비뇨기과",HP8,병원,02-735-1214,서울 종로구 신문로1가 30,서울 종로구 새문안로 87,126.97434527708631,37.57035975309456,http://place.map.kakao.com/8035474,,unknown,unknown,,0,0
1550002259,이지브레인광화문 정신건강의학과의원,"의료,건강 > 병원 > 정신건강의학과",HP8,병원,02-6952-1895,서울 종로구 신문로1가 25,서울 종로구 새문안로 89,126.974513899999,37.5704742160246,http://place.map.kakao.com/1550002259,,unknown,unknown,,7,4.3
8192271,광화문치과의원,"의료,건강 > 병원 > 치과",HP8,병원,02-737-2824,서울 종로구 신문로1가 25,서울 종로구 새문안로 89,126.974535421365,37.5704327748836,http://place.map.kakao.com/8192271,,unknown,unknown,,1,5.0
8234646,광화문닥터김이비인후과의원,"의료,건강 > 병원 > 이비인후과",HP8,병원,02-736-5505,서울 종로구 세종로 202-1,서울 종로구 세종대로 159,126.976346501831,37.5706097467219,http://place.map.kakao.com/8234646,,unknown,unknown,,44,4.5
195341996,연세광화문정신건강의학과의원,"의료,건강 > 병원 > 정신건강의학과",HP8,병원,02-735-0602,서울 종로구 신문로1가 1-1,서울 종로구 새문안로 103-1,126.976179012647,37.5704799697199,http://place.map.kakao.com/195341996,,unknown,unknown,#제로페이 ,14,4.3
11074432,메디홈 가정의학과의원,"의료,건강 > 병원 > 가정의학과",HP8,병원,02-725-7582,서울 종로구 신문로1가 2,서울 종로구 새문안로 103,126.976083926778,37.5704835544768,http://place.map.kakao.com/11074432,,unknown,unknown,#코로나19전화상담 #PCR검사 #신속항원검사 #호흡기진료 ,16,4.2
157794161,더클리어의원,"의료,건강 > 병원 > 피부과",HP8,병원,02-734-8875,서울 종로구 세종로 202-1,서울 종로구 세종대로 159,126.976355559813,37.570602540574,http://place.map.kakao.com/157794161,,unknown,unknown,,3,5.0
18316188,채움마취통증의학과의원,"의료,건강 > 병원 > 통증클리닉",HP8,병원,02-737-8257,서울 종로구 신문로1가 2,서울 종로구 새문안로 103,126.976047712106,37.5704583192657,http://place.map.kakao.com/18316188,,unknown,unknown,,27,3.8
8174908,강현수비뇨기과의원,"의료,건강 > 병원 > 비뇨기과",HP8,병원,02-736-7366,서울 종로구 신문로1가 1-1,서울 종로구 새문안로 103-1,126.97618241283304,37.57046645547603,http://place.map.kakao.com/8174908,,unknown,unknown,,2,3.0
12539796,서울예안치과,"의료,건강 > 병원 > 치과",HP8,병원,02-733-2975,서울 종로구 신문로1가 2,서울 종로구 새문안로 103,126.976061289865,37.5704763419262,http://place.map.kakao.com/12539796,,unknown,unknown,,1,5.0
7871148,마음공간정신건강의학과,"의료,건강 > 병원 > 정신건강의학과",HP8,병원,02-723-6463,서울 종로구 세종로 202-1,서울 종로구 세종대로 159,126.97634763977749,37.57059082604847,http://place.map.kakao.com/7871148,,unknown,unknown,,1,1.0
520802015,연세자연치과의원,"의료,건강 > 병원 > 치과",HP8,병원,02-730-7528,서울 종로구 세종로 202-1,서울 종로구 세종대로 159,126.976323867137,37.5705953262598,http://place.map.kakao.com/520802015,,unknown,unknown,,0,0
13513305,광화문헬스케어의원,"의료,건강 > 병원 > 일반의원",HP8,병원,02-721-3791,서울 종로구 세종로 119,서울 종로구 종로 1,126.97793907050206,37.57095964123329,http://place.map.kakao.com/13513305,,unknown,unknown,,0,0
14493527,교보생명보험부속의원,"의료,건강 > 병원 > 일반의원",HP8,병원,02-721-2743,서울 종로구 세종로 119,서울 종로구 종로 1,126.977881360375,37.5708911547952,http://place.map.kakao.com/14493527,,unknown,unknown,,0,0
16037778,이지나치과의원,"의료,건강 > 병원 > 치과",HP8,병원,,서울 종로구 세종로 119,서울 종로구 종로 1,126.97789039587,37.5709596321275,http://place.map.kakao.com/16037778,,unknown,unknown,,0,0
1775297620,더스퀘어치과,"의료,건강 > 병원 > 치과",HP8,병원,02-723-6000,서울 종로구 청진동 246,서울 종로구 종로3길 17,126.97892724725624,37.571071545167605,http://place.map.kakao.com/1775297620,,unknown,unknown,,15,4.3
1585164519,공안과의원 신관,"의료,건강 > 병원 > 안과",HP8,병원,02-733-5111,서울 종로구 청진동 146,서울 종로구 종로 19,126.9799234417087,37.570844667978704,http://place.map.kakao.com/1585164519,,unknown,unknown,,18,2.6
26262167,종로기대찬신경외과의원 본관,"의료,건강 > 병원 > 정형외과",HP8,병원,02-6391-2580,서울 종로구 청진동 136,서울 종로구 종로5길 13,126.980552785077,37.5709601007214,http://place.map.kakao.com/26262167,,unknown,unknown,,9,5.0
23772266,라미에르의원,"의료,건강 > 병원 > 피부과",HP8,병원,02-733-5775,서울 종로구 청진동 146,서울 종로구 종로 19,126.97991893005045,37.57078430052762,http://place.map.kakao.com/23772266,,unknown,unknown,,0,0
534879179,연세마이덴치과의원,"의료,건강 > 병원 > 치과",HP8,병원,02-6263-2828,서울 종로구 청진동 136,서울 종로구 종로5길 13,126.98046220879066,37.57103216538637,http://place.map.kakao.com/534879179,,y,n,,21,4.5
26810458,종로정형외과의원,"의료,건강 > 병원 > 정형외과",HP8,병원,02-2088-7975,서울 종로구 청진동 146,서울 종로구 종로 19,126.9799189409361,37.57074375574153,http://place.map.kakao.com/26810458,,unknown,unknown,,39,3.3
11627082,연세다나이비인후과의원,"의료,건강 > 병원 > 이비인후과",HP8,병원,02-2075-5075,서울 종로구 청진동 146,서울 종로구 종로 19,126.9797241513735,37.57108159567177,http://place.map.kakao.com/11627082,,unknown,unknown,#코로나19전화상담 #PCR검사 #신속항원검사 #호흡기진료 #비염 #편도선염치료 #제로페이 ,46,1.8
8748553,고운미소치과 종로점,"의료,건강 > 병원 > 치과",HP8,병원,02-736-2875,서울 종로구 종로1가 24,서울 종로구 종로 19,126.979855591668,37.5705923777382,http://place.map.kakao.com/8748553,,unknown,unknown,,8,2.9
1680292352,서울사랑니치과의원,"의료,건강 > 병원 > 치과",HP8,병원,02-6925-0552,서울 종로구 청진동 146,서울 종로구 종로 19,126.97974911692214,37.57085184616655,http://place.map.kakao.com/1680292352,,unknown,unknown,,0,0
163151724,트윙클의원,"의료,건강 > 병원 > 피부과",HP8,병원,02-6931-7555,서울 종로구 청진동 136,서울 종로구 종로5길 13,126.980466736668,37.5710321661356,http://place.map.kakao.com/163151724,,unknown,unknown,,17,4.5
10857026,메이트치과의원,"의료,건강 > 병원 > 치과",HP8,병원,02-725-7331,서울 종로구 청진동 128,서울 종로구 종로5길 7,126.98074872341486,37.57054117002535,http://place.map.kakao.com/10857026,,unknown,unknown,,18,4.8
1900415985,화이팅마취통증의학과의원 광화문점,"의료,건강 > 병원 > 정형외과",HP8,병원,02-2138-7988,서울 종로구 청진동 146,서울 종로구 종로 19,126.97990308035392,37.57079240678811,http://place.map.kakao.com/1900415985,,unknown,unknown,,20,4.2
1110781197,종로기대찬신경외과의원 신관,"의료,건강 > 병원 > 정형외과",HP8,병원,02-6334-2580,서울 종로구 청진동 146,서울 종로구 종로 19,126.97991891432667,37.57084286521813,http://place.map.kakao.com/1110781197,,unknown,unknown,,2,3.0
19716285,연세에스웰피부과,"의료,건강 > 병원 > 피부과",HP8,병원,02-2075-7500,서울 종로구 청진동 146,서울 종로구 종로 19,126.979932564161,37.5705959948285,http://place.map.kakao.com/19716285,,unknown,unknown,,32,2.6
1608182914,서울락비뇨기과의원,"의료,건강 > 병원 > 비뇨기과",HP8,병원,02-734-7776,서울 종로구 청진동 146,서울 종로구 종로 19,126.97992459012,37.57078340049496,http://place.map.kakao.com/1608182914,,unknown,unknown,,0,0
19901569,연세필정신건강의학과의원,"의료,건강 > 병원 > 정신건강의학과",HP8,병원,02-723-9114,서울 종로구 청진동 146,서울 종로구 종로 19,126.97990194475662,37.57080592152402,http://place.map.kakao.com/19901569,,unknown,unknown,,0,0
16036529,메르덴치과의원,"의료,건강 > 병원 > 치과",HP8,병원,02-738-2804,서울 종로구 청진동 146,서울 종로구 종로 19,126.97990759708271,37.57083385333979,http://place.map.kakao.com/16036529,,unknown,unknown,#스케일링 #임플란트 #제로페이 ,5,5.0
11111251,연세학치과의원,"의료,건강 > 병원 > 치과",HP8,병원,02-722-3828,서울 종로구 청진동 146,서울 종로구 종로 19,126.9798533355086,37.57056354550309,http://place.map.kakao.com/11111251,,unknown,unknown,,1,5.0
1509797704,민앤정의원,"의료,건강 > 병원 > 일반의원",HP8,병원,02-333-3901,서울 종로구 청진동 128,서울 종로구 종로5길 7,126.980561929803,37.5706177240193,http://place.map.kakao.com/1509797704,,unknown,unknown,,4,5.0
2027286340,맥스웰 피부과의원,"의료,건강 > 병원 > 피부과",HP8,병원,02-6930-5824,서울 종로구 청진동 100-23,서울 종로구 종로 33,126.981440248159,37.5709602435767,http://place.map.kakao.com/2027286340,,unknown,unknown,,0,0
2065182178,예림이비인후과,"의료,건강 > 병원 > 이비인후과",HP8,병원,02-2158-7979,서울 종로구 청진동 70,서울 종로구 종로 33,126.98139040389464,37.57111160293178,http://place.map.kakao.com/2065182178,,unknown,unknown,,28,3.6
124397026,금비뇨기과의원,"의료,건강 > 병원 > 비뇨기과",HP8,병원,02-2158-7591,서울 종로구 청진동 70,서울 종로구 종로 33,126.981440248159,37.5709602435767,http://place.map.kakao.com/124397026,,unknown,unknown,,2,2.5
23690332,연세그랑스마일치과의원,"의료,건강 > 병원 > 치과",HP8,병원,02-6218-2822,서울 종로구 청진동 119-1,서울 종로구 종로 33,126.981662189921,37.5706503358824,http://place.map.kakao.com/23690332,,unknown,unknown,,10,5.0
26922293,하나여성의원,"의료,건강 > 병원 > 산부인과",HP8,병원,02-733-7533,서울 종로구 청진동 70,서울 종로구 종로 33,126.981485559896,37.5708269033916,http://place.map.kakao.com/26922293,,unknown,unknown,,3,1.0
23775830,백민의원,"의료,건강 > 병원 > 일반의원",HP8,병원,02-3789-1937,서울 종로구 청진동 92,서울 종로구 종로 33,126.981440248159,37.5709602435767,http://place.map.kakao.com/23775830,,unknown,unknown,#신속항원검사 #호흡기진료 #두통 #재활치료 #제로페이 ,10,3.7
186885747,연세늘정신건강의학과의원,"의료,건강 > 병원 > 정신건강의학과",HP8,병원,02-2158-7810,서울 종로구 청진동 70,서울 종로구 종로 33,126.981435720286,37.5709602428648,http://place.map.kakao.com/186885747,,unknown,unknown,,0,0
11297924,벨치과,"의료,건강 > 병원 > 치과",HP8,병원,02-739-9011,서울 종로구 종로2가 8-4,서울 종로구 종로 65,126.984614389395,37.5704633505114,http://place.map.kakao.com/11297924,,unknown,unknown,,2,5.0
882091141,더블유항외과의원,"의료,건강 > 병원 > 항문외과",HP8,병원,02-735-7175,서울 종로구 종로2가 9,서울 종로구 종로 69,126.98543166293042,37.5704742661372,http://place.map.kakao.com/882091141,,unknown,unknown,#여의사진료 ,15,1.8
863485754,연세자세굿재활의학과의원,"의료,건강 > 병원 > 재활의학과",HP8,병원,02-733-7575,서울 종로구 종로2가 9,서울 종로구 종로 69,126.985296969149,37.57042559569044,http://place.map.kakao.com/863485754,,unknown,unknown,,3,1.3
24898424,산소의원,"의료,건강 > 병원 > 일반의원",HP8,병원,02-733-7343,서울 종로구 종로2가 40,서울 종로구 수표로 105,126.989092415547,37.5705359288057,http://place.map.kakao.com/24898424,,unknown,unknown,,0,0
1768283,연세센스의원,"의료,건강 > 병원 > 내과",HP8,병원,02-323-3330,서울 종로구 종로3가 10,서울 종로구 종로 115,126.99045755325152,37.57060091870583,http://place.map.kakao.com/1768283,,unknown,unknown,,8,1.5
861888146,박강석치과의원,"의료,건강 > 병원 > 치과",HP8,병원,02-765-2879,서울 종로구 종로3가 10,서울 종로구 종로 115,126.99046434411,37.5706081272171,http://place.map.kakao.com/861888146,,unknown,unknown,#스케일링 #임플란트 #치아교정 #치아미백 #틀니 ,6,3.7
586265217,오복치과,"의료,건강 > 병원 > 치과",HP8,병원,02-742-5587,서울 종로구 종로3가 8,서울 종로구 종로 113,126.99013721394996,37.57055404062127,http://place.map.kakao.com/586265217,,unknown,unknown,,0,0
9179800,웅플란트치과의원,"의료,건강 > 병원 > 치과",HP8,병원,02-765-0861,서울 종로구 종로3가 18,서울 종로구 종로 125,126.991541964675,37.5706802889661,http://place.map.kakao.com/9179800,,unknown,unknown,,0,0
1333440672,종로아산본정형외과,"의료,건강 > 병원 > 정형외과",HP8,병원,02-745-7575,서울 종로구 종로3가 16,서울 종로구 종로 123,126.991277087194,37.5706622497857,http://place.map.kakao.com/1333440672,,unknown,unknown,,3,5.0
1502939918,프리미엘의원 광화문점,"의료,건강 > 병원 > 피부과",HP8,병원,02-6952-0277,서울 종로구 당주동 128-27,서울 종로구 새문안로3길 15,126.97230272479,37.5717044774438,http://place.map.kakao.com/1502939918,,unknown,unknown,,15,4.2
176516498,한송이산부인과의원,"의료,건강 > 병원 > 산부인과",HP8,병원,02-6258-0404,서울 종로구 당주동 128-27,서울 종로구 새문안로3길 15,126.97230272479,37.5717044774438,http://place.map.kakao.com/176516498,,unknown,unknown,#제로페이 ,13,4.5
1143221266,김앤박차이의원,"의료,건강 > 병원 > 통증클리닉",HP8,병원,02-735-1275,서울 종로구 신문로1가 238,서울 종로구 새문안로3길 12,126.972945828589,37.5713190006438,http://place.map.kakao.com/1143221266,,unknown,unknown,#야간진료 #피부낭종 #제로페이 ,17,3.6
1734687251,라움정신건강의학과의원,"의료,건강 > 병원 > 정신건강의학과",HP8,병원,02-722-7779,서울 종로구 당주동 128-27,서울 종로구 새문안로3길 15,126.97230272479,37.5717044774438,http://place.map.kakao.com/1734687251,,unknown,unknown,,1,5.0
470993638,서울귀한이비인후과의원,"의료,건강 > 병원 > 이비인후과",HP8,병원,02-739-8206,서울 종로구 당주동 128-27,서울 종로구 새문안로3길 15,126.97230046083104,37.57170447691258,http://place.map.kakao.com/470993638,,y,n,,1,5.0
1504533743,광화문정형외과의원,"의료,건강 > 병원 > 정형외과",HP8,병원,02-735-7588,서울 종로구 당주동 100,서울 종로구 세종대로23길 54,126.97328523722533,37.57183264517333,http://place.map.kakao.com/1504533743,,unknown,unknown,,34,4.3
1904427727,이지스여성의원,"의료,건강 > 병원 > 산부인과",HP8,병원,02-542-0106,서울 종로구 당주동 100,서울 종로구 세종대로23길 54,126.973267132609,37.5718128191825,http://place.map.kakao.com/1904427727,,unknown,unknown,,5,3.4
1945531956,이플러스치과,"의료,건강 > 병원 > 치과",HP8,병원,02-722-5750,서울 종로구 당주동 100,서울 종로구 세종대로23길 54,126.973280712519,37.5718236341982,http://place.map.kakao.com/1945531956,,unknown,unknown,,5,1.0
22542054,한국중부의원,"의료,건강 > 병원 > 일반의원",HP8,병원,02-3702-9000,서울 종로구 당주동 100,서울 종로구 세종대로23길 54,126.97328523529436,37.571838051143565,http://place.map.kakao.com/22542054,,unknown,unknown,,0,0
11133611,세종치과,"의료,건강 > 병원 > 치과",HP8,병원,02-730-2877,서울 종로구 당주동 5,서울 종로구 새문안로5길 19,126.974326606268,37.5719896493809,http://place.map.kakao.com/11133611,,unknown,unknown,,1,5.0
8765843,광화문믿음치과의원,"의료,건강 > 병원 > 치과",HP8,병원,02-732-8525,서울 종로구 당주동 160,서울 종로구 새문안로5길 13,126.974385676782,37.5713841934799,http://place.map.kakao.com/8765843,,unknown,unknown,,1,5.0
8462667,웃는치과의원,"의료,건강 > 병원 > 치과",HP8,병원,02-725-7508,서울 종로구 당주동 5,서울 종로구 새문안로5길 19,126.974326606268,37.5719896493809,http://place.map.kakao.com/8462667,,unknown,unknown,,1,5.0
1398051930,광화문숲 정신건강의학과의원,"의료,건강 > 병원 > 정신건강의학과",HP8,병원,02-722-7977,서울 종로구 청진동 184-1,서울 종로구 종로3길 34,126.9794794280578,37.57187533013884,http://place.map.kakao.com/1398051930,,unknown,unknown,,14,3.0
424646317,KT광화문부속의원,"의료,건강 > 병원 > 일반의원",HP8,병원,02-3495-5250,서울 종로구 청진동 244,서울 종로구 종로3길 33,126.978886234869,37.5719977608727,http://place.map.kakao.com/424646317,,unknown,unknown,,0,0
26582295,세명치과의원,"의료,건강 > 병원 > 치과",HP8,병원,02-451-1599,서울 종로구 청진동 140,서울 종로구 종로3길 24-20,126.98045305508,37.5714069778821,http://place.map.kakao.com/26582295,,unknown,unknown,#제로페이 ,5,4.2
10553234,송달옥비뇨기과의원,"의료,건강 > 병원 > 비뇨기과",HP8,병원,02-734-8874,서울 종로구 공평동 130-1,서울 종로구 종로7길 47,126.982789383446,37.5717028680163,http://place.map.kakao.com/10553234,,unknown,unknown,,0,0
1491934309,서울갤럭시치과의원,"의료,건강 > 병원 > 치과",HP8,병원,02-2160-8484,서울 종로구 공평동 144,서울 종로구 삼봉로 94,126.98232296701909,37.571875790164206,http://place.map.kakao.com/1491934309,,unknown,unknown,,7,4.7
7961717,송신경정신과의원,"의료,건강 > 병원 > 정신건강의학과",HP8,병원,02-734-5648,서울 종로구 인사동 194-4,서울 종로구 인사동5길 25,126.985392859525,37.5720960527287,http://place.map.kakao.com/7961717,,unknown,unknown,,5,1.8
13502050,종로하나로치과의원,"의료,건강 > 병원 > 치과",HP8,병원,02-2198-7290,서울 종로구 인사동 194-4,서울 종로구 인사동5길 25,126.985433613106,37.5720852458231,http://place.map.kakao.com/13502050,,unknown,unknown,,0,0
975600972,종로경치과의원,"의료,건강 > 병원 > 치과",HP8,병원,02-741-2828,서울 종로구 낙원동 141,서울 종로구 수표로 120,126.989200877299,37.5719667191915,http://place.map.kakao.com/975600972,,unknown,unknown,,0,0
22446611,박종철신경정신과의원,"의료,건강 > 병원 > 정신건강의학과",HP8,병원,02-735-0987,서울 종로구 당주동 2-2,서울 종로구 새문안로5가길 3-1,126.974267571995,37.5724869857971,http://place.map.kakao.com/22446611,,unknown,unknown,,2,3.0
21688410,광화문서울치과의원,"의료,건강 > 병원 > 치과",HP8,병원,02-6031-6789,서울 종로구 도렴동 65,서울 종로구 새문안로5길 31,126.97434890416736,37.572986154714265,http://place.map.kakao.com/21688410,,unknown,unknown,,8,4.5
1921109683,종로연세이비인후과내과의원,"의료,건강 > 병원 > 이비인후과",HP8,병원,02-6954-0903,서울 종로구 수송동 68-1,서울 종로구 삼봉로 57,126.980475393512,37.5725602553089,http://place.map.kakao.com/1921109683,,unknown,unknown,,49,3.9
13607633,광화문더블유치과의원,"의료,건강 > 병원 > 치과",HP8,병원,02-723-0075,서울 종로구 수송동 68-1,서울 종로구 삼봉로 57,126.98050256133,37.572560259799,http://place.map.kakao.com/13607633,,unknown,unknown,,4,5.0
9738867,김정우치과의원,"의료,건강 > 병원 > 치과",HP8,병원,02-733-8322,서울 종로구 수송동 58,서울 종로구 삼봉로 81,126.981820216296,37.5724955984239,http://place.map.kakao.com/9738867,,unknown,unknown,,0,0
8074660,종로위브의원,"의료,건강 > 병원 > 이비인후과",HP8,병원,02-723-7585,서울 종로구 수송동 58,서울 종로구 삼봉로 81,126.981974194931,37.5723802946711,http://place.map.kakao.com/8074660,,unknown,unknown,,9,3.2
9668549,궁플란트치과,"의료,건강 > 병원 > 치과",HP8,병원,02-722-2870,서울 종로구 견지동 110,서울 종로구 삼봉로 95,126.982558319276,37.5723046988323,http://place.map.kakao.com/9668549,,unknown,unknown,,1,5.0
26236441,최재성치과의원,"의료,건강 > 병원 > 치과",HP8,병원,02-720-5156,서울 종로구 견지동 110,서울 종로구 삼봉로 95,126.98256285059168,37.57229028358074,http://place.map.kakao.com/26236441,,unknown,unknown,,1,5.0
9760160,메이플치과의원,"의료,건강 > 병원 > 치과",HP8,병원,02-733-7528,서울 종로구 관훈동 198-1,서울 종로구 인사동5길 26,126.984876578699,37.5725681091275,http://place.map.kakao.com/9760160,,unknown,unknown,,1,5.0
10789361,중앙치과,"의료,건강 > 병원 > 치과",HP8,병원,02-733-4648,서울 종로구 인사동 179-2,서울 종로구 인사동길 23-1,126.986139823643,37.5728854144361,http://place.map.kakao.com/10789361,,unknown,unknown,,0,0
11071533,백상치과의원,"의료,건강 > 병원 > 치과",HP8,병원,02-730-2203,서울 종로구 내수동 72,서울 종로구 사직로8길 34,126.972433340985,37.5735857855489,http://place.map.kakao.com/11071533,,unknown,unknown,#제로페이 ,4,5.0
8551853,이플란치과의원,"의료,건강 > 병원 > 치과",HP8,병원,02-734-0600,서울 종로구 내수동 72,서울 종로구 사직로8길 34,126.972437862375,37.5736038065014,http://place.map.kakao.com/8551853,,unknown,unknown,,3,5.0
9455989,종로낙원의원,"의료,건강 > 병원 > 일반의원",HP8,병원,02-3675-3371,서울 종로구 낙원동 62-2,서울 종로구 삼일대로 434,126.988136594437,37.5733433374098,http://place.map.kakao.com/9455989,,unknown,unknown,,4,2.0
17077941,서울본치과의원,"의료,건강 > 병원 > 치과",HP8,병원,02-723-2080,서울 종로구 사직동 9,서울 종로구 사직로8길 4,126.96982928815,37.5746627384808,http://place.map.kakao.com/17077941,,unknown,unknown,,3,5.0
1175316090,광화문광장치과의원,"의료,건강 > 병원 > 치과",HP8,병원,010-7345-2775,서울 종로구 적선동 156,서울 종로구 새문안로5가길 28,126.97359673591,37.5744618184064,http://place.map.kakao.com/1175316090,,unknown,unknown,,0,0
1442385365,런던치과의원,"의료,건강 > 병원 > 치과",HP8,병원,02-732-1917,서울 종로구 수송동 130,서울 종로구 종로5길 97,126.97906900906162,37.574167389215226,http://place.map.kakao.com/1442385365,,unknown,unknown,,6,5.0
916775990,SK에코플랜트&SK에코엔지니어링부속치과의원,"의료,건강 > 병원 > 치과",HP8,병원,02-3499-1000,서울 종로구 수송동 83-1,서울 종로구 율곡로2길 19,126.981095241618,37.5744740692961,http://place.map.kakao.com/916775990,,unknown,unknown,,1,5.0
1059859798,움직임클리닉,"의료,건강 > 병원 > 재활의학과",HP8,병원,,서울 종로구 사직동 9,서울 종로구 사직로8길 4,126.969242796618,37.5749130636466,http://place.map.kakao.com/1059859798,,n,n,,0,0
1696710756,포레스트한방병원,"의료,건강 > 병원 > 한방병원",HP8,병원,1899-8580,서울 종로구 내자동 219,서울 종로구 새문안로5가길 33,126.97294003192808,37.57482567155444,http://place.map.kakao.com/1696710756,,unknown,unknown,,37,4.8
302312,소망마취통증의학과의원,"의료,건강 > 병원 > 통증클리닉",HP8,병원,02-6956-0300,서울 종로구 적선동 80,서울 종로구 사직로 130,126.9733179365942,37.5753645523526,http://place.map.kakao.com/302312,,y,n,,18,5.0
8101077,클리오치과,"의료,건강 > 병원 > 치과",HP8,병원,02-722-3999,서울 종로구 적선동 80,서울 종로구 사직로 130,126.973324725589,37.5753735638326,http://place.map.kakao.com/8101077,,unknown,unknown,,0,0
9396134,조종만치과의원,"의료,건강 > 병원 > 치과",HP8,병원,02-736-2828,서울 종로구 적선동 80,서울 종로구 사직로 130,126.973320200021,37.5753663548533,http://place.map.kakao.com/9396134,,unknown,unknown,,0,0
897217345,임치과의원,"의료,건강 > 병원 > 치과",HP8,병원,,서울 종로구 적선동 80,서울 종로구 사직로 130,126.973320200021,37.5753663548533,http://place.map.kakao.com/897217345,,unknown,unknown,,0,0
13502644,정부서울청사 부속의원,"의료,건강 > 병원 > 일반의원",HP8,병원,02-2100-4547,서울 종로구 세종로 77-6,서울 종로구 세종대로 209,126.97515876051446,37.57495770450353,http://place.map.kakao.com/13502644,,unknown,unknown,,0,0
1075407445,정부중앙청사 부속치과의원,"의료,건강 > 병원 > 치과",HP8,병원,02-3703-3022,서울 종로구 세종로 77-6,서울 종로구 세종대로 209,126.975208585906,37.574909061267,http://place.map.kakao.com/1075407445,,unknown,unknown,,0,0
10597346,IP&I치과의원,"의료,건강 > 병원 > 치과",HP8,병원,02-735-1135,서울 종로구 수송동 85,서울 종로구 율곡로2길 7,126.98122639958028,37.57509757854117,http://place.map.kakao.com/10597346,,unknown,unknown,,0,0
10938902,한빛내과,"의료,건강 > 병원 > 내과",HP8,병원,02-725-4833,서울 종로구 내자동 26,서울 종로구 사직로 107,126.97076595607896,37.57632080411947,http://place.map.kakao.com/10938902,,unknown,unknown,,10,2.7
8057370,정다운신경외과의원,"의료,건강 > 병원 > 신경외과",HP8,병원,02-733-8275,서울 종로구 내자동 26,서울 종로구 사직로 107,126.97075235034376,37.57637486041437,http://place.map.kakao.com/8057370,,unknown,unknown,,10,4.6
10577592,양인서치과의원,"의료,건강 > 병원 > 치과",HP8,병원,02-737-2531,서울 종로구 내자동 29-2,서울 종로구 사직로 105,126.970553142169,37.5762919194046,http://place.map.kakao.com/10577592,,unknown,unknown,,7,3.9
10369820,라파연세치과의원,"의료,건강 > 병원 > 치과",HP8,병원,02-722-7528,서울 종로구 내자동 26,서울 종로구 사직로 107,126.97076595819236,37.576315398153454,http://place.map.kakao.com/10369820,,unknown,unknown,,4,4.0
8252679,누리봄동물병원,"가정,생활 > 반려동물 > 동물병원",HP8,병원,02-735-7530,서울 종로구 내자동 125-3,서울 종로구 사직로12길 2,126.971033317946,37.5758091051727,http://place.map.kakao.com/8252679,,unknown,unknown,#제로페이 ,3,5.0
454399860,정안산부인과의원,"의료,건강 > 병원 > 산부인과",HP8,병원,02-722-7004,서울 종로구 내자동 56-1,서울 종로구 사직로 119,126.971902557932,37.5762562085185,http://place.map.kakao.com/454399860,,unknown,unknown,,4,4.5
15199848,서울미소엔치과의원,"의료,건강 > 병원 > 치과",HP8,병원,02-723-7528,서울 종로구 내자동 56-1,서울 종로구 사직로 119,126.97189575785389,37.57627692977169,http://place.map.kakao.com/15199848,,unknown,unknown,,0,0
10878093,광화문하나이비인후과의원,"의료,건강 > 병원 > 이비인후과",HP8,병원,02-722-6087,서울 종로구 적선동 100-1,서울 종로구 자하문로2길 4,126.972867021249,37.5763717614201,http://place.map.kakao.com/10878093,,unknown,unknown,#코로나19외래진료 #신속항원검사 #호흡기진료 #제로페이 ,18,2.9
26990690,제중안과의원,"의료,건강 > 병원 > 안과",HP8,병원,02-542-8686,서울 종로구 적선동 100-1,서울 종로구 자하문로2길 4,126.972916817094,37.576411416609,http://place.map.kakao.com/26990690,,unknown,unknown,#결막염 ,14,2.1
9065975,박효대내과의원,"의료,건강 > 병원 > 내과",HP8,병원,02-733-5956,서울 종로구 적선동 100-1,서울 종로구 자하문로2길 4,126.972880595394,37.5764005963605,http://place.map.kakao.com/9065975,,unknown,unknown,,23,3.6
8558590,큰나무정형외과의원,"의료,건강 > 병원 > 정형외과",HP8,병원,02-733-0052,서울 종로구 적선동 100-1,서울 종로구 자하문로2길 4,126.9729213452966,37.57641141764783,http://place.map.kakao.com/8558590,,unknown,unknown,#디스크질환 #물리치료 ,14,2.1
9873539,서울리더스치과의원,"의료,건강 > 병원 > 치과",HP8,병원,02-732-2275,서울 종로구 적선동 102-1,서울 종로구 자하문로2길 4,126.972821714359,37.5764402265732,http://place.map.kakao.com/9873539,,unknown,unknown,#스케일링 #제로페이 ,4,3.8
8142034,한빛산부인과,"의료,건강 > 병원 > 산부인과",HP8,병원,02-734-7582,서울 종로구 적선동 107-4,서울 종로구 자하문로2길 4,126.97285343599415,37.57637356028563,http://place.map.kakao.com/8142034,,y,n,,6,2.3
22542563,서울듀크의원,"의료,건강 > 병원 > 일반의원",HP8,병원,02-737-7900,서울 종로구 안국동 163,서울 종로구 율곡로 47,126.98458601162076,37.5763378334929,http://place.map.kakao.com/22542563,,unknown,unknown,,12,4.6
21212213,연세이엔오치과,"의료,건강 > 병원 > 치과",HP8,병원,02-733-2872,서울 종로구 안국동 163,서울 종로구 율곡로 47,126.98459054446096,37.57631530922361,http://place.map.kakao.com/21212213,,unknown,unknown,#스케일링 #충치치료 ,5,4.2
866156205,북촌소담정신건강의학과의원,"의료,건강 > 병원 > 정신건강의학과",HP8,병원,02-736-5500,서울 종로구 안국동 163,서울 종로구 율곡로 47,126.984586011806,37.5763369324985,http://place.map.kakao.com/866156205,,unknown,unknown,,0,0
20059592,해정병원 내시경센터,"의료,건강 > 병원 > 내과",HP8,병원,,서울 종로구 경운동 89-4,서울 종로구 삼일대로 461,126.98550082337964,37.57574149104632,http://place.map.kakao.com/20059592,,unknown,unknown,,3,3.7
492321198,틀플란트치과의원,"의료,건강 > 병원 > 치과",HP8,병원,02-737-2884,서울 종로구 경운동 91-1,서울 종로구 삼일대로 469,126.98599995208298,37.576282147990185,http://place.map.kakao.com/492321198,,unknown,unknown,,93,5.0
8035075,웅선의원,"의료,건강 > 병원 > 일반의원",HP8,병원,02-744-0675,서울 종로구 경운동 96-15,서울 종로구 율곡로 56,126.98557316308,37.576316334393,http://place.map.kakao.com/8035075,,unknown,unknown,#탈모치료 ,2,3.0
2078217313,기찬마취통증의학과의원,"의료,건강 > 병원 > 정형외과",HP8,병원,02-722-5177,서울 종로구 경운동 96-15,서울 종로구 율곡로 56,126.985577693362,37.5763055230132,http://place.map.kakao.com/2078217313,,unknown,unknown,,0,0
8938075,로뎀치과,"의료,건강 > 병원 > 치과",HP8,병원,02-741-2662,서울 종로구 경운동 89-4,서울 종로구 삼일대로 461,126.985229083445,37.5759955378107,http://place.map.kakao.com/8938075,,unknown,unknown,,3,2.3
10559234,손윤희치과의원,"의료,건강 > 병원 > 치과",HP8,병원,02-725-7222,서울 종로구 경운동 89-4,서울 종로구 삼일대로 461,126.985301557667,37.5758766155823,http://place.map.kakao.com/10559234,,unknown,unknown,,2,5.0
9013017,방태현치과의원,"의료,건강 > 병원 > 치과",HP8,병원,02-732-2890,서울 종로구 체부동 51,서울 종로구 자하문로 7,126.972192189413,37.5767211902089,http://place.map.kakao.com/9013017,,unknown,unknown,,1,5.0
8461550,안국수치과의원,"의료,건강 > 병원 > 치과",HP8,병원,02-3675-2875,서울 종로구 계동 146-2,서울 종로구 율곡로 67,126.98664843233232,37.57731115868848,http://place.map.kakao.com/8461550,,unknown,unknown,,0,0
27610475,광화문동물병원,"가정,생활 > 반려동물 > 동물병원",HP8,병원,02-722-8275,서울 종로구 통인동 147-7,서울 종로구 자하문로 35-3,126.9710909116724,37.5791004512804,http://place.map.kakao.com/27610475,,unknown,unknown,,5,4.2
604733304,서촌정신건강의학과의원,"의료,건강 > 병원 > 정신건강의학과",HP8,병원,02-730-7352,서울 종로구 통의동 20-7,서울 종로구 효자로7길 14,126.973047250332,37.578865754728,http://place.map.kakao.com/604733304,,unknown,unknown,,6,4.5
10838205,최욱환치과의원,"의료,건강 > 병원 > 치과",HP8,병원,02-732-0137,서울 종로구 소격동 76,서울 종로구 북촌로5길 84,126.98047343239,37.5800709446275,http://place.map.kakao.com/10838205,,unknown,unknown,,0,0
8261319,동남정신과의원,"의료,건강 > 병원 > 정신건강의학과",HP8,병원,02-363-0412,서울 종로구 소격동 125,서울 종로구 북촌로5길 64,126.981478780135,37.5799197396747,http://place.map.kakao.com/8261319,,unknown,unknown,,0,0
13509439,연세우리소아과의원,"의료,건강 > 병원 > 소아청소년과",HP8,병원,02-732-5275,서울 종로구 누하동 5-2,서울 종로구 자하문로7길 73,126.968799025283,37.5803783780964,http://place.map.kakao.com/13509439,,unknown,unknown,,9,3.9
18036340,곽내과의원,"의료,건강 > 병원 > 내과",HP8,병원,02-735-5135,서울 종로구 창성동 158-6,서울 종로구 자하문로 58,126.97120895207868,37.58125385538772,http://place.map.kakao.com/18036340,,unknown,unknown,,15,4.5
18325791,하늘치과의원,"의료,건강 > 병원 > 치과",HP8,병원,02-737-2804,서울 종로구 창성동 158-5,서울 종로구 자하문로 58,126.971203285559,37.5812691708979,http://place.map.kakao.com/18325791,,unknown,unknown,#제로페이 ,2,5.0
