id,place_name,category_name,category_group_code,category_group_name,phone,address_name,road_address_name,x,y,place_url,distance,wheelchair,animal,keyword,evalnum,rate
914382972,충정리시온 주차장,"교통,수송 > 교통시설 > 주차장",PK6,주차장,,서울 서대문구 충정로3가 465,서울 서대문구 서소문로 27,126.964760113721,37.5601823320965,http://place.map.kakao.com/914382972,,unknown,unknown,,0,0
547932741,센트럴타워 주차장,"교통,수송 > 교통시설 > 주차장",PK6,주차장,,서울 중구 중림동 500,,126.966585547808,37.5605576775177,http://place.map.kakao.com/547932741,,unknown,unknown,,0,0
997341360,하이파킹 센트럴타워 주차장,"교통,수송 > 교통시설 > 주차장",PK6,주차장,,서울 중구 중림동 500,서울 중구 서소문로 38,126.966217778491,37.5604044033997,http://place.map.kakao.com/997341360,,unknown,unknown,,0,0
21442303,GS타임즈 한국경제신문사빌딩 주차장,"교통,수송 > 교통시설 > 주차장",PK6,주차장,,서울 중구 중림동 441,서울 중구 청파로 463,126.9671108628243,37.56020553525079,http://place.map.kakao.com/21442303,,unknown,unknown,,0,0
1408635683,GS타임즈 한국경제신문 주차장,"교통,수송 > 교통시설 > 주차장",PK6,주차장,,서울 중구 중림동 441,서울 중구 청파로 463,126.967110870349,37.5601884163122,http://place.map.kakao.com/1408635683,,unknown,unknown,,0,0
26187127,포스코더샵 주차장,"교통,수송 > 교통시설 > 주차장",PK6,주차장,,서울 중구 순화동 151,서울 중구 칠패로 27,126.97205460263191,37.5601698680159,http://place.map.kakao.com/26187127,,unknown,unknown,,0,0
1740543688,삼성에스원 주차장,"교통,수송 > 교통시설 > 주차장",PK6,주차장,,서울 중구 순화동 175,서울 중구 세종대로7길 25,126.97277773875804,37.56040970213017,http://place.map.kakao.com/1740543688,,unknown,unknown,,0,0
1714806419,하이파킹 HSBC빌딩 주차장,"교통,수송 > 교통시설 > 주차장",PK6,주차장,,서울 중구 봉래동1가 25,서울 중구 칠패로 37,126.972868404977,37.5600745521585,http://place.map.kakao.com/1714806419,,unknown,unknown,,0,0
23368543,남대문로 화물조업주차장,"교통,수송 > 교통시설 > 주차장",PK6,주차장,,서울 중구 남대문로4가 10-1,,126.976589628197,37.5605438670218,http://place.map.kakao.com/23368543,,unknown,unknown,,0,0
26864755,메사빌딩 주차장,"교통,수송 > 교통시설 > 주차장",PK6,주차장,,서울 중구 회현동1가 204,서울 중구 남대문시장10길 2,126.97958103998953,37.56041107472858,http://place.map.kakao.com/26864755,,unknown,unknown,,0,0
26864756,삼익 주차장,"교통,수송 > 교통시설 > 주차장",PK6,주차장,,서울 중구 남창동 5,서울 중구 남대문시장8길 7,126.9789744480586,37.56020644197106,http://place.map.kakao.com/26864756,,unknown,unknown,,0,0
7969140,신세계백화점 본점 신관 주차장,"교통,수송 > 교통시설 > 주차장",PK6,주차장,,서울 중구 충무로1가 54,서울 중구 퇴계로 77,126.98077850714296,37.56035811693463,http://place.map.kakao.com/7969140,,unknown,unknown,,0,0
575943359,신세계면세점명동점 주차장,"교통,수송 > 교통시설 > 주차장",PK6,주차장,,서울 중구 회현동1가 205,서울 중구 퇴계로 77,126.980316731695,37.560349931882,http://place.map.kakao.com/575943359,,unknown,unknown,,0,0
902295233,스테이트타워남산 주차장,"교통,수송 > 교통시설 > 주차장",PK6,주차장,,서울 중구 회현동2가 88,서울 중구 퇴계로 100,126.982927844916,37.5602061788106,http://place.map.kakao.com/902295233,,unknown,unknown,,0,0
799984618,하이파킹 우리금융남산타워 주차장,"교통,수송 > 교통시설 > 주차장",PK6,주차장,,서울 중구 회현동2가 10-1,서울 중구 소공로 48,126.983027532092,37.5598169625063,http://place.map.kakao.com/799984618,,unknown,unknown,,0,0
1520146954,세대빌딩 주차장,"교통,수송 > 교통시설 > 주차장",PK6,주차장,,서울 중구 회현동3가 9-31,서울 중구 퇴계로14길 13,126.983736007718,37.5599594197445,http://place.map.kakao.com/1520146954,,unknown,unknown,,0,0
20513905,금강주차장,"교통,수송 > 교통시설 > 주차장",PK6,주차장,,서울 중구 남산동1가 5-2,서울 중구 퇴계로18길 10,126.984788495094,37.5603938405474,http://place.map.kakao.com/20513905,,unknown,unknown,,0,0
18099502,대한적십자사 서울사무소 주차장,"교통,수송 > 교통시설 > 주차장",PK6,주차장,,서울 중구 남산동3가 32-4,서울 중구 소파로 145,126.988079793849,37.5603942187159,http://place.map.kakao.com/18099502,,unknown,unknown,,0,0
1511388723,남산예장 버스환승 주차장,"교통,수송 > 교통시설 > 주차장",PK6,주차장,,서울 중구 예장동 3-2,서울 중구 퇴계로26길 36,126.989413148399,37.5597987868333,http://place.map.kakao.com/1511388723,,unknown,unknown,,1,5.0
1846713992,남산예장 공영주차장,"교통,수송 > 교통시설 > 주차장 > 공영주차장",PK6,주차장,02-2290-6449,서울 중구 예장동 4-1,서울 중구 퇴계로26길 36,126.988940043339,37.5598861401692,http://place.map.kakao.com/1846713992,,unknown,unknown,,0,0
769594192,모닝팜 주차장,"교통,수송 > 교통시설 > 주차장",PK6,주차장,,서울 중구 주자동 49-16,서울 중구 삼일대로2길 70,126.990188344848,37.5604556805574,http://place.map.kakao.com/769594192,,unknown,unknown,,0,0
141471639,SK리쳄블 주차장,"교통,수송 > 교통시설 > 주차장",PK6,주차장,,서울 서대문구 합동 116,서울 서대문구 서소문로 45,126.96620832117488,37.56129638750362,http://place.map.kakao.com/141471639,,unknown,unknown,,0,0
320910169,대우디오빌 주차장,"교통,수송 > 교통시설 > 주차장",PK6,주차장,,서울 서대문구 합동 117,서울 서대문구 서소문로 37,126.965597371857,37.5607862469043,http://place.map.kakao.com/320910169,,unknown,unknown,,0,0
20518090,센트럴플레이스 주차장,"교통,수송 > 교통시설 > 주차장",PK6,주차장,,서울 중구 중림동 419,서울 중구 서소문로 50,126.966978124673,37.5609235926688,http://place.map.kakao.com/20518090,,unknown,unknown,,1,5.0
985893862,하이파킹 센트럴플레이스 주차장,"교통,수송 > 교통시설 > 주차장",PK6,주차장,,서울 중구 중림동 419,서울 중구 서소문로 50,126.967027927764,37.5609163986134,http://place.map.kakao.com/985893862,,unknown,unknown,,0,0
20519562,오스티엘스퀘어 주차장,"교통,수송 > 교통시설 > 주차장",PK6,주차장,,서울 중구 중림동 420-12,,126.96713666126,37.5607362295722,http://place.map.kakao.com/20519562,,unknown,unknown,,0,0
255867033,서소문성지역사박물관 공영주차장,"교통,수송 > 교통시설 > 주차장 > 공영주차장",PK6,주차장,,서울 중구 의주로2가 16-4,서울 중구 칠패로 5,126.968665738533,37.5607429522598,http://place.map.kakao.com/255867033,,unknown,unknown,,0,0
631673913,브라운스톤서울 주차장,"교통,수송 > 교통시설 > 주차장",PK6,주차장,,서울 중구 중림동 355,서울 중구 청파로 464,126.968340953422,37.5606356469968,http://place.map.kakao.com/631673913,,unknown,unknown,,0,0
1727771737,서소문근린공원 주차장,"교통,수송 > 교통시설 > 주차장",PK6,주차장,,서울 중구 의주로2가 16-4,서울 중구 칠패로 5,126.968480951943,37.5614573934928,http://place.map.kakao.com/1727771737,,unknown,unknown,,0,0
705572319,하이파킹 브라운스톤서울 주차장,"교통,수송 > 교통시설 > 주차장",PK6,주차장,,서울 중구 중림동 355,서울 중구 청파로 464,126.968227694183,37.5608194199201,http://place.map.kakao.com/705572319,,unknown,unknown,,0,0
27583067,중앙일보사 관광버스 주차장,"교통,수송 > 교통시설 > 주차장",PK6,주차장,,서울 중구 순화동 84-2,,126.970871516479,37.5610687768938,http://place.map.kakao.com/27583067,,unknown,unknown,,0,0
20582968,중구공영주차장,"교통,수송 > 교통시설 > 주차장 > 공영주차장",PK6,주차장,,서울 중구 순화동 77,,126.971604978617,37.5609536279839,http://place.map.kakao.com/20582968,,unknown,unknown,,0,0
801154768,AIA타워 주차장,"교통,수송 > 교통시설 > 주차장",PK6,주차장,,서울 중구 순화동 216,서울 중구 통일로2길 16,126.971525826881,37.5607553896278,http://place.map.kakao.com/801154768,,unknown,unknown,,0,0
717725023,하이파킹 AIA타워 주차장,"교통,수송 > 교통시설 > 주차장",PK6,주차장,,서울 중구 순화동 216,서울 중구 통일로2길 16,126.971248541173,37.560732797509,http://place.map.kakao.com/717725023,,unknown,unknown,,0,0
1028225024,하이파킹 오렌지센터 주차장,"교통,수송 > 교통시설 > 주차장",PK6,주차장,,서울 중구 순화동 53,서울 중구 세종대로7길 37,126.972487869885,37.560752013737,http://place.map.kakao.com/1028225024,,unknown,unknown,,0,0
396831146,신한L서울타워 주차장,"교통,수송 > 교통시설 > 주차장",PK6,주차장,,서울 중구 순화동 53,서울 중구 세종대로7길 37,126.9726836966798,37.560688989429664,http://place.map.kakao.com/396831146,,unknown,unknown,,0,0
2054039222,아마노 퍼시픽타워 주차장,"교통,수송 > 교통시설 > 주차장",PK6,주차장,,서울 중구 서소문동 135,서울 중구 세종대로9길 41,126.97304675248184,37.5613999593153,http://place.map.kakao.com/2054039222,,unknown,unknown,,0,0
26864874,순화타워 주차장,"교통,수송 > 교통시설 > 주차장",PK6,주차장,,서울 중구 순화동 66,서울 중구 세종대로7길 43,126.97225799645156,37.561062803837714,http://place.map.kakao.com/26864874,,unknown,unknown,,0,0
902451932,DART9 주차장,"교통,수송 > 교통시설 > 주차장",PK6,주차장,,서울 중구 순화동 66,서울 중구 세종대로7길 43,126.972256863631,37.5610655065618,http://place.map.kakao.com/902451932,,unknown,unknown,,0,0
26864770,대한서울상공회의소 주차장,"교통,수송 > 교통시설 > 주차장",PK6,주차장,,서울 중구 남대문로4가 45,서울 중구 세종대로 39,126.97377242758486,37.56089736656347,http://place.map.kakao.com/26864770,,unknown,unknown,,0,0
1911167929,흥국생명빌딩 주차장,"교통,수송 > 교통시설 > 주차장",PK6,주차장,,서울 중구 남대문로4가 17-12,서울 중구 세종대로 50,126.97621375509009,37.56089608165125,http://place.map.kakao.com/1911167929,,unknown,unknown,,0,0
1733804757,코트야드바이메리어트 서울남대문 주차장,"교통,수송 > 교통시설 > 주차장",PK6,주차장,,서울 중구 남대문로4가 17-23,서울 중구 남대문로 9,126.976924453506,37.5611620167407,http://place.map.kakao.com/1733804757,,unknown,unknown,,0,0
2039936370,상동빌딩 주차장,"교통,수송 > 교통시설 > 주차장",PK6,주차장,,서울 중구 남창동 1-2,서울 중구 남대문로 30,126.979047839056,37.5608362518183,http://place.map.kakao.com/2039936370,,unknown,unknown,,0,0
26864735,SC제일은행 주차장,"교통,수송 > 교통시설 > 주차장",PK6,주차장,,서울 중구 충무로1가 53-1,,126.98047166236049,37.56083649590528,http://place.map.kakao.com/26864735,,unknown,unknown,,0,0
26597891,밀리오레 주차장,"교통,수송 > 교통시설 > 주차장",PK6,주차장,,서울 중구 충무로1가 24-31,서울 중구 퇴계로 109,126.984507658866,37.5611073935169,http://place.map.kakao.com/26597891,,unknown,unknown,,0,0
26597971,신일빌딩 주차장,"교통,수송 > 교통시설 > 주차장",PK6,주차장,02-778-6770,서울 중구 충무로2가 65-6,서울 중구 퇴계로 127,126.985902043776,37.5611940639397,http://place.map.kakao.com/26597971,,unknown,unknown,,0,0
20516020,명동밀레오레 주차장,"교통,수송 > 교통시설 > 주차장",PK6,주차장,,서울 중구 충무로2가 62-12,서울 중구 퇴계로 137,126.986839156264,37.5613923914024,http://place.map.kakao.com/20516020,,unknown,unknown,,0,0
26879231,호텔스카이파크 명동3호점 주차장,"교통,수송 > 교통시설 > 주차장",PK6,주차장,,서울 중구 충무로2가 62-10,서울 중구 퇴계로 139,126.98722174060666,37.56122845202211,http://place.map.kakao.com/26879231,,unknown,unknown,,0,0
25624454,세종호텔 주차장,"교통,수송 > 교통시설 > 주차장",PK6,주차장,,서울 중구 충무로2가 61-3,서울 중구 퇴계로 145,126.98797097293873,37.561434858987376,http://place.map.kakao.com/25624454,,unknown,unknown,,1,5.0
26535699,성창빌딩 주차장,"교통,수송 > 교통시설 > 주차장",PK6,주차장,,서울 중구 충무로2가 60-3,서울 중구 삼일대로 299,126.988333709876,37.561382531569535,http://place.map.kakao.com/26535699,,unknown,unknown,,0,0
1690948687,하이파킹 흥국빌딩 주차장,"교통,수송 > 교통시설 > 주차장",PK6,주차장,,서울 중구 주자동 43-1,,126.990081924435,37.5606845248676,http://place.map.kakao.com/1690948687,,unknown,unknown,,3,3.7
26535612,아스토리아호텔주차장,"교통,수송 > 교통시설 > 주차장",PK6,주차장,,서울 중구 남학동 14-2,,126.991072265139,37.5606467620391,http://place.map.kakao.com/26535612,,unknown,unknown,,0,0
486104087,국민연금공단 주차장,"교통,수송 > 교통시설 > 주차장",PK6,주차장,,서울 서대문구 충정로3가 463,,126.96450225100084,37.56216985362317,http://place.map.kakao.com/486104087,,unknown,unknown,,0,0
1965805975,서울특별시상수도사업본부 주차장,"교통,수송 > 교통시설 > 주차장",PK6,주차장,,서울 서대문구 합동 27-1,서울 서대문구 서소문로 51,126.966751322603,37.5619110213921,http://place.map.kakao.com/1965805975,,unknown,unknown,,0,0
27190610,공영주차장,"교통,수송 > 교통시설 > 주차장 > 공영주차장",PK6,주차장,,서울 서대문구 미근동 267,서울 서대문구 통일로 81,126.968304039242,37.5622790550555,http://place.map.kakao.com/27190610,,unknown,unknown,,0,0
1222248247,하이파킹 NH농협생명빌딩 서관주차장,"교통,수송 > 교통시설 > 주차장",PK6,주차장,,서울 서대문구 미근동 267,서울 서대문구 통일로 81,126.96876580005,37.5623476538561,http://place.map.kakao.com/1222248247,,unknown,unknown,,0,0
1760385589,삼성생명 서소문빌딩 주차장,"교통,수송 > 교통시설 > 주차장",PK6,주차장,,서울 중구 순화동 7,서울 중구 서소문로 88,126.971019600084,37.5615454405993,http://place.map.kakao.com/1760385589,,unknown,unknown,,0,0
26864726,서소문올리브타워 옆 노상공영주차장,"교통,수송 > 교통시설 > 주차장 > 공영주차장",PK6,주차장,,서울 중구 서소문동 135-1,,126.97266412734017,37.56158817965497,http://place.map.kakao.com/26864726,,unknown,unknown,,1,1.0
454029431,퍼시픽타워 주차장,"교통,수송 > 교통시설 > 주차장",PK6,주차장,,서울 중구 서소문동 135,,126.97290182457796,37.56155039258923,http://place.map.kakao.com/454029431,,unknown,unknown,,0,0
139130603,중앙빌딩 주차장,"교통,수송 > 교통시설 > 주차장",PK6,주차장,,서울 중구 서소문동 58-9,,126.972461317185,37.56216747336,http://place.map.kakao.com/139130603,,unknown,unknown,,0,0
1796054273,GS타임즈 중앙그룹J빌딩 주차장,"교통,수송 > 교통시설 > 주차장",PK6,주차장,,서울 중구 서소문동 58-9,서울 중구 서소문로 100,126.972586912257,37.5622729191884,http://place.map.kakao.com/1796054273,,unknown,unknown,,0,0
26964400,서소문삼성생명 뒤 공영주차장,"교통,수송 > 교통시설 > 주차장 > 공영주차장",PK6,주차장,,서울 중구 서소문동 122,,126.974216922303,37.5617939562034,http://place.map.kakao.com/26964400,,unknown,unknown,,0,0
887900000,하이파킹 동화빌딩 주차장,"교통,수송 > 교통시설 > 주차장",PK6,주차장,,서울 중구 서소문동 120-20,서울 중구 세종대로9길 60,126.9732671834604,37.56216855957442,http://place.map.kakao.com/887900000,,unknown,unknown,,2,3.0
20589608,부영빌딩 주차장,"교통,수송 > 교통시설 > 주차장",PK6,주차장,,서울 중구 서소문동 120-23,,126.97410717039126,37.56169121856586,http://place.map.kakao.com/20589608,,unknown,unknown,,0,0
1543218268,부영태평빌딩 주차장,"교통,수송 > 교통시설 > 주차장",PK6,주차장,,서울 중구 태평로2가 150,서울 중구 세종대로 55,126.975219752463,37.5617058732691,http://place.map.kakao.com/1543218268,,unknown,unknown,,0,0
26535465,대화주차장,"교통,수송 > 교통시설 > 주차장",PK6,주차장,,서울 중구 북창동 107,,126.97846806869504,37.56181282796357,http://place.map.kakao.com/26535465,,unknown,unknown,,0,0
1302237951,원주차장,"교통,수송 > 교통시설 > 주차장",PK6,주차장,,서울 중구 북창동 94-14,,126.97816462576804,37.56219839878947,http://place.map.kakao.com/1302237951,,unknown,unknown,,1,5.0
322122457,소테츠호텔즈 더 스프라지르 서울명동 주차장,"교통,수송 > 교통시설 > 주차장",PK6,주차장,,서울 중구 북창동 93-42,서울 중구 남대문로5길 15,126.9787554864326,37.56204894114982,http://place.map.kakao.com/322122457,,unknown,unknown,,0,0
1097795658,알로프트명동 주차장,"교통,수송 > 교통시설 > 주차장",PK6,주차장,,서울 중구 명동2가 104,서울 중구 남대문로 56,126.981760464074,37.5622134250032,http://place.map.kakao.com/1097795658,,unknown,unknown,,0,0
1096043226,아마노 중앙우체국 주차장,"교통,수송 > 교통시설 > 주차장",PK6,주차장,,서울 중구 충무로1가 21-1,서울 중구 소공로 70,126.982166940046,37.5615972053929,http://place.map.kakao.com/1096043226,,unknown,unknown,,0,0
26879211,포스트타워 주차장,"교통,수송 > 교통시설 > 주차장",PK6,주차장,,서울 중구 충무로1가 21-1,서울 중구 소공로 70,126.98216121216969,37.56188552346236,http://place.map.kakao.com/26879211,,unknown,unknown,,4,1.5
30195287,Tmap주차 알로프트명동 주차장,"교통,수송 > 교통시설 > 주차장",PK6,주차장,,서울 중구 명동2가 104,서울 중구 남대문로 56,126.9819223018,37.5622747176625,http://place.map.kakao.com/30195287,,unknown,unknown,,0,0
27436743,신화민영주차장,"교통,수송 > 교통시설 > 주차장",PK6,주차장,,서울 중구 충무로2가 11-1,서울 중구 명동8가길 27,126.986499496717,37.5620158427556,http://place.map.kakao.com/27436743,,unknown,unknown,,0,0
1672776076,선샤인빌딩 주차장,"교통,수송 > 교통시설 > 주차장",PK6,주차장,,서울 중구 충무로2가 11-1,서울 중구 명동8가길 27,126.986565152571,37.5619626914433,http://place.map.kakao.com/1672776076,,unknown,unknown,,0,0
20594128,남산스퀘어 주차장,"교통,수송 > 교통시설 > 주차장",PK6,주차장,,서울 중구 충무로3가 60-1,서울 중구 퇴계로 173,126.99106533837652,37.56178472042304,http://place.map.kakao.com/20594128,,unknown,unknown,,0,0
869833318,하이시티파킹 남산스퀘어 주차장,"교통,수송 > 교통시설 > 주차장",PK6,주차장,,서울 중구 충무로3가 60-1,서울 중구 퇴계로 173,126.99106533719296,37.56179463138634,http://place.map.kakao.com/869833318,,unknown,unknown,,0,0
2060575436,골든브릿지빌딩 주차장,"교통,수송 > 교통시설 > 주차장",PK6,주차장,,서울 서대문구 충정로3가 222,서울 서대문구 충정로 50,126.965157239426,37.5629088658806,http://place.map.kakao.com/2060575436,,unknown,unknown,,0,0
1267130663,피어리스아파트 주차장입구,"교통,수송 > 교통시설 > 주차장",PK6,주차장,,서울 서대문구 충정로3가 222,,126.965268260325,37.5626935604344,http://place.map.kakao.com/1267130663,,unknown,unknown,,0,0
1399121238,NH농협생명 동관 주차장,"교통,수송 > 교통시설 > 주차장",PK6,주차장,,서울 서대문구 미근동 257,서울 서대문구 통일로 87,126.968512087885,37.5627764608081,http://place.map.kakao.com/1399121238,,unknown,unknown,,0,0
375884156,하이시티파킹 NH농협생명빌딩 동관주차장,"교통,수송 > 교통시설 > 주차장",PK6,주차장,,서울 서대문구 미근동 257,서울 서대문구 통일로 87,126.968466852849,37.5626845470926,http://place.map.kakao.com/375884156,,unknown,unknown,,0,0
720842990,하이파킹 순화빌딩 주차장,"교통,수송 > 교통시설 > 주차장",PK6,주차장,,서울 중구 순화동 5-2,서울 중구 서소문로 89,126.970825649294,37.562593251881,http://place.map.kakao.com/720842990,,unknown,unknown,,1,2.0
2066186292,하이파킹 정안빌딩 주차장,"교통,수송 > 교통시설 > 주차장",PK6,주차장,,서울 중구 서소문동 57-10,서울 중구 서소문로 95,126.971778578638,37.5628088216738,http://place.map.kakao.com/2066186292,,unknown,unknown,,0,0
1993960430,정안빌딩 주차장,"교통,수송 > 교통시설 > 주차장",PK6,주차장,,서울 중구 서소문동 57-10,,126.9715091793329,37.56286191576357,http://place.map.kakao.com/1993960430,,unknown,unknown,,0,0
1932046856,배재빌딩 주차장,"교통,수송 > 교통시설 > 주차장",PK6,주차장,,서울 중구 서소문동 55-4,서울 중구 서소문로 103,126.972678314974,37.5630288764529,http://place.map.kakao.com/1932046856,,unknown,unknown,,0,0
26864800,GS타임즈 시청역 유료주차장,"교통,수송 > 교통시설 > 주차장",PK6,주차장,,서울 중구 서소문동 75-95,서울 중구 서소문로 116,126.974126110473,37.5625615854334,http://place.map.kakao.com/26864800,,unknown,unknown,,1,1.0
26864884,GS타임즈 유원빌딩 지하민영주차장,"교통,수송 > 교통시설 > 주차장",PK6,주차장,,서울 중구 서소문동 75-95,서울 중구 서소문로 116,126.97401629153482,37.56264895797852,http://place.map.kakao.com/26864884,,unknown,unknown,,1,1.0
409437898,나이스파크 시청역시티스퀘어 주차장,"교통,수송 > 교통시설 > 주차장",PK6,주차장,1522-0741,서울 중구 서소문동 143,서울 중구 서소문로 124,126.975334763779,37.5630258573203,http://place.map.kakao.com/409437898,,unknown,unknown,,2,4.0
651181575,씨티스퀘어 주차장,"교통,수송 > 교통시설 > 주차장",PK6,주차장,,서울 중구 서소문동 143,서울 중구 서소문로 124,126.97517853197162,37.56313664714201,http://place.map.kakao.com/651181575,,unknown,unknown,,0,0
20515047,대한빌딩주차장,"교통,수송 > 교통시설 > 주차장",PK6,주차장,,서울 중구 서소문동 75,,126.974624083878,37.5626698130971,http://place.map.kakao.com/20515047,,unknown,unknown,,0,0
26864812,ENA센터 주차장,"교통,수송 > 교통시설 > 주차장",PK6,주차장,,서울 중구 서소문동 136,서울 중구 서소문로 120,126.97466475454875,37.5628932689636,http://place.map.kakao.com/26864812,,unknown,unknown,,0,0
2057599665,태평로빌딩 주차장,"교통,수송 > 교통시설 > 주차장",PK6,주차장,,서울 중구 태평로2가 310,서울 중구 세종대로 73,126.975940329759,37.5629412886099,http://place.map.kakao.com/2057599665,,unknown,unknown,,0,0
1928210721,하이파킹 태평로빌딩 주차장,"교통,수송 > 교통시설 > 주차장",PK6,주차장,,서울 중구 서소문동 111,서울 중구 세종대로 73,126.9759923967378,37.56293499223347,http://place.map.kakao.com/1928210721,,unknown,unknown,,0,0
1494101123,나이스파크 씨티스퀘어 주차장,"교통,수송 > 교통시설 > 주차장",PK6,주차장,,서울 중구 서소문동 143,서울 중구 서소문로 124,126.975417374777,37.5630682213836,http://place.map.kakao.com/1494101123,,unknown,unknown,,0,0
1585968136,백영북창빌딩 주차장,"교통,수송 > 교통시설 > 주차장",PK6,주차장,,서울 중구 북창동 18-9,서울 중구 세종대로14길 15,126.9774558672606,37.562959607655024,http://place.map.kakao.com/1585968136,,unknown,unknown,,0,0
248950512,범화빌딩 주차장,"교통,수송 > 교통시설 > 주차장",PK6,주차장,,서울 중구 북창동 70-1,서울 중구 남대문로1길 34,126.977557842961,37.5625947234981,http://place.map.kakao.com/248950512,,unknown,unknown,,0,0
20577474,주차장,"교통,수송 > 교통시설 > 주차장",PK6,주차장,,서울 중구 소공동 112-2,,126.978893284911,37.563059883985,http://place.map.kakao.com/20577474,,unknown,unknown,,0,0
25612170,해운센터빌딩앞 노상공영주차장,"교통,수송 > 교통시설 > 주차장 > 공영주차장",PK6,주차장,,서울 중구 소공동 59,,126.9807223272832,37.56315750441847,http://place.map.kakao.com/25612170,,unknown,unknown,,0,0
1808901258,롯데백화점 본점 주말임시주차장(한진빌딩),"교통,수송 > 교통시설 > 주차장",PK6,주차장,,서울 중구 소공동 32-7,서울 중구 남대문로 63,126.981093653368,37.5628440176911,http://place.map.kakao.com/1808901258,,unknown,unknown,,1,5.0
1016027025,한국은행 주차장,"교통,수송 > 교통시설 > 주차장",PK6,주차장,,서울 중구 남대문로2가 103,,126.981290624211,37.5627251175295,http://place.map.kakao.com/1016027025,,unknown,unknown,,0,0
20588705,해운센타 빌딩앞주차장,"교통,수송 > 교통시설 > 주차장",PK6,주차장,,서울 중구 소공동 51,서울 중구 소공로 88,126.980921529233,37.5631719527196,http://place.map.kakao.com/20588705,,unknown,unknown,,0,0
26879213,현대해상빌딩 주차장,"교통,수송 > 교통시설 > 주차장",PK6,주차장,,서울 중구 명동2가 92-3,서울 중구 명동2길 20,126.9823546266962,37.56243065547493,http://place.map.kakao.com/26879213,,unknown,unknown,,0,0
1091998600,조양빌딩 신관 주차장,"교통,수송 > 교통시설 > 주차장",PK6,주차장,,서울 중구 충무로2가 49-12,서울 중구 삼일대로6길 5,126.98932108377704,37.56252339276599,http://place.map.kakao.com/1091998600,,unknown,unknown,,0,0
1515970900,인농빌딩 주차장,"교통,수송 > 교통시설 > 주차장",PK6,주차장,,서울 중구 저동2가 50-1,서울 중구 수표로 23,126.990120077574,37.563172179818,http://place.map.kakao.com/1515970900,,unknown,unknown,,0,0
649611309,한영빌딩 주차장,"교통,수송 > 교통시설 > 주차장",PK6,주차장,,서울 중구 충무로3가 57-8,서울 중구 퇴계로27길 28,126.99152075702824,37.562442407931,http://place.map.kakao.com/649611309,,unknown,unknown,,0,0
26564843,골든타워빌딩 주차장,"교통,수송 > 교통시설 > 주차장",PK6,주차장,,서울 서대문구 충정로2가 191,서울 서대문구 충정로 53,126.96461357906378,37.56369977902383,http://place.map.kakao.com/26564843,,unknown,unknown,,0,0
1500069462,아마노 골든타워빌딩 주차장,"교통,수송 > 교통시설 > 주차장",PK6,주차장,,서울 서대문구 충정로2가 191,서울 서대문구 충정로 53,126.96463166409,37.5637520422304,http://place.map.kakao.com/1500069462,,unknown,unknown,,0,0
221496124,하이파킹 KT&G서대문 주차장,"교통,수송 > 교통시설 > 주차장",PK6,주차장,,서울 서대문구 미근동 21-1,서울 서대문구 충정로 60,126.966424432112,37.5639679037992,http://place.map.kakao.com/221496124,,unknown,unknown,,0,0
26777546,경찰청 주차장,"교통,수송 > 교통시설 > 주차장",PK6,주차장,,서울 서대문구 미근동 209,서울 서대문구 통일로 97,126.96802283540252,37.56346829457223,http://place.map.kakao.com/26777546,,unknown,unknown,,0,0
26909635,이화여고앞공영주차장,"교통,수송 > 교통시설 > 주차장 > 공영주차장",PK6,주차장,02-2280-8360,서울 중구 순화동 1-1,서울 중구 통일로4길 30,126.969466948212,37.563796639548,http://place.map.kakao.com/26909635,,unknown,unknown,,0,0
854468128,KG타워 주차장,"교통,수송 > 교통시설 > 주차장",PK6,주차장,,서울 중구 순화동 1-170,서울 중구 통일로 92,126.96925876155,37.5636127822691,http://place.map.kakao.com/854468128,,unknown,unknown,,0,0
889885643,덕수궁롯데캐슬 주차장,"교통,수송 > 교통시설 > 주차장",PK6,주차장,,서울 중구 순화동 217,서울 중구 서소문로9길 28,126.970329514656,37.5635716103817,http://place.map.kakao.com/889885643,,unknown,unknown,,0,0
26864833,배재정동빌딩 주차장,"교통,수송 > 교통시설 > 주차장",PK6,주차장,,서울 중구 정동 34-5,서울 중구 서소문로11길 19,126.9727427315119,37.56330009127014,http://place.map.kakao.com/26864833,,unknown,unknown,,0,0
14535368,서울시립미술관 서소문본관 주차장,"교통,수송 > 교통시설 > 주차장",PK6,주차장,,서울 중구 서소문동 37,서울 중구 덕수궁길 15,126.973500865717,37.5638841095158,http://place.map.kakao.com/14535368,,unknown,unknown,,2,1.0
26864650,한산빌딩 주차장,"교통,수송 > 교통시설 > 주차장",PK6,주차장,,서울 중구 서소문동 47-2,,126.97323383998476,37.563622760339165,http://place.map.kakao.com/26864650,,unknown,unknown,,0,0
605284454,서소문한화빌딩 주차장,"교통,수송 > 교통시설 > 주차장",PK6,주차장,,서울 중구 서소문동 34,서울 중구 서소문로 125,126.9749508533856,37.56366458295006,http://place.map.kakao.com/605284454,,unknown,unknown,,8,1.5
322810181,하이파킹 서소문한화빌딩 주차장,"교통,수송 > 교통시설 > 주차장",PK6,주차장,1688-1054,서울 중구 서소문동 34,서울 중구 서소문로 125,126.974945183234,37.563697017616,http://place.map.kakao.com/322810181,,unknown,unknown,,0,0
26879185,한화금융센터 태평로사옥 주차장,"교통,수송 > 교통시설 > 주차장",PK6,주차장,,서울 중구 태평로2가 43,,126.9777735632402,37.56414808212608,http://place.map.kakao.com/26879185,,unknown,unknown,,0,0
1485600339,우성빌딩 주차장,"교통,수송 > 교통시설 > 주차장",PK6,주차장,,서울 중구 북창동 35,서울 중구 세종대로18길 16,126.97802278636811,37.56342372771416,http://place.map.kakao.com/1485600339,,unknown,unknown,,0,0
814067218,조선호텔 앞 공영주차장,"교통,수송 > 교통시설 > 주차장 > 공영주차장",PK6,주차장,,서울 중구 소공동 87-3,,126.979944548662,37.563894389911,http://place.map.kakao.com/814067218,,unknown,unknown,,0,0
26879184,조선호텔앞 노상공영주차장,"교통,수송 > 교통시설 > 주차장",PK6,주차장,,서울 중구 소공동 87-3,서울 중구 소공로 지하 102,126.98002376331443,37.5639529681024,http://place.map.kakao.com/26879184,,unknown,unknown,,0,0
54450891,oci빌딩 주차장,"교통,수송 > 교통시설 > 주차장",PK6,주차장,,서울 중구 소공동 50,서울 중구 소공로 94,126.980458553718,37.5633583832599,http://place.map.kakao.com/54450891,,unknown,unknown,,0,0
516142421,하이파킹 OCI빌딩점 주차장,"교통,수송 > 교통시설 > 주차장",PK6,주차장,,서울 중구 소공동 50,서울 중구 소공로 94,126.980441574743,37.5633628854305,http://place.map.kakao.com/516142421,,unknown,unknown,,0,0
27199071,창강빌딩 주차장,"교통,수송 > 교통시설 > 주차장",PK6,주차장,,서울 중구 소공동 64,서울 중구 남대문로7길 11-5,126.981161410726,37.5634531021253,http://place.map.kakao.com/27199071,,unknown,unknown,,0,0
26879214,눈스퀘어 주차장,"교통,수송 > 교통시설 > 주차장",PK6,주차장,,서울 중구 명동2가 83-5,서울 중구 명동길 14,126.98255927345733,37.56335781127659,http://place.map.kakao.com/26879214,,unknown,unknown,,5,2.4
267036845,롯데에비뉴엘 주차장,"교통,수송 > 교통시설 > 주차장",PK6,주차장,,서울 중구 남대문로2가 130,,126.981926387734,37.5641019390875,http://place.map.kakao.com/267036845,,unknown,unknown,,0,0
587990760,하이파킹 눈스퀘어 주차장,"교통,수송 > 교통시설 > 주차장",PK6,주차장,,서울 중구 명동2가 83-5,서울 중구 명동길 14,126.982886367076,37.563410116935,http://place.map.kakao.com/587990760,,unknown,unknown,,0,0
428761294,하이시티파킹 눈스퀘어 주차장,"교통,수송 > 교통시설 > 주차장",PK6,주차장,,서울 중구 명동2가 83-5,서울 중구 명동길 14,126.982863722773,37.563441648525,http://place.map.kakao.com/428761294,,unknown,unknown,,0,0
581292202,카카오T 눈스퀘어주차장,"교통,수송 > 교통시설 > 주차장",PK6,주차장,,서울 중구 명동2가 83-5,서울 중구 명동길 14,126.9824562826345,37.56332445914981,http://place.map.kakao.com/581292202,,unknown,unknown,,0,0
26879215,이비스앰배서더 명동 주차장,"교통,수송 > 교통시설 > 주차장",PK6,주차장,,서울 중구 명동1가 59-5,서울 중구 남대문로 78,126.9829733847007,37.56400388612509,http://place.map.kakao.com/26879215,,unknown,unknown,,1,5.0
404880521,1898유료주차장,"교통,수송 > 교통시설 > 주차장",PK6,주차장,,서울 중구 명동2가 1-18,서울 중구 명동길 66,126.986032824293,37.563929505009,http://place.map.kakao.com/404880521,,unknown,unknown,,0,0
1574826400,가톨릭회관 주차장,"교통,수송 > 교통시설 > 주차장",PK6,주차장,,서울 중구 명동2가 1-18,서울 중구 명동길 80,126.98750988717644,37.56403058209892,http://place.map.kakao.com/1574826400,,unknown,unknown,,1,5.0
17574191,명동대성당 주차장1,"교통,수송 > 교통시설 > 주차장",PK6,주차장,,서울 중구 명동2가 1-18,서울 중구 명동길 80,126.98751328397,37.5640233744876,http://place.map.kakao.com/17574191,,unknown,unknown,,0,0
735052877,영락교회 주차장,"교통,수송 > 교통시설 > 주차장",PK6,주차장,,서울 중구 저동1가 6,서울 중구 수표로 33,126.988522924682,37.5639018424475,http://place.map.kakao.com/735052877,,unknown,unknown,,0,0
909746266,하이파킹 명동중부점 주차장,"교통,수송 > 교통시설 > 주차장",PK6,주차장,,서울 중구 저동2가 64,서울 중구 수표로 31,126.98956308889171,37.56401996950138,http://place.map.kakao.com/909746266,,unknown,unknown,,0,0
26176382,웨스트게이트타워 주차장,"교통,수송 > 교통시설 > 주차장",PK6,주차장,,서울 서대문구 미근동 332,서울 서대문구 충정로 70,126.96637883368726,37.56468868781992,http://place.map.kakao.com/26176382,,unknown,unknown,,0,0
25611935,이화여고앞 노상공영주차장,"교통,수송 > 교통시설 > 주차장 > 공영주차장",PK6,주차장,,서울 중구 순화동 1-140,,126.96862666584882,37.56485148585913,http://place.map.kakao.com/25611935,,unknown,unknown,,0,0
26160666,바비엥1 주차장,"교통,수송 > 교통시설 > 주차장",PK6,주차장,,서울 중구 의주로1가 32-2,서울 중구 통일로 102,126.96844416977888,37.56432667185641,http://place.map.kakao.com/26160666,,unknown,unknown,,0,0
1388353689,서울중앙지방법원 중부등기소 주차장,"교통,수송 > 교통시설 > 주차장",PK6,주차장,,서울 중구 서소문동 37-8,서울 중구 서소문로11길 34,126.973382971369,37.5643922449036,http://place.map.kakao.com/1388353689,,unknown,unknown,,0,0
18071709,서울특별시청 서소문청사 주차장,"교통,수송 > 교통시설 > 주차장 > 공영주차장",PK6,주차장,,서울 중구 서소문동 37,서울 중구 덕수궁길 15,126.975175855106,37.5643818235373,http://place.map.kakao.com/18071709,,unknown,unknown,,2,3.0
1296528392,GS타임즈 서울시립미술관 주차장,"교통,수송 > 교통시설 > 주차장",PK6,주차장,02-3273-0700(팩스),서울 중구 서소문동 37,서울 중구 덕수궁길 15,126.97517020832238,37.564343980507005,http://place.map.kakao.com/1296528392,,unknown,unknown,,0,0
20588256,플라자호텔 지하주차장,"교통,수송 > 교통시설 > 주차장",PK6,주차장,,서울 중구 소공동 17-3,,126.978426469615,37.5647716926412,http://place.map.kakao.com/20588256,,unknown,unknown,,0,0
1204590507,한화빌딩 주차장,"교통,수송 > 교통시설 > 주차장",PK6,주차장,,서울 중구 소공동 110,서울 중구 소공로 109,126.978548877411,37.5641950773475,http://place.map.kakao.com/1204590507,,unknown,unknown,,0,0
20590018,조선호텔 발렛전용주차장,"교통,수송 > 교통시설 > 주차장",PK6,주차장,,서울 중구 소공동 87-10,서울 중구 소공로 112,126.979359176015,37.564620492026,http://place.map.kakao.com/20590018,,unknown,unknown,,1,5.0
1578646060,조선호텔 주차장,"교통,수송 > 교통시설 > 주차장",PK6,주차장,,서울 중구 소공동 87-1,서울 중구 소공로 106,126.980183215309,37.5644836817884,http://place.map.kakao.com/1578646060,,unknown,unknown,,0,0
20515824,롯데백화점 주차장1,"교통,수송 > 교통시설 > 주차장",PK6,주차장,,서울 중구 소공동 1,서울 중구 남대문로 81,126.981084098339,37.5648226041444,http://place.map.kakao.com/20515824,,unknown,unknown,,0,0
1199833014,SK명동빌딩 주차장,"교통,수송 > 교통시설 > 주차장",PK6,주차장,,서울 중구 명동1가 59-5,서울 중구 남대문로 78,126.983017488905,37.5641732797842,http://place.map.kakao.com/1199833014,,unknown,unknown,,0,0
26879216,명동아르누보센텀 주차장,"교통,수송 > 교통시설 > 주차장",PK6,주차장,,서울 중구 을지로2가 199-40,서울 중구 명동7길 21,126.983859476146,37.56473291657192,http://place.map.kakao.com/26879216,,unknown,unknown,,0,0
26879219,엠마오주차장,"교통,수송 > 교통시설 > 주차장",PK6,주차장,,서울 중구 명동1가 9-20,서울 중구 명동길 53,126.985118226863,37.564196088178,http://place.map.kakao.com/26879219,,unknown,unknown,,0,0
26984674,호텔스카이파크 명동2호점주차장,"교통,수송 > 교통시설 > 주차장",PK6,주차장,,서울 중구 을지로2가 195-8,서울 중구 명동9길 22,126.985009434138,37.564862811638,http://place.map.kakao.com/26984674,,unknown,unknown,,0,0
10329742,명동주차장,"교통,수송 > 교통시설 > 주차장",PK6,주차장,,서울 중구 명동1가 9-4,,126.985281185061,37.5643510799677,http://place.map.kakao.com/10329742,,unknown,unknown,,0,0
26377644,호텔스카이파크 센트럴명동 주차장,"교통,수송 > 교통시설 > 주차장",PK6,주차장,,서울 중구 명동1가 10-1,서울 중구 명동9길 16,126.98514190102712,37.56467452017502,http://place.map.kakao.com/26377644,,unknown,unknown,,0,0
1533890380,나라키움저동빌딩 주차장,"교통,수송 > 교통시설 > 주차장",PK6,주차장,,서울 중구 저동1가 1-2,서울 중구 삼일대로 340,126.98821941144368,37.56500913695876,http://place.map.kakao.com/1533890380,,unknown,unknown,,0,0
426544839,인제대백병원 주차장,"교통,수송 > 교통시설 > 주차장",PK6,주차장,,서울 중구 저동2가 85,서울 중구 마른내로 9,126.988672190284,37.5648271800394,http://place.map.kakao.com/426544839,,unknown,unknown,,1,1.0
468516542,평화빌딩 주차장,"교통,수송 > 교통시설 > 주차장",PK6,주차장,,서울 중구 저동1가 2-3,서울 중구 삼일대로 330,126.988432301233,37.5643838666291,http://place.map.kakao.com/468516542,,unknown,unknown,,0,0
26879242,씨티센터타워 주차장,"교통,수송 > 교통시설 > 주차장",PK6,주차장,,서울 중구 저동2가 24-1,서울 중구 수표로 34,126.99035646695444,37.564470535119085,http://place.map.kakao.com/26879242,,unknown,unknown,,0,0
409217555,GS타임즈 나인트리호텔 명동 제2주차장,"교통,수송 > 교통시설 > 주차장",PK6,주차장,,서울 중구 초동 72-10,서울 중구 마른내로 28,126.99078660199,37.5642723502886,http://place.map.kakao.com/409217555,,unknown,unknown,,1,2.0
20587829,충현동제1공영주차장,"교통,수송 > 교통시설 > 주차장 > 공영주차장",PK6,주차장,,서울 서대문구 충정로2가 78-13,서울 서대문구 경기대로 72,126.96450878216142,37.5651034996945,http://place.map.kakao.com/20587829,,unknown,unknown,,0,0
283862510,광산빌딩 주차장,"교통,수송 > 교통시설 > 주차장",PK6,주차장,,서울 서대문구 충정로2가 40,서울 서대문구 경기대로 82,126.96476534917085,37.56588834411515,http://place.map.kakao.com/283862510,,unknown,unknown,,0,0
26864665,바비엥2 주차장,"교통,수송 > 교통시설 > 주차장",PK6,주차장,,서울 중구 의주로1가 25-10,서울 중구 통일로 114,126.9679315269536,37.565241430418425,http://place.map.kakao.com/26864665,,unknown,unknown,,0,0
260923175,나이스파크 바비엥2오피스텔주차장,"교통,수송 > 교통시설 > 주차장",PK6,주차장,,서울 중구 의주로1가 25-10,서울 중구 통일로 114,126.967949616986,37.5652882871283,http://place.map.kakao.com/260923175,,unknown,unknown,,1,5.0
2139671217,롯데백화점본점 주차장,"교통,수송 > 교통시설 > 주차장",PK6,주차장,,서울 중구 을지로1가 140-1,서울 중구 을지로 30,126.981802763133,37.5651353627741,http://place.map.kakao.com/2139671217,,unknown,unknown,,0,0
27446182,롯데호텔서울 주차장,"교통,수송 > 교통시설 > 주차장",PK6,주차장,,서울 중구 을지로1가 180-6,,126.98113140485232,37.56574342975708,http://place.map.kakao.com/27446182,,unknown,unknown,,0,0
266836106,롯데호텔서울 발렛전용 주차장,"교통,수송 > 교통시설 > 주차장",PK6,주차장,,서울 중구 을지로1가 180-6,,126.98112009050746,37.56572540802709,http://place.map.kakao.com/266836106,,unknown,unknown,,1,5.0
629948779,을지한국빌딩 주차장,"교통,수송 > 교통시설 > 주차장",PK6,주차장,,서울 중구 을지로2가 198,서울 중구 을지로 50,126.983325029984,37.5656374424274,http://place.map.kakao.com/629948779,,unknown,unknown,,0,0
18216054,은행회관 주차장,"교통,수송 > 교통시설 > 주차장",PK6,주차장,02-3705-5419,서울 중구 명동1가 4-1,서울 중구 명동11길 19,126.985489309705,37.5650682987227,http://place.map.kakao.com/18216054,,unknown,unknown,,0,0
1725002211,대신파이낸스센터 주차장,"교통,수송 > 교통시설 > 주차장",PK6,주차장,,서울 중구 저동1가 114,서울 중구 삼일대로 343,126.98694151246475,37.565057656323646,http://place.map.kakao.com/1725002211,,unknown,unknown,,0,0
20515545,유안타증권빌딩 주차장,"교통,수송 > 교통시설 > 주차장",PK6,주차장,,서울 중구 을지로2가 185,서울 중구 을지로 76,126.986358517925,37.5654792565927,http://place.map.kakao.com/20515545,,unknown,unknown,,0,0
958225380,IBK파이낸스타워 주차장,"교통,수송 > 교통시설 > 주차장",PK6,주차장,,서울 중구 저동1가 105,서울 중구 을지로 82,126.98709764291726,37.5654568147789,http://place.map.kakao.com/958225380,,unknown,unknown,,0,0
26571361,파인애비뉴 주차장,"교통,수송 > 교통시설 > 주차장",PK6,주차장,,서울 중구 을지로2가 203,서울 중구 을지로 100,126.98877620157064,37.56563538351436,http://place.map.kakao.com/26571361,,unknown,unknown,,0,0
1415751609,평남주차장,"교통,수송 > 교통시설 > 주차장",PK6,주차장,02-2277-1280,서울 중구 을지로3가 345-11,,126.9902623454699,37.56582472461891,http://place.map.kakao.com/1415751609,,unknown,unknown,,0,0
1805542017,평남민영주차장,"교통,수송 > 교통시설 > 주차장",PK6,주차장,,서울 중구 을지로3가 343-13,,126.990283846124,37.5658652712126,http://place.map.kakao.com/1805542017,,unknown,unknown,,0,0
2116601028,하이그린파킹 충정빌딩점 주차장,"교통,수송 > 교통시설 > 주차장",PK6,주차장,,서울 서대문구 충정로2가 2-2,서울 서대문구 통일로 135,126.96549863730898,37.56627328596506,http://place.map.kakao.com/2116601028,,unknown,unknown,,0,0
1984587860,하이그린파킹 D타워 돈의문점 주차장,"교통,수송 > 교통시설 > 주차장",PK6,주차장,,서울 종로구 평동 234,서울 종로구 통일로 134,126.966359808049,37.5667249334405,http://place.map.kakao.com/1984587860,,unknown,unknown,,0,0
967444466,국토발전전시관 주차장,"교통,수송 > 교통시설 > 주차장",PK6,주차장,,서울 중구 정동 28-5,서울 중구 정동길 18,126.970081474955,37.566809727852,http://place.map.kakao.com/967444466,,unknown,unknown,,0,0
152333108,이화여고 민영주차장,"교통,수송 > 교통시설 > 주차장",PK6,주차장,,서울 중구 정동 32-1,서울 중구 정동길 26,126.970956660251,37.5662369129897,http://place.map.kakao.com/152333108,,unknown,unknown,,0,0
906859982,하이그린파킹 대한성공회 서울주교좌성담점 주차장,"교통,수송 > 교통시설 > 주차장",PK6,주차장,,서울 중구 정동 3-7,서울 중구 세종대로19길 16,126.976477903864,37.5667102640013,http://place.map.kakao.com/906859982,,unknown,unknown,,0,0
53099662,부림빌딩 주차장,"교통,수송 > 교통시설 > 주차장",PK6,주차장,,서울 중구 을지로1가 42,서울 중구 남대문로9길 39,126.98024376000312,37.56666590444594,http://place.map.kakao.com/53099662,,unknown,unknown,,0,0
1535247363,을지부영빌딩 주차장,"교통,수송 > 교통시설 > 주차장",PK6,주차장,,서울 중구 을지로1가 87,서울 중구 을지로 29,126.98108028502897,37.56647412933322,http://place.map.kakao.com/1535247363,,unknown,unknown,,0,0
573301732,하나은행 본점 주차장,"교통,수송 > 교통시설 > 주차장",PK6,주차장,,서울 중구 을지로1가 101-1,서울 중구 을지로 35,126.981677912516,37.5665390953007,http://place.map.kakao.com/573301732,,unknown,unknown,,2,3.0
26864681,교원내외빌딩 주차장,"교통,수송 > 교통시설 > 주차장",PK6,주차장,,서울 중구 을지로2가 6,서울 중구 을지로 51,126.9835557298824,37.566570906647485,http://place.map.kakao.com/26864681,,unknown,unknown,,1,5.0
1716627115,하이그린파킹 교원명동빌딩점,"교통,수송 > 교통시설 > 주차장",PK6,주차장,1522-0000,서울 중구 을지로2가 9-10,서울 중구 을지로 55,126.984026635667,37.5664087920289,http://place.map.kakao.com/1716627115,,unknown,unknown,,0,0
859364651,교원명동빌딩 주차장,"교통,수송 > 교통시설 > 주차장",PK6,주차장,,서울 중구 을지로2가 10,,126.984211102934,37.5665619861539,http://place.map.kakao.com/859364651,,unknown,unknown,,0,0
26864742,하나은행 별관빌딩 주차장,"교통,수송 > 교통시설 > 주차장",PK6,주차장,,서울 중구 을지로2가 10,,126.9842088362773,37.56657550078978,http://place.map.kakao.com/26864742,,unknown,unknown,,0,0
26864843,SKT타워 주차장,"교통,수송 > 교통시설 > 주차장",PK6,주차장,,서울 중구 을지로2가 11,서울 중구 을지로 65,126.98538148258308,37.56659637471967,http://place.map.kakao.com/26864843,,unknown,unknown,,0,0
1298378278,IBK기업은행영업부본점 주차장,"교통,수송 > 교통시설 > 주차장",PK6,주차장,,서울 중구 을지로2가 50,서울 중구 을지로 79,126.98656207342,37.5665028114225,http://place.map.kakao.com/1298378278,,unknown,unknown,,0,0
556862070,롯데시티호텔명동 주차장,"교통,수송 > 교통시설 > 주차장",PK6,주차장,,서울 중구 장교동 74,서울 중구 삼일대로 362,126.98821233481098,37.56682013829075,http://place.map.kakao.com/556862070,,unknown,unknown,,0,0
27473939,신한L타워 주차장,"교통,수송 > 교통시설 > 주차장",PK6,주차장,,서울 중구 을지로2가 205,서울 중구 삼일대로 358,126.98807882278932,37.566488558384165,http://place.map.kakao.com/27473939,,unknown,unknown,,0,0
2089707871,하이파킹 신한L타워 주차장,"교통,수송 > 교통시설 > 주차장",PK6,주차장,,서울 중구 을지로2가 205,서울 중구 삼일대로 358,126.988258780275,37.5665822799964,http://place.map.kakao.com/2089707871,,unknown,unknown,,0,0
253302817,트레블로지 주차장,"교통,수송 > 교통시설 > 주차장",PK6,주차장,,서울 중구 을지로2가 101-1,서울 중구 수표로 61,126.989373699658,37.5666112174816,http://place.map.kakao.com/253302817,,unknown,unknown,,0,0
20587855,칠보주차장,"교통,수송 > 교통시설 > 주차장",PK6,주차장,,서울 중구 을지로3가 5-12,서울 중구 충무로9길 43,126.990030188668,37.5667193942562,http://place.map.kakao.com/20587855,,unknown,unknown,,0,0
20577490,주차장,"교통,수송 > 교통시설 > 주차장",PK6,주차장,,서울 중구 을지로3가 342-1,서울 중구 을지로 114-3,126.990664130521,37.5661139768007,http://place.map.kakao.com/20577490,,unknown,unknown,,0,0
20577489,주차장,"교통,수송 > 교통시설 > 주차장",PK6,주차장,,서울 중구 을지로3가 335-1,서울 중구 을지로 지하 106,126.99124815626,37.5663879243199,http://place.map.kakao.com/20577489,,unknown,unknown,,0,0
26864850,서울적십자병원 주차장,"교통,수송 > 교통시설 > 주차장",PK6,주차장,,서울 종로구 평동 164,서울 종로구 새문안로 9,126.96666504390532,37.56757375807821,http://place.map.kakao.com/26864850,,unknown,unknown,,0,0
26864850,서울적십자병원 주차장,"교통,수송 > 교통시설 > 주차장",PK6,주차장,,서울 종로구 평동 164,서울 종로구 새문안로 9,126.96666504390532,37.56757375807821,http://place.map.kakao.com/26864850,,unknown,unknown,,0,0
218631723,청양빌딩 주차장,"교통,수송 > 교통시설 > 주차장",PK6,주차장,,서울 중구 충정로1가 58-3,서울 중구 새문안로 26,126.9688371792152,37.567605886266016,http://place.map.kakao.com/218631723,,unknown,unknown,,0,0
1736523846,GS타임즈 정동주차장,"교통,수송 > 교통시설 > 주차장",PK6,주차장,,서울 중구 정동 27-10,서울 중구 정동길 16,126.970031558502,37.5670908258981,http://place.map.kakao.com/1736523846,,unknown,unknown,,0,0
26843463,프란치스코교육회관 주차장,"교통,수송 > 교통시설 > 주차장",PK6,주차장,,서울 중구 정동 17-1,서울 중구 정동길 9,126.97015479033668,37.56745756240733,http://place.map.kakao.com/26843463,,unknown,unknown,,1,1.0
20577505,주차장,"교통,수송 > 교통시설 > 주차장",PK6,주차장,,서울 중구 정동 27-5,서울 중구 정동길 16,126.969981745803,37.567112437143,http://place.map.kakao.com/20577505,,unknown,unknown,,0,0
1814020479,정동빌딩 주차장,"교통,수송 > 교통시설 > 주차장",PK6,주차장,,서울 중구 정동 15-5,서울 중구 정동길 21-15,126.970945972063,37.5675271364399,http://place.map.kakao.com/1814020479,,unknown,unknown,,0,0
20591886,중구공영주차장,"교통,수송 > 교통시설 > 주차장 > 공영주차장",PK6,주차장,,서울 중구 태평로1가 82,,126.978335084658,37.5676548630479,http://place.map.kakao.com/20591886,,unknown,unknown,,4,4.3
801596421,한국프레스센터 주차장,"교통,수송 > 교통시설 > 주차장",PK6,주차장,,서울 중구 태평로1가 25,서울 중구 세종대로 124,126.977873218171,37.567420428386,http://place.map.kakao.com/801596421,,unknown,unknown,,0,0
849835289,코오롱빌딩옆 노상공영주차장,"교통,수송 > 교통시설 > 주차장 > 공영주차장",PK6,주차장,02-2280-8936,서울 중구 태평로1가 82,,126.978443755034,37.5676332590415,http://place.map.kakao.com/849835289,,unknown,unknown,,0,0
1076650730,서울특별시청 주차장,"교통,수송 > 교통시설 > 주차장 > 공영주차장",PK6,주차장,02-2133-5981,서울 중구 태평로1가 31,서울 중구 세종대로 110,126.97864772708569,37.56683861779011,http://place.map.kakao.com/1076650730,,unknown,unknown,,2,3.0
52759202,AJ파크 무교동점 주차장,"교통,수송 > 교통시설 > 주차장",PK6,주차장,1522-0000,서울 중구 무교동 28,서울 중구 무교로 17-23,126.978656628087,37.5673792169066,http://place.map.kakao.com/52759202,,unknown,unknown,,0,0
26537033,센터플레이스(구YG타워) 주차장,"교통,수송 > 교통시설 > 주차장",PK6,주차장,,서울 중구 다동 155,서울 중구 남대문로9길 40,126.980331922901,37.5671434469819,http://place.map.kakao.com/26537033,,unknown,unknown,,1,5.0
26535428,광일주차장,"교통,수송 > 교통시설 > 주차장",PK6,주차장,02-777-4433,서울 중구 다동 171,서울 중구 다동길 14,126.9799616380574,37.56770380410079,http://place.map.kakao.com/26535428,,unknown,unknown,,0,0
1450012002,하이시티파킹 센터플레이스 주차장,"교통,수송 > 교통시설 > 주차장",PK6,주차장,,서울 중구 다동 155,서울 중구 남대문로9길 40,126.98035342777932,37.56714885653759,http://place.map.kakao.com/1450012002,,unknown,unknown,,0,0
1162910607,다동동아빌딩앞주차장,"교통,수송 > 교통시설 > 주차장",PK6,주차장,,서울 중구 다동 98-1,서울 중구 을지로3길 30-5,126.981748949932,37.5676554401634,http://place.map.kakao.com/1162910607,,unknown,unknown,,0,0
874730585,하이파킹 패스트파이브타워 주차장,"교통,수송 > 교통시설 > 주차장",PK6,주차장,1688-1054,서울 중구 다동 140,서울 중구 남대문로9길 24,126.981133316413,37.567139973786,http://place.map.kakao.com/874730585,,unknown,unknown,,0,0
757725564,하나카드빌딩 주차장,"교통,수송 > 교통시설 > 주차장",PK6,주차장,,서울 중구 다동 140,서울 중구 남대문로9길 24,126.98112426113,37.5671399723386,http://place.map.kakao.com/757725564,,unknown,unknown,,1,5.0
16790809,들녘주차장,"교통,수송 > 교통시설 > 주차장",PK6,주차장,,서울 중구 다동 98-2,,126.98180896591856,37.56755543889528,http://place.map.kakao.com/16790809,,unknown,unknown,,0,0
976382952,산다주차장,"교통,수송 > 교통시설 > 주차장",PK6,주차장,,서울 중구 다동 98-2,,126.981798778888,37.5675545363294,http://place.map.kakao.com/976382952,,unknown,unknown,,0,0
1554627966,동부다동빌딩 주차장,"교통,수송 > 교통시설 > 주차장",PK6,주차장,,서울 중구 다동 103,서울 중구 남대문로 113,126.982281029178,37.5673275587516,http://place.map.kakao.com/1554627966,,unknown,unknown,,0,0
1737440843,시큐어파킹 국제빌딩 주차장,"교통,수송 > 교통시설 > 주차장",PK6,주차장,,서울 중구 다동 111,서울 중구 남대문로 109,126.9821871803597,37.56690768056354,http://place.map.kakao.com/1737440843,,unknown,unknown,,1,1.0
1812700208,하이파킹 국제빌딩 주차장,"교통,수송 > 교통시설 > 주차장",PK6,주차장,1688-1054,서울 중구 다동 111,서울 중구 남대문로 109,126.982192840109,37.5669067804215,http://place.map.kakao.com/1812700208,,unknown,unknown,,0,0
26535689,동국제강공영주차장,"교통,수송 > 교통시설 > 주차장 > 공영주차장",PK6,주차장,,서울 중구 삼각동 111-1,,126.9834423634046,37.56736737115418,http://place.map.kakao.com/26535689,,unknown,unknown,,0,0
20514956,대일빌딩 주차장,"교통,수송 > 교통시설 > 주차장",PK6,주차장,,서울 중구 삼각동 110,서울 중구 남대문로10길 17,126.98366874263624,37.56738362061098,http://place.map.kakao.com/20514956,,unknown,unknown,,0,0
672521244,나이스파크 주차장 대일빌딩,"교통,수송 > 교통시설 > 주차장",PK6,주차장,,서울 중구 삼각동 108,서울 중구 남대문로10길 19,126.983714018024,37.5673890328401,http://place.map.kakao.com/672521244,,unknown,unknown,,1,1.0
20517114,삼각동주차장,"교통,수송 > 교통시설 > 주차장",PK6,주차장,,서울 중구 삼각동 108,서울 중구 남대문로10길 19,126.983637015536,37.5675367855035,http://place.map.kakao.com/20517114,,unknown,unknown,,0,0
1507326531,대일빌딩 주차장,"교통,수송 > 교통시설 > 주차장",PK6,주차장,,서울 중구 삼각동 108,서울 중구 남대문로10길 19,126.983714018024,37.5673890328401,http://place.map.kakao.com/1507326531,,unknown,unknown,,0,0
26864870,미래에셋센터원빌딩 주차장,"교통,수송 > 교통시설 > 주차장",PK6,주차장,,서울 중구 수하동 67,서울 중구 을지로5길 26,126.984999868213,37.5674108271164,http://place.map.kakao.com/26864870,,unknown,unknown,,0,0
639491845,페럼타워 주차장,"교통,수송 > 교통시설 > 주차장",PK6,주차장,,서울 중구 수하동 66,서울 중구 을지로5길 19,126.984134043249,37.5669880567858,http://place.map.kakao.com/639491845,,unknown,unknown,,0,0
26864758,한화빌딩 주차장,"교통,수송 > 교통시설 > 주차장",PK6,주차장,,서울 중구 장교동 1,서울 중구 청계천로 86,126.98643624733296,37.56752362535349,http://place.map.kakao.com/26864758,,unknown,unknown,,0,0
8584715,칠성주차장,"교통,수송 > 교통시설 > 주차장",PK6,주차장,,서울 중구 장교동 22-18,,126.987843319528,37.5669065964757,http://place.map.kakao.com/8584715,,unknown,unknown,,0,0
216246449,나이스파크 KB국민카드청계IT타워 주차장,"교통,수송 > 교통시설 > 주차장",PK6,주차장,,서울 중구 수표동 60,서울 중구 청계천로 106,126.989292056683,37.5676311374131,http://place.map.kakao.com/216246449,,unknown,unknown,,0,0
197799060,시그니쳐타워 주차장,"교통,수송 > 교통시설 > 주차장",PK6,주차장,,서울 중구 수표동 99,서울 중구 청계천로 100,126.988428413656,37.5675643822342,http://place.map.kakao.com/197799060,,unknown,unknown,,0,0
20517233,삼성주차장,"교통,수송 > 교통시설 > 주차장",PK6,주차장,02-2267-3880,서울 중구 수표동 56-17,서울 중구 을지로9길 34,126.9891483828434,37.5670815168448,http://place.map.kakao.com/20517233,,unknown,unknown,,0,0
26864641,시그네이처타워 주차장,"교통,수송 > 교통시설 > 주차장",PK6,주차장,,서울 중구 수표동 99,서울 중구 청계천로 100,126.988458961788,37.5676526828108,http://place.map.kakao.com/26864641,,unknown,unknown,,0,0
27113493,청소년회관뒤노상공영주차장,"교통,수송 > 교통시설 > 주차장 > 공영주차장",PK6,주차장,,서울 중구 수표동 50-1,,126.989821839367,37.56729961782,http://place.map.kakao.com/27113493,,unknown,unknown,,0,0
1875659634,서울청소년수련관 주차장,"교통,수송 > 교통시설 > 주차장",PK6,주차장,,서울 중구 수표동 27-2,서울 중구 을지로11길 23,126.990564351023,37.5674834826447,http://place.map.kakao.com/1875659634,,unknown,unknown,,0,0
20518344,수표유료주차장,"교통,수송 > 교통시설 > 주차장",PK6,주차장,,서울 중구 수표동 35-11,서울 중구 수표로 68-1,126.989830885851,37.5673644902988,http://place.map.kakao.com/20518344,,unknown,unknown,,1,1.0
2084839967,스타즈호텔 유료주차장,"교통,수송 > 교통시설 > 주차장",PK6,주차장,,서울 중구 을지로3가 95-33,서울 중구 충무로9길 20,126.99116093327903,37.56695284226711,http://place.map.kakao.com/2084839967,,unknown,unknown,,0,0
20588040,태훈빌딩주차장,"교통,수송 > 교통시설 > 주차장",PK6,주차장,,서울 중구 을지로3가 95-16,,126.991207306649,37.5672492733678,http://place.map.kakao.com/20588040,,unknown,unknown,,0,0
20512908,강북삼성병원 주차장,"교통,수송 > 교통시설 > 주차장",PK6,주차장,,서울 종로구 평동 108-1,서울 종로구 새문안로 29,126.967808067821,37.5680669199427,http://place.map.kakao.com/20512908,,unknown,unknown,,0,0
26864644,경향신문 주차장,"교통,수송 > 교통시설 > 주차장",PK6,주차장,,서울 중구 정동 22-8,서울 중구 정동길 3,126.970212322466,37.5679486196149,http://place.map.kakao.com/26864644,,unknown,unknown,,0,0
434098793,GS타임즈 피어선빌딩 주차장,"교통,수송 > 교통시설 > 주차장",PK6,주차장,,서울 종로구 신문로2가 89-27,서울 종로구 새문안로 42,126.970023039006,37.5685783676659,http://place.map.kakao.com/434098793,,unknown,unknown,,0,0
875998222,조선일보미술관 주차장,"교통,수송 > 교통시설 > 주차장",PK6,주차장,,서울 중구 정동 1-16,서울 중구 세종대로21길 33,126.975210910512,37.5678957152552,http://place.map.kakao.com/875998222,,unknown,unknown,,1,1.0
20587895,코리아나호텔 주차장,"교통,수송 > 교통시설 > 주차장",PK6,주차장,,서울 중구 태평로1가 60-18,서울 중구 세종대로 135,126.976252316329,37.5677769978917,http://place.map.kakao.com/20587895,,unknown,unknown,,0,0
1479384764,하이파킹 조선일보사주차장,"교통,수송 > 교통시설 > 주차장",PK6,주차장,,서울 중구 태평로1가 60-15,서울 중구 세종대로21길 30,126.97589460754,37.5678454010722,http://place.map.kakao.com/1479384764,,unknown,unknown,,2,3.0
371499806,하이파킹 코리아나호텔 주차장,"교통,수송 > 교통시설 > 주차장",PK6,주차장,,서울 중구 태평로1가 61-1,서울 중구 세종대로 135,126.976642724637,37.5681104441913,http://place.map.kakao.com/371499806,,unknown,unknown,,0,0
20514469,뉴국제호텔앞 노상공영주차장,"교통,수송 > 교통시설 > 주차장 > 공영주차장",PK6,주차장,02-842-0024,서울 중구 태평로1가 18-3,,126.97819909797067,37.56819183146376,http://place.map.kakao.com/20514469,,unknown,unknown,,1,5.0
1945027101,서울파이낸스센터 주차장,"교통,수송 > 교통시설 > 주차장",PK6,주차장,,서울 중구 태평로1가 84,서울 중구 세종대로 136,126.9779805460162,37.56849812942598,http://place.map.kakao.com/1945027101,,unknown,unknown,,0,0
26864848,더익스체인지서울 주차장,"교통,수송 > 교통시설 > 주차장",PK6,주차장,,서울 중구 무교동 45,서울 중구 무교로 21,126.97858288496532,37.567968454777954,http://place.map.kakao.com/26864848,,unknown,unknown,,0,0
682760900,유료주차장,"교통,수송 > 교통시설 > 주차장",PK6,주차장,,서울 중구 무교동 1,,126.979499571414,37.5685930075126,http://place.map.kakao.com/682760900,,unknown,unknown,,0,0
26864823,중앙주차장,"교통,수송 > 교통시설 > 주차장",PK6,주차장,02-777-0635,서울 중구 무교동 10-2,,126.9795856843396,37.56827767395923,http://place.map.kakao.com/26864823,,unknown,unknown,,0,0
20582967,중구공영주차장,"교통,수송 > 교통시설 > 주차장 > 공영주차장",PK6,주차장,,서울 중구 다동 39-2,,126.979910519252,37.568383146174,http://place.map.kakao.com/20582967,,unknown,unknown,,1,5.0
26535504,다동공원제4부지 공영주차장,"교통,수송 > 교통시설 > 주차장",PK6,주차장,,서울 중구 다동 39-3,,126.98025060835003,37.56823607572706,http://place.map.kakao.com/26535504,,unknown,unknown,,0,0
20514503,다동쉼터주차장,"교통,수송 > 교통시설 > 주차장",PK6,주차장,02-2280-8360,서울 중구 다동 46-1,,126.980037419399,37.567918253925,http://place.map.kakao.com/20514503,,unknown,unknown,,0,0
1506010740,케이스퀘어시티빌딩 주차장,"교통,수송 > 교통시설 > 주차장",PK6,주차장,,서울 중구 다동 39,서울 중구 청계천로 24,126.980209313283,37.5685165439953,http://place.map.kakao.com/1506010740,,unknown,unknown,,1,1.0
1535857142,어반포트 케이스퀘어시티 주차장,"교통,수송 > 교통시설 > 주차장",PK6,주차장,,서울 중구 다동 39,서울 중구 청계천로 24,126.980209313283,37.5685165439953,http://place.map.kakao.com/1535857142,,unknown,unknown,,0,0
9591619,한성주차장,"교통,수송 > 교통시설 > 주차장",PK6,주차장,02-777-9588,서울 중구 다동 51-14,서울 중구 다동길 15,126.980431290603,37.5680624791816,http://place.map.kakao.com/9591619,,unknown,unknown,,0,0
26864689,예금보험공사 주차장,"교통,수송 > 교통시설 > 주차장",PK6,주차장,,서울 중구 다동 33,서울 중구 청계천로 30,126.98096208286888,37.568377914456576,http://place.map.kakao.com/26864689,,unknown,unknown,,0,0
20035037,한외빌딩 주차장,"교통,수송 > 교통시설 > 주차장",PK6,주차장,,서울 중구 다동 70,서울 중구 다동길 43,126.981363955874,37.5682248093147,http://place.map.kakao.com/20035037,,unknown,unknown,,0,0
432056133,한국관광공사 주차장,"교통,수송 > 교통시설 > 주차장",PK6,주차장,,서울 중구 다동 10,서울 중구 청계천로 40,126.981621958818,37.5685356932604,http://place.map.kakao.com/432056133,,unknown,unknown,,0,0
1989245381,다동빌딩 주차장,"교통,수송 > 교통시설 > 주차장",PK6,주차장,,서울 중구 다동 92,서울 중구 다동길 46,126.981726261383,37.5678608636847,http://place.map.kakao.com/1989245381,,unknown,unknown,,0,0
553785626,GS타임즈 한외빌딩 주차장,"교통,수송 > 교통시설 > 주차장",PK6,주차장,,서울 중구 다동 70,서울 중구 다동길 43,126.981622036961,37.5682176418063,http://place.map.kakao.com/553785626,,unknown,unknown,,0,0
25620399,한국관광공사옆 노상공영주차장,"교통,수송 > 교통시설 > 주차장 > 공영주차장",PK6,주차장,,서울 중구 다동 85-3,,126.98207028145376,37.56821140376288,http://place.map.kakao.com/25620399,,unknown,unknown,,0,0
1870283755,DGB금융센터 주차장,"교통,수송 > 교통시설 > 주차장",PK6,주차장,,서울 중구 다동 85,서울 중구 남대문로 125,126.982296619652,37.5684105579624,http://place.map.kakao.com/1870283755,,unknown,unknown,,0,0
27220038,관철동노상공영주차장,"교통,수송 > 교통시설 > 주차장 > 공영주차장",PK6,주차장,,서울 종로구 관철동 13-14,,126.98630365343853,37.5683957739066,http://place.map.kakao.com/27220038,,unknown,unknown,,0,0
795539952,관철동 노상공영주차장,"교통,수송 > 교통시설 > 주차장 > 공영주차장",PK6,주차장,,서울 종로구 관철동 268,,126.98632628922732,37.568411093456646,http://place.map.kakao.com/795539952,,unknown,unknown,,0,0
20577427,글로벌빌딩주차장,"교통,수송 > 교통시설 > 주차장",PK6,주차장,,서울 종로구 관철동 11-7,서울 종로구 삼일대로15길 19,126.986430405508,37.5685282349037,http://place.map.kakao.com/20577427,,unknown,unknown,,0,0
26535522,글로벌 주차장,"교통,수송 > 교통시설 > 주차장",PK6,주차장,,서울 종로구 관철동 11-7,서울 종로구 삼일대로15길 19,126.986394180424,37.5685462506471,http://place.map.kakao.com/26535522,,unknown,unknown,,0,0
546630975,청계2 노상공영주차장,"교통,수송 > 교통시설 > 주차장 > 공영주차장",PK6,주차장,,서울 종로구 관철동 37-7,,126.988720337071,37.56830142499372,http://place.map.kakao.com/546630975,,unknown,unknown,,0,0
20577426,주차장,"교통,수송 > 교통시설 > 주차장",PK6,주차장,,서울 종로구 관수동 129-1,서울 종로구 청계천로 113,126.990066162159,37.5685826565507,http://place.map.kakao.com/20577426,,unknown,unknown,,0,0
137392009,하이그린파킹 호텔베뉴지서울 주차장,"교통,수송 > 교통시설 > 주차장",PK6,주차장,,서울 종로구 관수동 125-1,서울 종로구 청계천로 117,126.990710238566,37.5685268472592,http://place.map.kakao.com/137392009,,unknown,unknown,,0,0
1780593216,"강북삼성병원 A ,C관 주차장","교통,수송 > 교통시설 > 주차장",PK6,주차장,02-2001-2001,서울 종로구 평동 60,서울 종로구 새문안로 29,126.96780772348563,37.56886700395625,http://place.map.kakao.com/1780593216,,unknown,unknown,,0,0
620862293,한국씨티은행 본점 주차장,"교통,수송 > 교통시설 > 주차장",PK6,주차장,,서울 종로구 신문로2가 89-29,서울 종로구 새문안로 50,126.97085824025304,37.5690011437071,http://place.map.kakao.com/620862293,,unknown,unknown,,0,0
26212332,시티뱅크빌딩 주차장,"교통,수송 > 교통시설 > 주차장",PK6,주차장,,서울 종로구 신문로2가 89-29,서울 종로구 새문안로 50,126.97086843366482,37.568985829298605,http://place.map.kakao.com/26212332,,unknown,unknown,,0,0
26864831,LG광화문빌딩 주차장,"교통,수송 > 교통시설 > 주차장",PK6,주차장,,서울 종로구 신문로2가 92,서울 종로구 새문안로 58,126.97172182518634,37.56922389961345,http://place.map.kakao.com/26864831,,unknown,unknown,,0,0
20563403,정동유료주차장,"교통,수송 > 교통시설 > 주차장",PK6,주차장,,서울 중구 태평로1가 76-2,,126.975781047865,37.5689806323383,http://place.map.kakao.com/20563403,,unknown,unknown,,0,0
26864673,프리미어플레이스 주차장,"교통,수송 > 교통시설 > 주차장",PK6,주차장,,서울 중구 무교동 96,서울 중구 청계천로 8,126.97822155181746,37.56882613653158,http://place.map.kakao.com/26864673,,unknown,unknown,,0,0
1354005761,한국지능정보사회진흥원빌딩 주차장,"교통,수송 > 교통시설 > 주차장",PK6,주차장,,서울 중구 무교동 77,서울 중구 청계천로 14,126.978720759901,37.5687406329853,http://place.map.kakao.com/1354005761,,unknown,unknown,,0,0
682760900,유료주차장,"교통,수송 > 교통시설 > 주차장",PK6,주차장,,서울 중구 무교동 1,,126.979499571414,37.5685930075126,http://place.map.kakao.com/682760900,,unknown,unknown,,0,0
1244125735,우리본정형외과 주차장,"교통,수송 > 교통시설 > 주차장",PK6,주차장,02-755-8575,서울 중구 무교동 77,서울 중구 청계천로 14,126.978689059058,37.5687640531526,http://place.map.kakao.com/1244125735,,unknown,unknown,,0,0
20594597,동민빌딩앞주차장,"교통,수송 > 교통시설 > 주차장",PK6,주차장,,서울 중구 무교동 77,서울 중구 청계천로 14,126.97882374478,37.5688154341367,http://place.map.kakao.com/20594597,,unknown,unknown,,0,0
26879255,관정빌딩 주차장,"교통,수송 > 교통시설 > 주차장",PK6,주차장,,서울 종로구 서린동 88,서울 종로구 청계천로 35,126.98138178323386,37.56936367055445,http://place.map.kakao.com/26879255,,unknown,unknown,,0,0
12143449,대신주차장,"교통,수송 > 교통시설 > 주차장",PK6,주차장,02-737-4804,서울 종로구 관철동 44-4,서울 종로구 종로8길 18,126.983885667583,37.5692523154323,http://place.map.kakao.com/12143449,,unknown,unknown,,0,0
26184191,종로1번가오피스텔 주차장,"교통,수송 > 교통시설 > 주차장",PK6,주차장,,서울 종로구 관철동 155,서울 종로구 청계천로 67,126.98510032450844,37.56883711602712,http://place.map.kakao.com/26184191,,unknown,unknown,,0,0
26879258,계원빌딩 주차장,"교통,수송 > 교통시설 > 주차장",PK6,주차장,,서울 종로구 관철동 32-4,서울 종로구 청계천로 71,126.98546595545396,37.56875697299788,http://place.map.kakao.com/26879258,,unknown,unknown,,1,5.0
616149578,삼일빌딩 주차장,"교통,수송 > 교통시설 > 주차장",PK6,주차장,,서울 종로구 관철동 10-2,서울 종로구 청계천로 85,126.98708124477076,37.56865174431806,http://place.map.kakao.com/616149578,,unknown,unknown,,0,0
26887627,시네코아 주차장,"교통,수송 > 교통시설 > 주차장",PK6,주차장,,서울 종로구 관철동 33-1,서울 종로구 삼일대로 386,126.9881746275452,37.56906181189338,http://place.map.kakao.com/26887627,,unknown,unknown,,0,0
1284323864,종각뒤 주차장,"교통,수송 > 교통시설 > 주차장 > 공영주차장",PK6,주차장,,서울 종로구 관철동 45-6,서울 종로구 종로 54-1,126.988594589749,37.5689789616204,http://place.map.kakao.com/1284323864,,unknown,unknown,,0,0
348154433,세종주차장,"교통,수송 > 교통시설 > 주차장",PK6,주차장,,서울 종로구 관수동 155-1,서울 종로구 수표로 87,126.9891673579539,37.56892765881761,http://place.map.kakao.com/348154433,,unknown,unknown,,2,1.0
1063416599,나이스파크 세종민영주차장,"교통,수송 > 교통시설 > 주차장",PK6,주차장,,서울 종로구 관수동 155-1,서울 종로구 수표로 87,126.989162826157,37.5689555892646,http://place.map.kakao.com/1063416599,,unknown,unknown,,0,0
706037593,Tmap주차 세종주차장,"교통,수송 > 교통시설 > 주차장",PK6,주차장,,서울 종로구 관수동 155-1,서울 종로구 수표로 87,126.989178676677,37.5689321648335,http://place.map.kakao.com/706037593,,unknown,unknown,,0,0
1822043273,관수주차장,"교통,수송 > 교통시설 > 주차장",PK6,주차장,,서울 종로구 관수동 143-7,서울 종로구 수표로18길 6-9,126.990070632957,37.5690115308322,http://place.map.kakao.com/1822043273,,unknown,unknown,,0,0
17555542,서울시교육청 주차장3,"교통,수송 > 교통시설 > 주차장",PK6,주차장,,서울 종로구 신문로2가 2-64,서울 종로구 송월길 48,126.966910836047,37.5697569395239,http://place.map.kakao.com/17555542,,unknown,unknown,,0,0
18104429,서울시교육청 주차장1,"교통,수송 > 교통시설 > 주차장",PK6,주차장,,서울 종로구 신문로2가 2-77,서울 종로구 송월길 48,126.967671303866,37.5702256678185,http://place.map.kakao.com/18104429,,unknown,unknown,,0,0
18104430,서울시교육청 주차장2,"교통,수송 > 교통시설 > 주차장",PK6,주차장,,서울 종로구 신문로2가 2-77,서울 종로구 송월길 48,126.967626223695,37.569767949811,http://place.map.kakao.com/18104430,,unknown,unknown,,0,0
590385661,콘코디언빌딩 주차장,"교통,수송 > 교통시설 > 주차장",PK6,주차장,,서울 종로구 신문로1가 115,서울 종로구 새문안로 76,126.973145627885,37.5697260865479,http://place.map.kakao.com/590385661,,unknown,unknown,,0,0
1129240075,흥국생명빌딩 주차장,"교통,수송 > 교통시설 > 주차장",PK6,주차장,,서울 종로구 신문로1가 226,서울 종로구 새문안로 68,126.97213483023708,37.56963665374664,http://place.map.kakao.com/1129240075,,unknown,unknown,,0,0
785064641,S타워 주차장,"교통,수송 > 교통시설 > 주차장",PK6,주차장,,서울 종로구 신문로1가 116,,126.97370599608928,37.5695748454494,http://place.map.kakao.com/785064641,,unknown,unknown,,0,0
26377711,광화문오피시아빌딩 주차장,"교통,수송 > 교통시설 > 주차장",PK6,주차장,,서울 종로구 신문로1가 163,서울 종로구 새문안로 92,126.9749103425778,37.56971025685911,http://place.map.kakao.com/26377711,,unknown,unknown,,0,0
24098064,하이굿서비스,"교통,수송 > 교통시설 > 주차장",PK6,주차장,,서울 종로구 신문로1가 163,서울 종로구 새문안로 92,126.974888836147,37.5697084502957,http://place.map.kakao.com/24098064,,unknown,unknown,,0,0
26304397,동화면세점 주차장,"교통,수송 > 교통시설 > 주차장",PK6,주차장,,서울 종로구 세종로 211,서울 종로구 세종대로 149,126.976220077195,37.5694924870393,http://place.map.kakao.com/26304397,,unknown,unknown,,0,0
249658784,서린주차장,"교통,수송 > 교통시설 > 주차장",PK6,주차장,02-735-4530,서울 종로구 서린동 113,,126.979683789825,37.5696481051336,http://place.map.kakao.com/249658784,,unknown,unknown,,0,0
26879253,청계한국빌딩 주차장,"교통,수송 > 교통시설 > 주차장",PK6,주차장,,서울 종로구 서린동 149,서울 종로구 청계천로 11,126.9787046983709,37.56949386235878,http://place.map.kakao.com/26879253,,unknown,unknown,,0,0
1971368594,한국무역보험공사빌딩 주차장,"교통,수송 > 교통시설 > 주차장",PK6,주차장,,서울 종로구 서린동 136,서울 종로구 종로 14,126.978859684572,37.5698137436005,http://place.map.kakao.com/1971368594,,unknown,unknown,,0,0
26879254,SK서린빌딩 주차장,"교통,수송 > 교통시설 > 주차장",PK6,주차장,,서울 종로구 서린동 99,서울 종로구 종로 26,126.98009586074458,37.56949140211502,http://place.map.kakao.com/26879254,,unknown,unknown,,0,0
23363005,서린노외공영주차장,"교통,수송 > 교통시설 > 주차장 > 공영주차장",PK6,주차장,02-720-9862,서울 종로구 서린동 63,서울 종로구 종로 38,126.981503944072,37.5697240879472,http://place.map.kakao.com/23363005,,unknown,unknown,,0,0
116091391,알파빌딩 주차장,"교통,수송 > 교통시설 > 주차장",PK6,주차장,,서울 종로구 서린동 70,서울 종로구 종로 34,126.98103304073808,37.56977266698538,http://place.map.kakao.com/116091391,,unknown,unknown,,0,0
250695283,영풍빌딩 주차장,"교통,수송 > 교통시설 > 주차장",PK6,주차장,,서울 종로구 서린동 33,서울 종로구 청계천로 41,126.982158231095,37.56963949506865,http://place.map.kakao.com/250695283,,unknown,unknown,,0,0
11475963,종각뒤 공영주차장,"교통,수송 > 교통시설 > 주차장 > 공영주차장",PK6,주차장,,서울 종로구 관철동 13-22,,126.9831283282157,37.569562152081545,http://place.map.kakao.com/11475963,,unknown,unknown,,0,0
1061815836,종로빌딩 주차장,"교통,수송 > 교통시설 > 주차장",PK6,주차장,,서울 종로구 관철동 6-1,서울 종로구 삼일대로 395,126.9874628840864,37.569858933516585,http://place.map.kakao.com/1061815836,,unknown,unknown,,0,0
26193909,YBM주차장,"교통,수송 > 교통시설 > 주차장",PK6,주차장,,서울 종로구 관수동 3-8,서울 종로구 수표로 97-5,126.98919327509924,37.56974035914881,http://place.map.kakao.com/26193909,,unknown,unknown,,0,0
16586257,국일관 주차장,"교통,수송 > 교통시설 > 주차장",PK6,주차장,02-2269-0049,서울 종로구 관수동 20,서울 종로구 수표로 96,126.990016201762,37.569746738578,http://place.map.kakao.com/16586257,,unknown,unknown,,0,0
20577440,주차장,"교통,수송 > 교통시설 > 주차장",PK6,주차장,,서울 종로구 송월동 1-1,서울 종로구 송월길 52,126.966720129668,37.5709678236339,http://place.map.kakao.com/20577440,,unknown,unknown,,0,0
2138369956,크레센도빌딩 주차장,"교통,수송 > 교통시설 > 주차장",PK6,주차장,,서울 종로구 신문로1가 57,서울 종로구 새문안로 75,126.97299023358,37.5706045215816,http://place.map.kakao.com/2138369956,,unknown,unknown,,0,0
20518565,신문로공영주차장,"교통,수송 > 교통시설 > 주차장 > 공영주차장",PK6,주차장,02-720-0964,서울 종로구 신문로1가 58-36,,126.9731496808707,37.57104874861998,http://place.map.kakao.com/20518565,,unknown,unknown,#제로페이 ,1,1.0
20519762,용아주차장,"교통,수송 > 교통시설 > 주차장",PK6,주차장,,서울 종로구 신문로1가 58-51,,126.972764817805,37.5710306405556,http://place.map.kakao.com/20519762,,unknown,unknown,,0,0
2091135694,양지주차장,"교통,수송 > 교통시설 > 주차장",PK6,주차장,,서울 종로구 당주동 166,,126.974258996099,37.5710922434794,http://place.map.kakao.com/2091135694,,unknown,unknown,,0,0
26535574,고려유료주차장,"교통,수송 > 교통시설 > 주차장",PK6,주차장,,서울 종로구 신문로1가 27-8,,126.97415499307878,37.57069217886188,http://place.map.kakao.com/26535574,,unknown,unknown,,1,5.0
937756637,새문안교회 주차장,"교통,수송 > 교통시설 > 주차장",PK6,주차장,,서울 종로구 신문로1가 22-4,,126.97326301953773,37.57065233642724,http://place.map.kakao.com/937756637,,unknown,unknown,,0,0
26535382,고려주차장,"교통,수송 > 교통시설 > 주차장",PK6,주차장,,서울 종로구 신문로1가 24,서울 종로구 새문안로 91,126.974752739473,37.5704868812784,http://place.map.kakao.com/26535382,,unknown,unknown,,0,0
70824968,현대해상빌딩 주차장,"교통,수송 > 교통시설 > 주차장",PK6,주차장,,서울 종로구 세종로 178,,126.97591053129555,37.57112142387767,http://place.map.kakao.com/70824968,,unknown,unknown,,0,0
1644913516,포시즌스호텔 주차장,"교통,수송 > 교통시설 > 주차장",PK6,주차장,,서울 종로구 당주동 30,서울 종로구 새문안로 97,126.975400038039,37.5706996528261,http://place.map.kakao.com/1644913516,,unknown,unknown,,0,0
27598235,하이파킹 D타워 주차장,"교통,수송 > 교통시설 > 주차장",PK6,주차장,1688-1054,서울 종로구 청진동 246,서울 종로구 종로3길 17,126.9789125672118,37.570945403211496,http://place.map.kakao.com/27598235,,unknown,unknown,,0,0
26377641,르메이에르종로타운 주차장,"교통,수송 > 교통시설 > 주차장",PK6,주차장,,서울 종로구 청진동 146,서울 종로구 종로 19,126.97982426618412,37.5707912005933,http://place.map.kakao.com/26377641,,unknown,unknown,,0,0
26879212,삼공빌딩 주차장,"교통,수송 > 교통시설 > 주차장",PK6,주차장,,서울 종로구 청진동 136,서울 종로구 종로5길 13,126.98060595884613,37.571070931884485,http://place.map.kakao.com/26879212,,unknown,unknown,,0,0
1606768320,하이파킹 타워8 주차장,"교통,수송 > 교통시설 > 주차장",PK6,주차장,,서울 종로구 청진동 128,서울 종로구 종로5길 7,126.980561929803,37.5706177240193,http://place.map.kakao.com/1606768320,,unknown,unknown,,0,0
120761836,하이시티파킹 타워8 주차장,"교통,수송 > 교통시설 > 주차장",PK6,주차장,,서울 종로구 청진동 128,서울 종로구 종로5길 7,126.980726040063,37.5707123554331,http://place.map.kakao.com/120761836,,unknown,unknown,,0,0
26536959,그랑서울 주차장,"교통,수송 > 교통시설 > 주차장",PK6,주차장,,서울 종로구 청진동 70,서울 종로구 종로 33,126.98120932302,37.5709746229709,http://place.map.kakao.com/26536959,,unknown,unknown,,8,4.5
983023923,GS타임즈 그랑서울주차장,"교통,수송 > 교통시설 > 주차장",PK6,주차장,,서울 종로구 청진동 70,서울 종로구 종로 33,126.981453821053,37.5710034934821,http://place.map.kakao.com/983023923,,unknown,unknown,,1,5.0
26535545,종로타워 주차장,"교통,수송 > 교통시설 > 주차장",PK6,주차장,,서울 종로구 공평동 70,서울 종로구 종로 51,126.9836136745354,37.570744326391406,http://place.map.kakao.com/26535545,,unknown,unknown,,0,0
20563645,종각주차장,"교통,수송 > 교통시설 > 주차장",PK6,주차장,,서울 종로구 공평동 55-1,,126.983255878401,37.5711695459505,http://place.map.kakao.com/20563645,,unknown,unknown,,0,0
16791567,우미주차장,"교통,수송 > 교통시설 > 주차장",PK6,주차장,,서울 종로구 인사동 263,서울 종로구 종로9길 8,126.984369833913,37.5707119930949,http://place.map.kakao.com/16791567,,unknown,unknown,,1,1.0
1249051562,서울YMCA 주차장,"교통,수송 > 교통시설 > 주차장",PK6,주차장,,서울 종로구 종로2가 9,서울 종로구 종로 69,126.9855776540916,37.57063916620717,http://place.map.kakao.com/1249051562,,unknown,unknown,,0,0
27583291,탑골공원 관광버스 주차장,"교통,수송 > 교통시설 > 주차장",PK6,주차장,,서울 종로구 종로2가 38-1,서울 종로구 종로 99,126.987806430521,37.5710043205391,http://place.map.kakao.com/27583291,,unknown,unknown,,0,0
26864748,피카디리플러스 주차장,"교통,수송 > 교통시설 > 주차장",PK6,주차장,,서울 종로구 돈의동 137,서울 종로구 돈화문로5가길 1,126.99123628951956,37.57106318966562,http://place.map.kakao.com/26864748,,unknown,unknown,,0,0
20517644,서울역사박물관 주차장,"교통,수송 > 교통시설 > 주차장",PK6,주차장,02-724-0234,서울 종로구 신문로2가 2-1,서울 종로구 새문안로 55,126.969812540314,37.5712822012158,http://place.map.kakao.com/20517644,,unknown,unknown,,0,0
17933811,경희궁 주차장,"교통,수송 > 교통시설 > 주차장",PK6,주차장,02-724-0234,서울 종로구 신문로2가 2-15,서울 종로구 경희궁1길 17,126.969853284078,37.571300231531,http://place.map.kakao.com/17933811,,unknown,unknown,,0,0
514654835,동원빌딩 주차장,"교통,수송 > 교통시설 > 주차장",PK6,주차장,,서울 종로구 당주동 128-27,서울 종로구 새문안로3길 15,126.97230272478988,37.57170447744375,http://place.map.kakao.com/514654835,,unknown,unknown,,0,0
11475957,광화문빌딩 주차장,"교통,수송 > 교통시설 > 주차장 > 공영주차장",PK6,주차장,,서울 종로구 당주동 145,서울 종로구 세종대로23길 47,126.97370422555144,37.57139125162085,http://place.map.kakao.com/11475957,,unknown,unknown,,2,2.5
1617921262,노상공영주차장,"교통,수송 > 교통시설 > 주차장 > 공영주차장",PK6,주차장,,서울 종로구 당주동 5-2,,126.973931626848,37.5717517001152,http://place.map.kakao.com/1617921262,,unknown,unknown,,0,0
33061381,광화문빌딩 앞 공영주차장,"교통,수송 > 교통시설 > 주차장 > 공영주차장",PK6,주차장,,서울 종로구 당주동 100-4,,126.97391122512,37.5718264782034,http://place.map.kakao.com/33061381,,unknown,unknown,,0,0
2072369541,세종빌딩 주차장,"교통,수송 > 교통시설 > 주차장",PK6,주차장,,서울 종로구 당주동 100,,126.973307847591,37.5719146408424,http://place.map.kakao.com/2072369541,,unknown,unknown,,0,0
1080842641,하이파킹 광화문빌딩 주차장,"교통,수송 > 교통시설 > 주차장",PK6,주차장,,서울 종로구 당주동 145,서울 종로구 세종대로23길 47,126.973446139482,37.571379480915,http://place.map.kakao.com/1080842641,,unknown,unknown,,0,0
20589768,주차장,"교통,수송 > 교통시설 > 주차장",PK6,주차장,,서울 종로구 당주동 5-2,,126.974295011054,37.5716977200889,http://place.map.kakao.com/20589768,,unknown,unknown,,0,0
26864697,로얄빌딩 주차장,"교통,수송 > 교통시설 > 주차장",PK6,주차장,,서울 종로구 당주동 5,서울 종로구 새문안로5길 19,126.97431301967792,37.57199775538124,http://place.map.kakao.com/26864697,,unknown,unknown,,0,0
26879241,교보빌딩 주차장,"교통,수송 > 교통시설 > 주차장",PK6,주차장,,서울 종로구 세종로 116,,126.97808040598,37.5715074726494,http://place.map.kakao.com/26879241,,unknown,unknown,,0,0
20589132,황소유료주차장,"교통,수송 > 교통시설 > 주차장",PK6,주차장,,서울 종로구 청진동 9,서울 종로구 종로5길 32-9,126.981050558897,37.5721134554886,http://place.map.kakao.com/20589132,,unknown,unknown,,0,0
1237211414,하이파킹 SC제일은행본점 주차장,"교통,수송 > 교통시설 > 주차장",PK6,주차장,1688-1054,서울 종로구 공평동 100,서울 종로구 종로 47,126.982378555991,37.5713586272527,http://place.map.kakao.com/1237211414,,unknown,unknown,,0,0
1115932324,하이파킹 94빌딩 주차장,"교통,수송 > 교통시설 > 주차장",PK6,주차장,,서울 종로구 공평동 144,서울 종로구 삼봉로 94,126.982322978944,37.571825334439,http://place.map.kakao.com/1115932324,,unknown,unknown,,1,1.0
994368095,센트로폴리스 주차장,"교통,수송 > 교통시설 > 주차장",PK6,주차장,,서울 종로구 공평동 17,서울 종로구 우정국로 26,126.983571561866,37.57179127697872,http://place.map.kakao.com/994368095,,unknown,unknown,,0,0
1067713865,이성주차장,"교통,수송 > 교통시설 > 주차장",PK6,주차장,,서울 종로구 인사동 246-2,서울 종로구 종로9길 28,126.98494023371154,37.571259872353714,http://place.map.kakao.com/1067713865,,unknown,unknown,,0,0
26879178,하나로빌딩 주차장,"교통,수송 > 교통시설 > 주차장",PK6,주차장,,서울 종로구 인사동 194-4,서울 종로구 인사동5길 25,126.985425691316,37.57207443290428,http://place.map.kakao.com/26879178,,unknown,unknown,,0,0
11477096,탑골공원공영주차장,"교통,수송 > 교통시설 > 주차장 > 공영주차장",PK6,주차장,02-2236-0564,서울 종로구 종로2가 38-1,서울 종로구 종로 99,126.988082494265,37.5718620961552,http://place.map.kakao.com/11477096,,unknown,unknown,,2,1.0
827925003,대일빌딩 주차장,"교통,수송 > 교통시설 > 주차장",PK6,주차장,,서울 종로구 인사동 43,서울 종로구 인사동길 12,126.987362555601,37.5718512093414,http://place.map.kakao.com/827925003,,unknown,unknown,,0,0
26864851,파고다빌딩 주차장,"교통,수송 > 교통시설 > 주차장",PK6,주차장,,서울 종로구 낙원동 150-1,,126.98979439849084,37.5716899956662,http://place.map.kakao.com/26864851,,unknown,unknown,,0,0
1714618841,경희궁의아침4단지오피스텔 지하주차장,"교통,수송 > 교통시설 > 주차장",PK6,주차장,,서울 종로구 내수동 73,서울 종로구 새문안로3길 23,126.972447395103,37.5723099799936,http://place.map.kakao.com/1714618841,,unknown,unknown,,0,0
768337719,하이파킹 경희궁의아침4단지 주차장,"교통,수송 > 교통시설 > 주차장",PK6,주차장,,서울 종로구 내수동 73,서울 종로구 새문안로3길 23,126.972404240241,37.5726874868229,http://place.map.kakao.com/768337719,,unknown,unknown,,0,0
655760174,대우빌딩 주차장,"교통,수송 > 교통시설 > 주차장",PK6,주차장,,서울 종로구 내수동 167,서울 종로구 새문안로3길 30,126.97315015558398,37.57287957075628,http://place.map.kakao.com/655760174,,unknown,unknown,,0,0
1812437772,석탄회관 주차장,"교통,수송 > 교통시설 > 주차장",PK6,주차장,,서울 종로구 수송동 80-6,,126.98006889681676,37.57297824905096,http://place.map.kakao.com/1812437772,,unknown,unknown,,0,0
1062073841,신라스테이 광화문 수송동 지타워 주차장,"교통,수송 > 교통시설 > 주차장",PK6,주차장,,서울 종로구 수송동 156,서울 종로구 삼봉로 71,126.981113810169,37.5726675775743,http://place.map.kakao.com/1062073841,,unknown,unknown,,0,0
402548816,두산위브파빌리온 주차장,"교통,수송 > 교통시설 > 주차장",PK6,주차장,,서울 종로구 수송동 58,서울 종로구 삼봉로 81,126.98178173846271,37.572455047715934,http://place.map.kakao.com/402548816,,unknown,unknown,,0,0
27377220,G타워 주차장,"교통,수송 > 교통시설 > 주차장",PK6,주차장,,서울 종로구 수송동 156,서울 종로구 삼봉로 71,126.9811398598922,37.57261262104368,http://place.map.kakao.com/27377220,,unknown,unknown,,0,0
288512466,카카오T 지타워주차장,"교통,수송 > 교통시설 > 주차장",PK6,주차장,,서울 종로구 수송동 156,서울 종로구 삼봉로 71,126.98122140932897,37.57242973205455,http://place.map.kakao.com/288512466,,unknown,unknown,,0,0
26879202,우정에쉐르 주차장,"교통,수송 > 교통시설 > 주차장",PK6,주차장,,서울 종로구 견지동 110-32,서울 종로구 우정국로 39,126.9827178336856,37.572720080997584,http://place.map.kakao.com/26879202,,unknown,unknown,,0,0
14025866,대성스카이렉스 주차장,"교통,수송 > 교통시설 > 주차장",PK6,주차장,,서울 종로구 견지동 110,서울 종로구 삼봉로 95,126.982374957723,37.57221727507851,http://place.map.kakao.com/14025866,,unknown,unknown,,0,0
7295470,등용문빌딩 민영주차장,"교통,수송 > 교통시설 > 주차장",PK6,주차장,,서울 종로구 견지동 110-43,서울 종로구 우정국로 43,126.98276081833782,37.572855236529634,http://place.map.kakao.com/7295470,,unknown,unknown,,2,3.0
18716580,GS타임즈 인사동주차장,"교통,수송 > 교통시설 > 주차장",PK6,주차장,,서울 종로구 견지동 92-1,서울 종로구 인사동9길 31,126.98362224825846,37.57294545867643,http://place.map.kakao.com/18716580,,unknown,unknown,,0,0
1909253649,NH농협은행 종로금융센터 주차장,"교통,수송 > 교통시설 > 주차장",PK6,주차장,,서울 종로구 견지동 111,,126.983645045652,37.572225566821,http://place.map.kakao.com/1909253649,,unknown,unknown,,0,0
906225671,센터마크호텔 주차장,"교통,수송 > 교통시설 > 주차장",PK6,주차장,,서울 종로구 관훈동 198-42,서울 종로구 인사동5길 38,126.98405590175484,37.57248510959924,http://place.map.kakao.com/906225671,,unknown,unknown,,0,0
2108679819,태화빌딩 주차장,"교통,수송 > 교통시설 > 주차장",PK6,주차장,,서울 종로구 인사동 194-27,,126.98469553418974,37.572204984792535,http://place.map.kakao.com/2108679819,,unknown,unknown,,0,0
1582272999,하이파킹 센터마크호텔 주차장,"교통,수송 > 교통시설 > 주차장",PK6,주차장,,서울 종로구 관훈동 198-42,서울 종로구 인사동5길 38,126.984197377824,37.5725932480244,http://place.map.kakao.com/1582272999,,unknown,unknown,,0,0
646043887,하나로빌딩옆 공영주차장,"교통,수송 > 교통시설 > 주차장 > 공영주차장",PK6,주차장,,서울 종로구 인사동 194-4,,126.98526716761,37.5723068699571,http://place.map.kakao.com/646043887,,unknown,unknown,,1,4.0
935184840,유료민영주차장,"교통,수송 > 교통시설 > 주차장",PK6,주차장,,서울 종로구 인사동 174-2,,126.985831951761,37.5727195948119,http://place.map.kakao.com/935184840,,unknown,unknown,,0,0
26535620,국도민영주차장,"교통,수송 > 교통시설 > 주차장",PK6,주차장,,서울 종로구 인사동 34-27,,126.98715868595858,37.57250891374963,http://place.map.kakao.com/26535620,,unknown,unknown,,0,0
20577451,주차장,"교통,수송 > 교통시설 > 주차장",PK6,주차장,,서울 종로구 인사동 25-3,,126.986950380308,37.5726188122999,http://place.map.kakao.com/20577451,,unknown,unknown,,0,0
358320527,낙원제일 민영주차장,"교통,수송 > 교통시설 > 주차장",PK6,주차장,,서울 종로구 낙원동 289-3,서울 종로구 삼일대로 428,126.988376682417,37.572680229007,http://place.map.kakao.com/358320527,,unknown,unknown,,1,2.0
26377508,낙원제일주차장,"교통,수송 > 교통시설 > 주차장",PK6,주차장,,서울 종로구 낙원동 284-6,서울 종로구 삼일대로 428,126.98780164636564,37.572575655568485,http://place.map.kakao.com/26377508,,unknown,unknown,,0,0
20577430,주차장,"교통,수송 > 교통시설 > 주차장",PK6,주차장,,서울 종로구 낙원동 260-1,,126.988195510428,37.5730153811621,http://place.map.kakao.com/20577430,,unknown,unknown,,0,0
1569417523,하이파킹 오라카이인사동 주차장,"교통,수송 > 교통시설 > 주차장",PK6,주차장,,서울 종로구 낙원동 272,서울 종로구 인사동4길 18,126.987335194577,37.5729936681232,http://place.map.kakao.com/1569417523,,unknown,unknown,,0,0
1447620604,낙원제일주치장,"교통,수송 > 교통시설 > 주차장",PK6,주차장,,서울 종로구 낙원동 253-2,서울 종로구 삼일대로 428,126.987928401045,37.572752263619,http://place.map.kakao.com/1447620604,,unknown,unknown,,0,0
20514166,낙원주차장,"교통,수송 > 교통시설 > 주차장",PK6,주차장,,서울 종로구 낙원동 132-1,,126.989744172049,37.5723848293577,http://place.map.kakao.com/20514166,,unknown,unknown,,0,0
563144555,드래곤팰리스 주차장,"교통,수송 > 교통시설 > 주차장",PK6,주차장,,서울 종로구 돈의동 41-1,서울 종로구 돈화문로11길 23,126.990092832076,37.572330799429,http://place.map.kakao.com/563144555,,unknown,unknown,,0,0
1440452076,낙원오피스텔 주차장,"교통,수송 > 교통시설 > 주차장",PK6,주차장,,서울 종로구 돈의동 39-2,서울 종로구 돈화문로11길 29,126.989866437693,37.5723055523511,http://place.map.kakao.com/1440452076,,unknown,unknown,,0,0
26535625,장원주차장,"교통,수송 > 교통시설 > 주차장",PK6,주차장,,서울 종로구 돈의동 51,서울 종로구 돈화문로11길 8-1,126.990962140404,37.5728210104729,http://place.map.kakao.com/26535625,,unknown,unknown,,0,0
26646798,경희궁의아침3단지오피스텔 주차장,"교통,수송 > 교통시설 > 주차장",PK6,주차장,,서울 종로구 내수동 72,서울 종로구 사직로8길 34,126.97207120882474,37.57329017411585,http://place.map.kakao.com/26646798,,unknown,unknown,,0,0
454058740,용비어천가주차장,"교통,수송 > 교통시설 > 주차장",PK6,주차장,,서울 종로구 내수동 75,서울 종로구 새문안로3길 36,126.97316583123644,37.57335980461063,http://place.map.kakao.com/454058740,,unknown,unknown,,0,0
831024331,벽산광화문시대 주차장,"교통,수송 > 교통시설 > 주차장",PK6,주차장,,서울 종로구 내수동 74,서울 종로구 사직로8길 42,126.97291894365928,37.57366518548946,http://place.map.kakao.com/831024331,,unknown,unknown,,0,0
26864776,센터포인트 주차장,"교통,수송 > 교통시설 > 주차장",PK6,주차장,,서울 종로구 도렴동 65,,126.97409118109344,37.57312897217228,http://place.map.kakao.com/26864776,,unknown,unknown,,0,0
20590715,세종로공영주차장,"교통,수송 > 교통시설 > 주차장 > 공영주차장",PK6,주차장,02-2290-6566,서울 종로구 세종로 80-1,서울 종로구 세종대로 지하 189,126.975960712387,37.5734784371479,http://place.map.kakao.com/20590715,,unknown,unknown,,0,0
26458507,대한민국역사박물관 주차장,"교통,수송 > 교통시설 > 주차장",PK6,주차장,,서울 종로구 세종로 82-1,서울 종로구 세종대로 198,126.978337857779,37.5737131559371,http://place.map.kakao.com/26458507,,unknown,unknown,,0,0
8066538,종로구청 주차장,"교통,수송 > 교통시설 > 주차장",PK6,주차장,02-2148-1306,서울 종로구 수송동 146-12,,126.97928091211313,37.57338806607192,http://place.map.kakao.com/8066538,,unknown,unknown,,1,4.0
26879230,이마빌딩 주차장,"교통,수송 > 교통시설 > 주차장",PK6,주차장,,서울 종로구 수송동 146-1,서울 종로구 종로1길 42,126.978985316789,37.5738934719316,http://place.map.kakao.com/26879230,,unknown,unknown,,0,0
26879236,코리안리빌딩 주차장,"교통,수송 > 교통시설 > 주차장",PK6,주차장,,서울 종로구 수송동 80,서울 종로구 종로5길 68,126.98046158834136,37.573407188276704,http://place.map.kakao.com/26879236,,unknown,unknown,,0,0
11478017,서인사마당 공영주차장,"교통,수송 > 교통시설 > 주차장 > 공영주차장",PK6,주차장,,서울 종로구 견지동 85-18,서울 종로구 인사동11길 19,126.983812274779,37.5736347459893,http://place.map.kakao.com/11478017,,unknown,unknown,,4,4.0
1953857557,아벤트리호텔 주차장,"교통,수송 > 교통시설 > 주차장",PK6,주차장,,서울 종로구 견지동 65-1,서울 종로구 우정국로 46,126.983323368165,37.5730913780154,http://place.map.kakao.com/1953857557,,unknown,unknown,,0,0
1631677706,백상빌딩 주차장,"교통,수송 > 교통시설 > 주차장",PK6,주차장,,서울 종로구 관훈동 197-28,서울 종로구 인사동7길 12,126.985118724536,37.5730735980829,http://place.map.kakao.com/1631677706,,unknown,unknown,,0,0
20513000,건국빌딩 주차장,"교통,수송 > 교통시설 > 주차장",PK6,주차장,,서울 종로구 낙원동 280,서울 종로구 인사동4길 17,126.98695021051596,37.57359188681382,http://place.map.kakao.com/20513000,,unknown,unknown,,2,4.0
609257084,GS타임즈 건국빌딩 주차장,"교통,수송 > 교통시설 > 주차장",PK6,주차장,,서울 종로구 낙원동 280,서울 종로구 인사동4길 17,126.98693435264342,37.57364774674106,http://place.map.kakao.com/609257084,,unknown,unknown,,1,1.0
1883378597,나이스파크 건국빌딩 주차장,"교통,수송 > 교통시설 > 주차장",PK6,주차장,,서울 종로구 낙원동 280-4,서울 종로구 삼일대로 437,126.987303408663,37.5735234497186,http://place.map.kakao.com/1883378597,,unknown,unknown,,0,0
987900741,낙원상가 밑 노상공영주차장,"교통,수송 > 교통시설 > 주차장 > 공영주차장",PK6,주차장,,서울 종로구 경운동 49,,126.98742336868244,37.57371807744895,http://place.map.kakao.com/987900741,,unknown,unknown,,0,0
1065969978,오라카이인사동스위츠 주차장,"교통,수송 > 교통시설 > 주차장",PK6,주차장,070-7119-2662,서울 종로구 낙원동 272,서울 종로구 인사동4길 18,126.9873363209312,37.573027005057234,http://place.map.kakao.com/1065969978,,unknown,unknown,,0,0
20577430,주차장,"교통,수송 > 교통시설 > 주차장",PK6,주차장,,서울 종로구 낙원동 260-1,,126.988195510428,37.5730153811621,http://place.map.kakao.com/20577430,,unknown,unknown,,0,0
1013588277,종로세무서 주차장,"교통,수송 > 교통시설 > 주차장",PK6,주차장,,서울 종로구 낙원동 58-8,서울 종로구 삼일대로30길 22,126.9889560884,37.5738659939386,http://place.map.kakao.com/1013588277,,unknown,unknown,,0,0
26864791,동명빌딩 주차장,"교통,수송 > 교통시설 > 주차장",PK6,주차장,,서울 종로구 묘동 112,,126.99149979805364,37.57317874540816,http://place.map.kakao.com/26864791,,unknown,unknown,,1,1.0
2006105181,사직공영주차장,"교통,수송 > 교통시설 > 주차장",PK6,주차장,,서울 종로구 사직동 262-84,서울 종로구 사직로7길 4,126.966446790321,37.5746834494225,http://place.map.kakao.com/2006105181,,unknown,unknown,,1,1.0
113302717,광화문풍림스페이스본 주차장,"교통,수송 > 교통시설 > 주차장",PK6,주차장,,서울 종로구 사직동 9,서울 종로구 사직로8길 4,126.969805607316,37.5744356817643,http://place.map.kakao.com/113302717,,unknown,unknown,,0,0
20586475,지하주차장,"교통,수송 > 교통시설 > 주차장",PK6,주차장,,서울 종로구 사직동 9,서울 종로구 사직로8길 4,126.969897299544,37.5744393091598,http://place.map.kakao.com/20586475,,unknown,unknown,,0,0
1366591731,파크팰리스 주차장,"교통,수송 > 교통시설 > 주차장",PK6,주차장,,서울 종로구 내수동 95,서울 종로구 사직로8길 20,126.970590296105,37.5739313227989,http://place.map.kakao.com/1366591731,,unknown,unknown,,0,0
26646797,경희궁의아침2단지 주차장,"교통,수송 > 교통시설 > 주차장",PK6,주차장,,서울 종로구 내수동 71,서울 종로구 사직로8길 24,126.97114606100516,37.574070213140686,http://place.map.kakao.com/26646797,,unknown,unknown,,0,0
1848627447,광화문 포레스트한방병원 주차장,"교통,수송 > 교통시설 > 주차장",PK6,주차장,1899-8580,서울 종로구 내자동 219,서울 종로구 새문안로5가길 33,126.97311442914194,37.574644611472834,http://place.map.kakao.com/1848627447,,unknown,unknown,,0,0
26535499,적선노외공영주차장,"교통,수송 > 교통시설 > 주차장 > 공영주차장",PK6,주차장,02-2264-4895,서울 종로구 적선동 140,,126.97420235293475,37.57450339806072,http://place.map.kakao.com/26535499,,unknown,unknown,#제로페이 ,0,0
26864859,광화문플래티넘오피스텔 주차장,"교통,수송 > 교통시설 > 주차장",PK6,주차장,,서울 종로구 적선동 156,서울 종로구 새문안로5가길 28,126.97343254610948,37.57459332679626,http://place.map.kakao.com/26864859,,unknown,unknown,,0,0
1801765945,케이트윈타워 주차장,"교통,수송 > 교통시설 > 주차장",PK6,주차장,,서울 종로구 중학동 19,서울 종로구 종로1길 50,126.979021307654,37.5747259974761,http://place.map.kakao.com/1801765945,,unknown,unknown,,0,0
1634458827,스타벅스 이마빌딩점 주차장,"교통,수송 > 교통시설 > 주차장",PK6,주차장,,서울 종로구 수송동 146-1,,126.97868871125893,37.57395738939084,http://place.map.kakao.com/1634458827,,unknown,unknown,,0,0
1634762802,연합뉴스빌딩 주차장,"교통,수송 > 교통시설 > 주차장",PK6,주차장,,서울 종로구 수송동 110,,126.980105850361,37.5744910256093,http://place.map.kakao.com/1634762802,,unknown,unknown,,0,0
234167206,서울지방국세청 주차장,"교통,수송 > 교통시설 > 주차장",PK6,주차장,,서울 종로구 수송동 104,서울 종로구 종로5길 86,126.979872767144,37.5740702215519,http://place.map.kakao.com/234167206,,unknown,unknown,,0,0
2049150184,하이파킹 수송스퀘어 주차장,"교통,수송 > 교통시설 > 주차장",PK6,주차장,,서울 종로구 수송동 83-1,서울 종로구 율곡로2길 19,126.98109524161764,37.57447406929605,http://place.map.kakao.com/2049150184,,unknown,unknown,,0,0
1424783138,조계사 주차장,"교통,수송 > 교통시설 > 주차장",PK6,주차장,,서울 종로구 견지동 40,,126.982641676764,37.5740697601675,http://place.map.kakao.com/1424783138,,unknown,unknown,,0,0
1001943454,한국불교역사문화기념관 주차장,"교통,수송 > 교통시설 > 주차장",PK6,주차장,,서울 종로구 견지동 27-5,서울 종로구 우정국로 55,126.98193409429336,37.57437148724969,http://place.map.kakao.com/1001943454,,unknown,unknown,,0,0
691765784,GS타임즈 안녕인사동 주차장,"교통,수송 > 교통시설 > 주차장",PK6,주차장,080-330-3600,서울 종로구 관훈동 154-1,서울 종로구 인사동길 49,126.98325509005518,37.5746906341445,http://place.map.kakao.com/691765784,,unknown,unknown,,0,0
953996006,GS타임즈 경운동주차장,"교통,수송 > 교통시설 > 주차장",PK6,주차장,,서울 종로구 경운동 65,서울 종로구 인사동10길 19,126.98607160377,37.5744963851938,http://place.map.kakao.com/953996006,,unknown,unknown,,0,0
1160439810,라이온스회관 주차장,"교통,수송 > 교통시설 > 주차장",PK6,주차장,,서울 종로구 경운동 70,,126.98640550580588,37.57474059368237,http://place.map.kakao.com/1160439810,,unknown,unknown,,0,0
1417206966,부남빌딩 주차장,"교통,수송 > 교통시설 > 주차장",PK6,주차장,,서울 종로구 경운동 63-7,서울 종로구 삼일대로 447,126.986660270359,37.5744108586807,http://place.map.kakao.com/1417206966,,unknown,unknown,,0,0
26564856,크라운호텔 주차장,"교통,수송 > 교통시설 > 주차장",PK6,주차장,,서울 종로구 낙원동 33,서울 종로구 삼일대로30길 9,126.9881783863082,37.57392718626991,http://place.map.kakao.com/26564856,,unknown,unknown,,0,0
26497575,AJ파크 종로2가점,"교통,수송 > 교통시설 > 주차장",PK6,주차장,1899-1485,서울 종로구 익선동 137-2,서울 종로구 삼일대로30길 28,126.989191511527,37.5741110863146,http://place.map.kakao.com/26497575,,unknown,unknown,,0,0
16534226,신한주차장,"교통,수송 > 교통시설 > 주차장",PK6,주차장,,서울 종로구 와룡동 131-7,,126.989064728376,37.574093054743,http://place.map.kakao.com/16534226,,unknown,unknown,,0,0
1575904087,비즈웰종로오피스텔 주차장,"교통,수송 > 교통시설 > 주차장",PK6,주차장,,서울 종로구 익선동 34,서울 종로구 삼일대로30길 23,126.988774875021,37.5744750493156,http://place.map.kakao.com/1575904087,,unknown,unknown,,0,0
498042068,종로오피스텔 주차장,"교통,수송 > 교통시설 > 주차장",PK6,주차장,,서울 종로구 낙원동 58-1,서울 종로구 삼일대로30길 21,126.988471555356,37.5740722754266,http://place.map.kakao.com/498042068,,unknown,unknown,,0,0
2003544563,GS타임즈 종로오피스텔주차장,"교통,수송 > 교통시설 > 주차장",PK6,주차장,,서울 종로구 낙원동 58-1,서울 종로구 삼일대로30길 21,126.98846023103158,37.57409930416379,http://place.map.kakao.com/2003544563,,unknown,unknown,,0,0
20590607,정웅주차장,"교통,수송 > 교통시설 > 주차장",PK6,주차장,,서울 종로구 익선동 126-1,서울 종로구 돈화문로11나길 31,126.990119761752,37.5741327915276,http://place.map.kakao.com/20590607,,unknown,unknown,,0,0
20563002,익선주차장,"교통,수송 > 교통시설 > 주차장",PK6,주차장,,서울 종로구 익선동 104-2,,126.99061896183215,37.574285100368456,http://place.map.kakao.com/20563002,,unknown,unknown,,0,0
16042923,MYCJ유료주차장,"교통,수송 > 교통시설 > 주차장",PK6,주차장,,서울 종로구 내자동 167-1,서울 종로구 사직로10길 13,126.970521866745,37.5752215301245,http://place.map.kakao.com/16042923,,unknown,unknown,,2,1.0
905465176,러닝웨이코리아 주차장,"교통,수송 > 교통시설 > 주차장",PK6,주차장,,서울 종로구 내자동 167-2,서울 종로구 사직로10길 17,126.970493611789,37.5751052947626,http://place.map.kakao.com/905465176,,unknown,unknown,,0,0
26864662,적선현대빌딩 주차장,"교통,수송 > 교통시설 > 주차장",PK6,주차장,,서울 종로구 적선동 80,,126.97296926075076,37.57538970087741,http://place.map.kakao.com/26864662,,unknown,unknown,,0,0
1935243990,GS타임즈 한누리빌딩주차장,"교통,수송 > 교통시설 > 주차장",PK6,주차장,,서울 종로구 내자동 219,서울 종로구 새문안로5가길 33,126.972940031928,37.5748256715544,http://place.map.kakao.com/1935243990,,unknown,unknown,,0,0
2037331465,포레스트빌딩 주차장,"교통,수송 > 교통시설 > 주차장",PK6,주차장,,서울 종로구 내자동 219,서울 종로구 새문안로5가길 33,126.9729332404203,37.57482386800818,http://place.map.kakao.com/2037331465,,unknown,unknown,,0,0
26864860,노스게이트빌딩 주차장,"교통,수송 > 교통시설 > 주차장",PK6,주차장,,서울 종로구 적선동 66,서울 종로구 새문안로5길 55,126.97403122960722,37.57504485833475,http://place.map.kakao.com/26864860,,unknown,unknown,,0,0
16037379,한국생산성본부 주차장,"교통,수송 > 교통시설 > 주차장",PK6,주차장,,서울 종로구 적선동 122-1,,126.97332150948525,37.57486900612425,http://place.map.kakao.com/16037379,,unknown,unknown,,0,0
1220715711,시민열린마당뒤 공영주차장,"교통,수송 > 교통시설 > 주차장 > 공영주차장",PK6,주차장,,서울 종로구 세종로 11,,126.978734765645,37.5752169882876,http://place.map.kakao.com/1220715711,,unknown,unknown,,1,3.0
2031103465,열린마당앞 주차장,"교통,수송 > 교통시설 > 주차장 > 공영주차장",PK6,주차장,,서울 종로구 중학동 111,서울 종로구 종로1길 55,126.978885291642,37.5753386495771,http://place.map.kakao.com/2031103465,,unknown,unknown,,0,0
26930714,트윈트리타워 주차장,"교통,수송 > 교통시설 > 주차장",PK6,주차장,,서울 종로구 중학동 14,서울 종로구 율곡로 6,126.98035805335854,37.57539656746311,http://place.map.kakao.com/26930714,,unknown,unknown,,1,5.0
1127983783,서머셋팰리스서울 주차장,"교통,수송 > 교통시설 > 주차장",PK6,주차장,,서울 종로구 수송동 85,서울 종로구 율곡로2길 7,126.98126943367758,37.57503001077964,http://place.map.kakao.com/1127983783,,unknown,unknown,,2,3.0
816076530,동일빌딩 주차장,"교통,수송 > 교통시설 > 주차장",PK6,주차장,,서울 종로구 수송동 5,서울 종로구 우정국로 69,126.982430846534,37.5752419230777,http://place.map.kakao.com/816076530,,unknown,unknown,,0,0
26879200,동덕빌딩 주차장,"교통,수송 > 교통시설 > 주차장",PK6,주차장,,서울 종로구 관훈동 151-8,서울 종로구 우정국로 68,126.98331277244915,37.57491859396477,http://place.map.kakao.com/26879200,,unknown,unknown,,0,0
20513491,관훈주차장,"교통,수송 > 교통시설 > 주차장",PK6,주차장,,서울 종로구 관훈동 112-4,서울 종로구 율곡로 42,126.98426920603,37.5755377085846,http://place.map.kakao.com/20513491,,unknown,unknown,,0,0
16932343,수운회관 주차장,"교통,수송 > 교통시설 > 주차장",PK6,주차장,02-734-4114,서울 종로구 경운동 88,서울 종로구 삼일대로 457,126.986166526931,37.5753973910103,http://place.map.kakao.com/16932343,,unknown,unknown,,0,0
628571666,운현궁SK허브오피스텔 주차장,"교통,수송 > 교통시설 > 주차장",PK6,주차장,,서울 종로구 경운동 89-4,서울 종로구 삼일대로 461,126.98607620495306,37.5755818340384,http://place.map.kakao.com/628571666,,unknown,unknown,,0,0
26864719,유료민영주차장,"교통,수송 > 교통시설 > 주차장",PK6,주차장,,서울 종로구 익선동 33-1,,126.98861653591597,37.57524697174436,http://place.map.kakao.com/26864719,,unknown,unknown,,1,1.0
26859294,운현신화타워 주차장,"교통,수송 > 교통시설 > 주차장",PK6,주차장,,서울 종로구 익선동 10-1,,126.98894909288876,37.57524271321248,http://place.map.kakao.com/26859294,,unknown,unknown,,0,0
1481102765,GS타임즈 익선동 유료주차장,"교통,수송 > 교통시설 > 주차장",PK6,주차장,,서울 종로구 와룡동 80-1,서울 종로구 돈화문로 74,126.99094828251,37.5750843083768,http://place.map.kakao.com/1481102765,,unknown,unknown,,0,0
1600779652,유료주차장,"교통,수송 > 교통시설 > 주차장",PK6,주차장,,서울 종로구 와룡동 80-1,,126.990998084485,37.57514557982,http://place.map.kakao.com/1600779652,,unknown,unknown,,0,0
20583070,중앙주차장,"교통,수송 > 교통시설 > 주차장",PK6,주차장,,서울 종로구 와룡동 80-1,서울 종로구 돈화문로 74,126.990998084485,37.57514557982,http://place.map.kakao.com/20583070,,unknown,unknown,,0,0
1258909380,서울특별시교육청어린이도서관 주차장,"교통,수송 > 교통시설 > 주차장",PK6,주차장,,서울 종로구 사직동 1-28,서울 종로구 사직로9길 7,126.967987977795,37.576155201511,http://place.map.kakao.com/1258909380,,unknown,unknown,,0,0
1228492624,경복빌딩 주차장,"교통,수송 > 교통시설 > 주차장",PK6,주차장,,서울 종로구 적선동 100-1,서울 종로구 자하문로2길 4,126.97287834665153,37.5763582491063,http://place.map.kakao.com/1228492624,,unknown,unknown,,1,1.0
17938384,경복궁 지하주차장2,"교통,수송 > 교통시설 > 주차장",PK6,주차장,,서울 종로구 세종로 1-1,서울 종로구 사직로 161,126.978866883729,37.5763837999104,http://place.map.kakao.com/17938384,,unknown,unknown,,1,5.0
1607750323,하이파킹 종로관훈점 주차장,"교통,수송 > 교통시설 > 주차장",PK6,주차장,,서울 종로구 관훈동 112-4,서울 종로구 율곡로 42,126.984351808381,37.5757116115109,http://place.map.kakao.com/1607750323,,unknown,unknown,,3,3.0
185989756,서원빌딩 주차장,"교통,수송 > 교통시설 > 주차장",PK6,주차장,,서울 종로구 경운동 91-1,서울 종로구 삼일대로 469,126.9860534391604,37.5761872944538,http://place.map.kakao.com/185989756,,unknown,unknown,,0,0
18783954,행복주차장,"교통,수송 > 교통시설 > 주차장",PK6,주차장,010-5022-7740,서울 종로구 운니동 97,서울 종로구 율곡로6길 22,126.989132333502,37.5762662600144,http://place.map.kakao.com/18783954,,unknown,unknown,#제로페이 ,1,5.0
2139192380,고강유료주차장,"교통,수송 > 교통시설 > 주차장",PK6,주차장,,서울 종로구 와룡동 40-1,서울 종로구 율곡로10길 36,126.99090630413572,37.57585105153754,http://place.map.kakao.com/2139192380,,unknown,unknown,,1,1.0
20577447,주차장,"교통,수송 > 교통시설 > 주차장",PK6,주차장,,서울 종로구 와룡동 106,서울 종로구 돈화문로 88,126.990572292024,37.5763240474395,http://place.map.kakao.com/20577447,,unknown,unknown,,0,0
716781258,삼원주차장,"교통,수송 > 교통시설 > 주차장",PK6,주차장,,서울 종로구 체부동 50,,126.972183102135,37.5768040795487,http://place.map.kakao.com/716781258,,unknown,unknown,,1,1.0
26864686,우진빌딩 주차장,"교통,수송 > 교통시설 > 주차장",PK6,주차장,,서울 종로구 통의동 35-41,,126.97276595148136,37.57724299968388,http://place.map.kakao.com/26864686,,unknown,unknown,,1,1.0
17577343,경복궁 주차장,"교통,수송 > 교통시설 > 주차장",PK6,주차장,,서울 종로구 세종로 1-1,서울 종로구 사직로 161,126.978916414504,37.5773749025524,http://place.map.kakao.com/17577343,,unknown,unknown,,7,3.9
27445832,경복궁 동편주차장,"교통,수송 > 교통시설 > 주차장",PK6,주차장,,서울 종로구 세종로 1-1,서울 종로구 사직로 161,126.978916412471,37.5773821105062,http://place.map.kakao.com/27445832,,unknown,unknown,,7,3.9
17938383,경복궁 지하주차장1,"교통,수송 > 교통시설 > 주차장",PK6,주차장,,서울 종로구 세종로 1-1,서울 종로구 사직로 161,126.979201835296,37.576870396368,http://place.map.kakao.com/17938383,,unknown,unknown,,2,5.0
499183964,하이파킹 경복궁주차장,"교통,수송 > 교통시설 > 주차장",PK6,주차장,1688-1054,서울 종로구 세종로 1-1,서울 종로구 사직로 161,126.979179193139,37.5768739963541,http://place.map.kakao.com/499183964,,unknown,unknown,,1,5.0
26535649,갤러리현대주차장,"교통,수송 > 교통시설 > 주차장",PK6,주차장,,서울 종로구 사간동 116,,126.980102891829,37.577101206229,http://place.map.kakao.com/26535649,,unknown,unknown,,0,0
26879194,하이파킹 안국역해영회관점 주차장,"교통,수송 > 교통시설 > 주차장",PK6,주차장,1522-0000,서울 종로구 안국동 148,서울 종로구 율곡로 53,126.985251599234,37.5766298407152,http://place.map.kakao.com/26879194,,unknown,unknown,,1,5.0
20375276,국원주차장,"교통,수송 > 교통시설 > 주차장",PK6,주차장,02-765-2778,서울 종로구 운니동 114-37,서울 종로구 율곡로 64,126.986903226668,37.576855284100816,http://place.map.kakao.com/20375276,,unknown,unknown,,3,2.3
1174661288,안국역4번출구 주차장,"교통,수송 > 교통시설 > 주차장",PK6,주차장,031-628-7168,서울 종로구 운니동 114-2,서울 종로구 율곡로 78,126.987592635474,37.5769409530369,http://place.map.kakao.com/1174661288,,unknown,unknown,,16,5.0
943545075,삼환빌딩 주차장,"교통,수송 > 교통시설 > 주차장",PK6,주차장,,서울 종로구 운니동 98-5,서울 종로구 율곡로 88,126.988855983673,37.5771383968187,http://place.map.kakao.com/943545075,,unknown,unknown,,0,0
1281600508,창경주차장,"교통,수송 > 교통시설 > 주차장",PK6,주차장,,서울 종로구 운니동 10,서울 종로구 율곡로6길 7,126.98946280027384,37.57691500594724,http://place.map.kakao.com/1281600508,,unknown,unknown,,1,5.0
496835375,담우주차장,"교통,수송 > 교통시설 > 주차장",PK6,주차장,02-2267-4001,서울 종로구 운니동 10,서울 종로구 율곡로6길 7,126.989440154525,37.5769474397204,http://place.map.kakao.com/496835375,,unknown,unknown,,0,0
443271058,신한주차장,"교통,수송 > 교통시설 > 주차장",PK6,주차장,,서울 종로구 와룡동 134,,126.990078662039,37.5767492763491,http://place.map.kakao.com/443271058,,unknown,unknown,,0,0
552483484,판시네마빌딩 주차장,"교통,수송 > 교통시설 > 주차장",PK6,주차장,,서울 종로구 필운동 32-1,서울 종로구 사직로9길 22,126.967880999224,37.5774733271716,http://place.map.kakao.com/552483484,,unknown,unknown,,0,0
23289330,토속촌삼계탕 주차장,"교통,수송 > 교통시설 > 주차장",PK6,주차장,,서울 종로구 체부동 95-2,,126.97123066400022,37.57778773702241,http://place.map.kakao.com/23289330,,unknown,unknown,,1,1.0
20516505,백송주차장,"교통,수송 > 교통시설 > 주차장",PK6,주차장,,서울 종로구 통의동 35-12,서울 종로구 자하문로6길 6,126.972504171544,37.5779862592378,http://place.map.kakao.com/20516505,,unknown,unknown,,3,2.3
2069482851,토속촌 임시주차장,"교통,수송 > 교통시설 > 주차장",PK6,주차장,02-737-7444,서울 종로구 통의동 70,,126.972336541851,37.5782096666243,http://place.map.kakao.com/2069482851,,unknown,unknown,,0,0
26564844,화암주차장,"교통,수송 > 교통시설 > 주차장",PK6,주차장,02-723-1942,서울 종로구 통의동 69-1,,126.972381802337,37.5782709448229,http://place.map.kakao.com/26564844,,unknown,unknown,,0,0
2116648441,국립현대미술관 서울관 주차장,"교통,수송 > 교통시설 > 주차장",PK6,주차장,02-3701-9500,서울 종로구 소격동 165,서울 종로구 삼청로 30,126.980116185227,37.5781968174579,http://place.map.kakao.com/2116648441,,unknown,unknown,,0,0
26511500,현대계동사옥 주차장,"교통,수송 > 교통시설 > 주차장",PK6,주차장,,서울 종로구 계동 140-2,서울 종로구 율곡로 75,126.98763773982397,37.578017645920376,http://place.map.kakao.com/26511500,,unknown,unknown,,0,0
770055034,현대계동사옥 공유주차장,"교통,수송 > 교통시설 > 주차장",PK6,주차장,,서울 종로구 원서동 181,서울 종로구 창덕궁길 19,126.988566008329,37.578233978082,http://place.map.kakao.com/770055034,,unknown,unknown,,0,0
17569179,배화여자대학교 주차장,"교통,수송 > 교통시설 > 주차장",PK6,주차장,,서울 종로구 누하동 149,서울 종로구 필운대로1길 34,126.966399604981,37.5789217133671,http://place.map.kakao.com/17569179,,unknown,unknown,,0,0
561641169,끄레아주차장,"교통,수송 > 교통시설 > 주차장",PK6,주차장,02-723-1942,서울 종로구 통의동 79,서울 종로구 자하문로8길 8,126.972449651708,37.578475486340366,http://place.map.kakao.com/561641169,,unknown,unknown,,3,1.0
11475966,원서공원앞 공영주차장,"교통,수송 > 교통시설 > 주차장 > 공영주차장",PK6,주차장,,서울 종로구 원서동 181,,126.98912070208203,37.57840341740444,http://place.map.kakao.com/11475966,,unknown,unknown,,1,5.0
16761898,토속촌주차장,"교통,수송 > 교통시설 > 주차장",PK6,주차장,,서울 종로구 통인동 126,서울 종로구 자하문로11길 10,126.970674063522,37.5797085193762,http://place.map.kakao.com/16761898,,unknown,unknown,,0,0
18086359,서울특별시교육청 정독도서관 주차장,"교통,수송 > 교통시설 > 주차장",PK6,주차장,,서울 종로구 화동 2,서울 종로구 북촌로5길 48,126.98261088650428,37.57990909994477,http://place.map.kakao.com/18086359,,unknown,unknown,,2,3.0
26380033,GS타임즈 정독도서관주차장,"교통,수송 > 교통시설 > 주차장",PK6,주차장,,서울 종로구 화동 2,서울 종로구 북촌로5길 48,126.9826108837802,37.57992081286494,http://place.map.kakao.com/26380033,,unknown,unknown,,0,0
25627713,누상공영주차장,"교통,수송 > 교통시설 > 주차장 > 공영주차장",PK6,주차장,,서울 종로구 누상동 166-50,,126.964660027032,37.5803808155186,http://place.map.kakao.com/25627713,,unknown,unknown,,2,3.0
20518282,화동유료주차장,"교통,수송 > 교통시설 > 주차장",PK6,주차장,,서울 종로구 화동 80,,126.981895160473,37.5808856696398,http://place.map.kakao.com/20518282,,unknown,unknown,,0,0
1842277883,청남문화원 주차장,"교통,수송 > 교통시설 > 주차장",PK6,주차장,02-762-7189,서울 종로구 가회동 170-4,서울 종로구 북촌로 39,126.984743682372,37.5803382679332,http://place.map.kakao.com/1842277883,,unknown,unknown,,0,0
20583137,지상주차장,"교통,수송 > 교통시설 > 주차장",PK6,주차장,,서울 종로구 옥인동 45-30,서울 종로구 자하문로19길 36,126.969332843447,37.5816903648074,http://place.map.kakao.com/20583137,,unknown,unknown,,0,0
20517334,푸른기린 민영주차장,"교통,수송 > 교통시설 > 주차장",PK6,주차장,02-725-1481,서울 종로구 화동 56,,126.981455686649,37.5817397434231,http://place.map.kakao.com/20517334,,unknown,unknown,,0,0
18086360,서울특별시교육청 정독도서관 2주차장,"교통,수송 > 교통시설 > 주차장",PK6,주차장,,서울 종로구 화동 2,서울 종로구 북촌로5길 48,126.982280042319,37.5810479069139,http://place.map.kakao.com/18086360,,unknown,unknown,,0,0
965370197,온유헌북촌가든 주차장,"교통,수송 > 교통시설 > 주차장",PK6,주차장,070-4179-7912,서울 종로구 계동 133-6,서울 종로구 계동길 84-3,126.986867374903,37.5811710415387,http://place.map.kakao.com/965370197,,unknown,unknown,,0,0
