id,place_name,category_name,category_group_code,category_group_name,phone,address_name,road_address_name,x,y,place_url,distance,wheelchair,animal,keyword,evalnum,rate
10349771,명동주민센터,"사회,공공기관 > 지방행정기관 > 행정복지센터 > 주민센터",PO3,공공기관,02-3396-6560,서울 중구 남산동2가 9-6,서울 중구 퇴계로20길 3,126.985811715466,37.5600479851303,http://place.map.kakao.com/10349771,,unknown,unknown,,4,3.3
1940988540,주한프랑스대사관,"사회,공공기관 > 외국기관 > 대사관,영사관,외국공관",PO3,공공기관,,서울 서대문구 합동 30,서울 서대문구 서소문로 43-12,126.965710301803,37.5613349867737,http://place.map.kakao.com/1940988540,,unknown,unknown,,0,0
8573780,주한과테말라대사관,"사회,공공기관 > 외국기관 > 대사관,영사관,외국공관",PO3,공공기관,02-771-7582,서울 중구 태평로2가 150,서울 중구 세종대로 55,126.97487574871542,37.56149136335642,http://place.map.kakao.com/8573780,,unknown,unknown,,4,1.8
17027486,주한코트디브와르대사관,"사회,공공기관 > 외국기관 > 대사관,영사관,외국공관",PO3,공공기관,02-3785-0561,서울 중구 태평로2가 150,서울 중구 세종대로 55,126.974959500139,37.5615021931092,http://place.map.kakao.com/17027486,,unknown,unknown,,1,3.0
8071960,주한칠레대사관,"사회,공공기관 > 외국기관 > 대사관,영사관,외국공관",PO3,공공기관,02-779-2610,서울 중구 충무로1가 25-5,서울 중구 퇴계로 97,126.982284801899,37.5609557134557,http://place.map.kakao.com/8071960,,unknown,unknown,,4,4.8
11520958,주한세네갈대사관,"사회,공공기관 > 외국기관 > 대사관,영사관,외국공관",PO3,공공기관,02-745-5554,서울 중구 충무로1가 25-5,서울 중구 퇴계로 97,126.982597143951,37.5611251473021,http://place.map.kakao.com/11520958,,unknown,unknown,,1,3.0
209338383,주한크로아티아공화국대사관,"사회,공공기관 > 외국기관 > 대사관,영사관,외국공관",PO3,공공기관,,서울 중구 충무로1가 25-5,서울 중구 퇴계로 97,126.982547383408,37.5609557525626,http://place.map.kakao.com/209338383,,unknown,unknown,,2,3.0
24163580,중국관광청,"사회,공공기관 > 외국기관 > 대사관,영사관,외국공관",PO3,공공기관,02-773-0393,서울 중구 충무로1가 25-5,서울 중구 퇴계로 97,126.982714898963,37.5609269453085,http://place.map.kakao.com/24163580,,unknown,unknown,,8,1.5
17643654,주한우루과이대사관,"사회,공공기관 > 외국기관 > 대사관,영사관,외국공관",PO3,공공기관,02-6245-3179,서울 중구 충무로1가 25-5,서울 중구 퇴계로 97,126.98230747062,37.560818765341,http://place.map.kakao.com/17643654,,unknown,unknown,,2,5.0
8068748,주한코스타리카대사관,"사회,공공기관 > 외국기관 > 대사관,영사관,외국공관",PO3,공공기관,02-707-9249,서울 중구 충무로1가 25-5,서울 중구 퇴계로 97,126.98261526981,37.5610530702308,http://place.map.kakao.com/8068748,,unknown,unknown,,1,3.0
11570545,주한칠레대사관 상무관,"사회,공공기관 > 외국기관 > 대사관,영사관,외국공관",PO3,공공기관,02-755-1248,서울 중구 충무로1가 25-5,서울 중구 퇴계로 97,126.982606221128,37.5610278409882,http://place.map.kakao.com/11570545,,unknown,unknown,,3,4.3
385871573,페루 수출관광진흥청,"사회,공공기관 > 외국기관 > 대사관,영사관,외국공관",PO3,공공기관,02-772-9771,서울 중구 충무로1가 25-5,서울 중구 퇴계로 97,126.982541737148,37.5609007909233,http://place.map.kakao.com/385871573,,unknown,unknown,,0,0
21267735,충무파출소,"사회,공공기관 > 행정기관 > 경찰서 > 파출소",PO3,공공기관,02-2278-7710,서울 중구 필동1가 20-5,서울 중구 퇴계로 178,126.991556660026,37.5608306010274,http://place.map.kakao.com/21267735,,unknown,unknown,,0,0
936522887,주한캄보디아대사관,"사회,공공기관 > 외국기관 > 대사관,영사관,외국공관",PO3,공공기관,02-3785-1041,서울 중구 태평로2가 150,서울 중구 세종대로 55,126.97497757077,37.5616175245165,http://place.map.kakao.com/936522887,,unknown,unknown,,5,2.6
12447983,주한페루대사관,"사회,공공기관 > 외국기관 > 대사관,영사관,외국공관",PO3,공공기관,02-757-1735,서울 중구 태평로2가 150,서울 중구 세종대로 55,126.97498662598709,37.56161572444192,http://place.map.kakao.com/12447983,,unknown,unknown,,1,5.0
8070467,주한파라과이대사관,"사회,공공기관 > 외국기관 > 대사관,영사관,외국공관",PO3,공공기관,02-792-8335,서울 중구 태평로2가 150,서울 중구 세종대로 55,126.97479985636043,37.56166974452576,http://place.map.kakao.com/8070467,,unknown,unknown,,2,3.5
9795561,주한볼리비아 다민족국가대사관,"사회,공공기관 > 외국기관 > 대사관,영사관,외국공관",PO3,공공기관,02-318-1767,서울 중구 태평로2가 150,서울 중구 세종대로 55,126.9749775707702,37.56161752451649,http://place.map.kakao.com/9795561,,unknown,unknown,,3,4.7
642638937,주한세르비아대사관,"사회,공공기관 > 외국기관 > 대사관,영사관,외국공관",PO3,공공기관,02-797-5109,서울 중구 태평로2가 150,서울 중구 세종대로 55,126.97497757077,37.5616175245165,http://place.map.kakao.com/642638937,,unknown,unknown,,1,5.0
12447971,주한엘살바도르대사관,"사회,공공기관 > 외국기관 > 대사관,영사관,외국공관",PO3,공공기관,02-753-3433,서울 중구 태평로2가 150,서울 중구 세종대로 55,126.974991138236,37.5616607752316,http://place.map.kakao.com/12447971,,unknown,unknown,,1,2.0
7877438,몰타공화국명예영사관,"사회,공공기관 > 외국기관 > 대사관,영사관,외국공관",PO3,공공기관,02-778-9201,서울 중구 충무로2가 60-3,서울 중구 삼일대로 299,126.988595718296,37.56157637747,http://place.map.kakao.com/7877438,,unknown,unknown,,0,0
113391461,국가수사본부,"사회,공공기관 > 행정기관 > 경찰청",PO3,공공기관,182,서울 서대문구 미근동 209,서울 서대문구 통일로 97,126.967651675873,37.5632627662832,http://place.map.kakao.com/113391461,,unknown,unknown,,6,2.3
1184944014,프랑스대사관 교육진흥원캠퍼스프랑스,"사회,공공기관 > 외국기관 > 대사관,영사관,외국공관",PO3,공공기관,,서울 중구 의주로1가 203,서울 중구 통일로 86,126.96957136074712,37.56310470127861,http://place.map.kakao.com/1184944014,,unknown,unknown,,0,0
8233951,괌관광청 한국사무소,"사회,공공기관 > 외국기관 > 대사관,영사관,외국공관",PO3,공공기관,,서울 중구 순화동 5-2,서울 중구 서소문로 89,126.970825649294,37.562593251881,http://place.map.kakao.com/8233951,,unknown,unknown,,0,0
10864420,하와이 관광청,"사회,공공기관 > 외국기관 > 대사관,영사관,외국공관",PO3,공공기관,02-777-0033,서울 중구 서소문동 58-7,서울 중구 서소문로 106,126.97315724934,37.5625757850767,http://place.map.kakao.com/10864420,,unknown,unknown,,0,0
12618835,시애틀관광청 한국사무소,"사회,공공기관 > 외국기관 > 대사관,영사관,외국공관",PO3,공공기관,02-777-6684,서울 중구 서소문동 58-7,서울 중구 서소문로 106,126.973030514296,37.5624892605273,http://place.map.kakao.com/12618835,,unknown,unknown,,0,0
14541210,마리아나관광청 한국사무소,"사회,공공기관 > 외국기관 > 대사관,영사관,외국공관",PO3,공공기관,02-777-3252,서울 중구 서소문동 58-7,서울 중구 서소문로 106,126.97302595705,37.5625721511675,http://place.map.kakao.com/14541210,,unknown,unknown,,0,0
11562999,캘리포니아관광청,"사회,공공기관 > 외국기관 > 대사관,영사관,외국공관",PO3,공공기관,,서울 중구 서소문동 58-7,서울 중구 서소문로 106,126.973021433584,37.5625613381756,http://place.map.kakao.com/11562999,,unknown,unknown,,0,0
24163810,뉴욕관광청,"사회,공공기관 > 외국기관 > 대사관,영사관,외국공관",PO3,공공기관,02-777-6939,서울 중구 서소문동 58-7,서울 중구 서소문로 106,126.972935444953,37.5624748228277,http://place.map.kakao.com/24163810,,unknown,unknown,,0,0
24163925,브리시티컬림비아주관광청,"사회,공공기관 > 외국기관 > 대사관,영사관,외국공관",PO3,공공기관,02-777-1977,서울 중구 서소문동 58-7,서울 중구 서소문로 106,126.9730440756,37.5625469274028,http://place.map.kakao.com/24163925,,unknown,unknown,,0,0
12447936,주한도미니카공화국대사관,"사회,공공기관 > 외국기관 > 대사관,영사관,외국공관",PO3,공공기관,02-756-3513,서울 중구 태평로2가 310,서울 중구 세종대로 73,126.97594598928312,37.56294038876657,http://place.map.kakao.com/12447936,,unknown,unknown,,3,4.0
11129751,소공동주민센터,"사회,공공기관 > 지방행정기관 > 행정복지센터 > 주민센터",PO3,공공기관,02-3396-6500,서울 중구 북창동 20-5,서울 중구 남대문로1길 31-5,126.977064410842,37.5624288453093,http://place.map.kakao.com/11129751,,unknown,unknown,,15,2.3
134174904,홋카이도관광청,"사회,공공기관 > 외국기관 > 대사관,영사관,외국공관",PO3,공공기관,,서울 중구 남대문로2가 118,서울 중구 남대문로 63,126.981478463855,37.5629125544196,http://place.map.kakao.com/134174904,,unknown,unknown,,0,0
519966651,북도호쿠3현 훗카이도 서울사무소,"사회,공공기관 > 외국기관 > 대사관,영사관,외국공관",PO3,공공기관,02-771-6191,서울 중구 남대문로2가 118,서울 중구 남대문로 63,126.981471674562,37.5629053453824,http://place.map.kakao.com/519966651,,unknown,unknown,,0,0
17214898,주한중국대사관,"사회,공공기관 > 외국기관 > 대사관,영사관,외국공관",PO3,공공기관,02-738-1038,서울 중구 명동2가 83-7,서울 중구 명동2길 27,126.98301094876228,37.56306775627935,http://place.map.kakao.com/17214898,,n,n,,228,1.3
8175350,경찰청,"사회,공공기관 > 행정기관 > 경찰청",PO3,공공기관,182,서울 서대문구 미근동 209,서울 서대문구 통일로 97,126.96756106914329,37.56339789088336,http://place.map.kakao.com/8175350,,unknown,unknown,,27,2.0
22756805,경찰청 총포화약안전관리시스템,"사회,공공기관 > 행정기관 > 경찰청",PO3,공공기관,02-3150-0567,서울 서대문구 미근동 209,서울 서대문구 통일로 97,126.967547401698,37.5635943043374,http://place.map.kakao.com/22756805,,unknown,unknown,,0,0
24163720,프랑스관광청,"사회,공공기관 > 외국기관 > 대사관,영사관,외국공관",PO3,공공기관,,서울 중구 서소문동 41-3,서울 중구 서소문로 117,126.97405779386064,37.5637328658184,http://place.map.kakao.com/24163720,,unknown,unknown,,0,0
10345552,말레이시아관광청,"사회,공공기관 > 외국기관 > 대사관,영사관,외국공관",PO3,공공기관,02-779-4422,서울 중구 서소문동 47-2,서울 중구 서소문로 115,126.973682110558,37.5634660877449,http://place.map.kakao.com/10345552,,unknown,unknown,,1,1.0
21268142,서소문파출소,"사회,공공기관 > 행정기관 > 경찰서 > 파출소",PO3,공공기관,02-2096-8477,서울 중구 서소문동 24,서울 중구 서소문로 131-1,126.975470324112,37.5638232673799,http://place.map.kakao.com/21268142,,unknown,unknown,,2,3.0
21268414,명동파출소,"사회,공공기관 > 행정기관 > 경찰서 > 파출소",PO3,공공기관,02-2096-8473,서울 중구 명동2가 50-13,서울 중구 명동길 30,126.98396838087328,37.56359046809808,http://place.map.kakao.com/21268414,,unknown,unknown,,1,5.0
11151738,서울중부경찰서,"사회,공공기관 > 행정기관 > 경찰서",PO3,공공기관,,서울 중구 저동2가 62-1,서울 중구 수표로 27,126.98958691395208,37.56361812722828,http://place.map.kakao.com/11151738,,unknown,unknown,,5,3.4
20540366,서울서대문경찰서,"사회,공공기관 > 행정기관 > 경찰서",PO3,공공기관,182,서울 서대문구 미근동 165,서울 서대문구 통일로 113,126.966790740735,37.5649023404956,http://place.map.kakao.com/20540366,,unknown,unknown,,12,2.3
8091878,주한러시아대사관,"사회,공공기관 > 외국기관 > 대사관,영사관,외국공관",PO3,공공기관,02-318-2116,서울 중구 정동 34-16,서울 중구 서소문로11길 43,126.97189545617196,37.5650298054851,http://place.map.kakao.com/8091878,,unknown,unknown,,148,1.5
18573371,필리핀관광부 한국사무소,"사회,공공기관 > 외국기관 > 대사관,영사관,외국공관",PO3,공공기관,02-598-2290,서울 중구 을지로1가 188-3,서울 중구 을지로 16,126.97943586395644,37.56563682906466,http://place.map.kakao.com/18573371,,unknown,unknown,,0,0
10739097,일본국제관광진흥기구 서울사무소,"사회,공공기관 > 외국기관 > 대사관,영사관,외국공관",PO3,공공기관,02-777-8601,서울 중구 을지로1가 188-3,서울 중구 을지로 16,126.979336242911,37.5656908714345,http://place.map.kakao.com/10739097,,unknown,unknown,,6,4.3
10977915,홍콩관광진흥청 한국사무소,"사회,공공기관 > 외국기관 > 대사관,영사관,외국공관",PO3,공공기관,02-778-4403,서울 중구 을지로1가 188-3,서울 중구 을지로 16,126.97942003413644,37.56557645956924,http://place.map.kakao.com/10977915,,unknown,unknown,,2,5.0
9096458,노르웨이관광청,"사회,공공기관 > 외국기관 > 대사관,영사관,외국공관",PO3,공공기관,02-777-5943,서울 중구 을지로1가 188-3,서울 중구 을지로 16,126.979408706589,37.5656079924569,http://place.map.kakao.com/9096458,,unknown,unknown,,0,0
10350328,마카오정부관광청 한국사무소,"사회,공공기관 > 외국기관 > 대사관,영사관,외국공관",PO3,공공기관,02-778-4402,서울 중구 을지로1가 188-3,서울 중구 을지로 16,126.979431336406,37.565636828276,http://place.map.kakao.com/10350328,,unknown,unknown,,0,0
250199169,주한리투아니아대사관,"사회,공공기관 > 외국기관 > 대사관,영사관,외국공관",PO3,공공기관,,서울 중구 소공동 1,서울 중구 을지로 30,126.981357883745,37.5653380174958,http://place.map.kakao.com/250199169,,unknown,unknown,,1,1.0
2016690026,마리아나관광청,"사회,공공기관 > 외국기관 > 대사관,영사관,외국공관",PO3,공공기관,02-775-8282,서울 중구 을지로2가 198,서울 중구 을지로 50,126.983325029984,37.5656374424274,http://place.map.kakao.com/2016690026,,unknown,unknown,,0,0
12736065,구미국공사관,"사회,공공기관 > 외국기관 > 대사관,영사관,외국공관",PO3,공공기관,,서울 중구 정동 10-1,서울 중구 덕수궁길 83,126.973219213319,37.5665401825426,http://place.map.kakao.com/12736065,,unknown,unknown,,2,3.0
8042861,을지로동주민센터,"사회,공공기관 > 지방행정기관 > 행정복지센터 > 주민센터",PO3,공공기관,02-3396-6680,서울 중구 을지로3가 65-13,서울 중구 충무로9길 19,126.991352255144,37.566697874596,http://place.map.kakao.com/8042861,,unknown,unknown,,5,3.4
8070505,주한캐나다대사관,"사회,공공기관 > 외국기관 > 대사관,영사관,외국공관",PO3,공공기관,02-3783-6000,서울 중구 정동 16-1,서울 중구 정동길 21,126.97084207178274,37.56692164163813,http://place.map.kakao.com/8070505,,unknown,unknown,,10,2.8
8070337,주한뉴질랜드대사관,"사회,공공기관 > 외국기관 > 대사관,영사관,외국공관",PO3,공공기관,02-3701-7700,서울 중구 정동 15-5,서울 중구 정동길 21-15,126.97082819901978,37.56766495974831,http://place.map.kakao.com/8070337,,unknown,unknown,,2,3.0
26423272,주한네덜란드대사관,"사회,공공기관 > 외국기관 > 대사관,영사관,외국공관",PO3,공공기관,02-311-8600,서울 중구 정동 15-5,서울 중구 정동길 21-15,126.97093235825795,37.56760642071576,http://place.map.kakao.com/26423272,,unknown,unknown,,7,1.6
25852133,주한노르웨이대사관,"사회,공공기관 > 외국기관 > 대사관,영사관,외국공관",PO3,공공기관,02-727-7100,서울 중구 정동 15-5,서울 중구 정동길 21-15,126.97096634375616,37.56753434941765,http://place.map.kakao.com/25852133,,unknown,unknown,,1,5.0
14982251,미국대사관저,"사회,공공기관 > 외국기관 > 대사관,영사관,외국공관",PO3,공공기관,,서울 중구 정동 10-1,서울 중구 덕수궁길 83,126.972974557287,37.5669978327021,http://place.map.kakao.com/14982251,,unknown,unknown,,14,3.4
10797680,주한영국대사관,"사회,공공기관 > 외국기관 > 대사관,영사관,외국공관",PO3,공공기관,02-3210-5500,서울 중구 정동 4,서울 중구 세종대로19길 24,126.97507541013456,37.566904591352206,http://place.map.kakao.com/10797680,,unknown,unknown,,13,3.9
8430129,서울특별시청,"사회,공공기관 > 지방행정기관 > 시청 > 특별시청",PO3,공공기관,02-120,서울 중구 태평로1가 31,서울 중구 세종대로 110,126.978652258823,37.56682420267543,http://place.map.kakao.com/8430129,,n,n,,122,3.4
10252136,대만관광청 서울사무소,"사회,공공기관 > 외국기관 > 대사관,영사관,외국공관",PO3,공공기관,02-732-2358,서울 중구 삼각동 115,서울 중구 남대문로10길 9,126.983166186155,37.5673240842987,http://place.map.kakao.com/10252136,,unknown,unknown,,0,0
10219757,주한그리스대사관,"사회,공공기관 > 외국기관 > 대사관,영사관,외국공관",PO3,공공기관,02-729-1400,서울 중구 장교동 1,서울 중구 청계천로 86,126.986756561285,37.5676272762347,http://place.map.kakao.com/10219757,,unknown,unknown,,4,4.5
9747771,룩셈부르크 대표부,"사회,공공기관 > 외국기관 > 대사관,영사관,외국공관",PO3,공공기관,02-777-2552,서울 중구 장교동 1,서울 중구 삼일대로 363,126.987064513355,37.5672200602731,http://place.map.kakao.com/9747771,,unknown,unknown,,1,5.0
18339764,주한싱가포르대사관,"사회,공공기관 > 외국기관 > 대사관,영사관,외국공관",PO3,공공기관,02-774-2464,서울 중구 무교동 97,서울 중구 세종대로 136,126.97831219864602,37.5685090027653,http://place.map.kakao.com/18339764,,unknown,unknown,,10,3.9
11202739,싱가포르관광청,"사회,공공기관 > 외국기관 > 대사관,영사관,외국공관",PO3,공공기관,02-734-5570,서울 중구 태평로1가 84,서울 중구 세종대로 136,126.97825562828278,37.568418892795854,http://place.map.kakao.com/11202739,,unknown,unknown,,0,0
21264932,태평로파출소,"사회,공공기관 > 행정기관 > 경찰서 > 파출소",PO3,공공기관,02-2096-8471,서울 중구 다동 46,서울 중구 다동길 11,126.979996645142,37.5680119505779,http://place.map.kakao.com/21264932,,unknown,unknown,,3,5.0
21268391,세종로파출소,"사회,공공기관 > 행정기관 > 경찰서 > 파출소",PO3,공공기관,02-3701-4312,서울 중구 태평로1가 68-1,서울 중구 세종대로 141,126.976424002407,37.5689375146994,http://place.map.kakao.com/21268391,,unknown,unknown,,4,4.8
10621779,주한온두라스대사관,"사회,공공기관 > 외국기관 > 대사관,영사관,외국공관",PO3,공공기관,02-738-8402,서울 종로구 서린동 149,서울 종로구 청계천로 11,126.978710375796,37.5694316946943,http://place.map.kakao.com/10621779,,unknown,unknown,,2,1.5
21268616,관수파출소,"사회,공공기관 > 행정기관 > 경찰서 > 파출소",PO3,공공기관,02-3701-4302,서울 종로구 관철동 5-10,서울 종로구 삼일대로 386,126.988005995139,37.5688960116969,http://place.map.kakao.com/21268616,,unknown,unknown,,3,3.7
288932434,주한스위스대사관,"사회,공공기관 > 외국기관 > 대사관,영사관,외국공관",PO3,공공기관,02-739-9511,서울 종로구 송월동 147,서울 종로구 송월길 77,126.9650655267358,37.57025105435757,http://place.map.kakao.com/288932434,,unknown,unknown,,7,4.9
24163993,뉴질랜드관광청,"사회,공공기관 > 외국기관 > 대사관,영사관,외국공관",PO3,공공기관,02-3210-1107,서울 종로구 신문로1가 163,서울 종로구 새문안로 92,126.974902413491,37.5697264730916,http://place.map.kakao.com/24163993,,unknown,unknown,,0,0
11149854,주한대만대표부,"사회,공공기관 > 외국기관 > 대사관,영사관,외국공관",PO3,공공기관,02-6329-6000,서울 종로구 세종로 211,서울 종로구 세종대로 149,126.97627885380558,37.56975919351887,http://place.map.kakao.com/11149854,,n,n,,44,4.5
45341762,베네수엘라대사관,"사회,공공기관 > 외국기관 > 대사관,영사관,외국공관",PO3,공공기관,02-732-1546,서울 종로구 신문로1가 150,서울 종로구 세종대로 149,126.976138551791,37.5695717581911,http://place.map.kakao.com/45341762,,unknown,unknown,,5,3.4
8091884,주한이스라엘대사관,"사회,공공기관 > 외국기관 > 대사관,영사관,외국공관",PO3,공공기관,02-3210-8500,서울 종로구 서린동 149,서울 종로구 청계천로 11,126.97886655977702,37.56951821832247,http://place.map.kakao.com/8091884,,unknown,unknown,,19,1.7
21268264,신문로파출소,"사회,공공기관 > 행정기관 > 경찰서 > 파출소",PO3,공공기관,02-3701-4311,서울 종로구 신문로1가 58-16,서울 종로구 경희궁길 6-3,126.97223515789076,37.57075661461861,http://place.map.kakao.com/21268264,,unknown,unknown,,1,5.0
8574469,주한오만대사관,"사회,공공기관 > 외국기관 > 대사관,영사관,외국공관",PO3,공공기관,02-790-2431,서울 종로구 신문로1가 58-13,서울 종로구 새문안로3길 9,126.97235727558773,37.57112064535576,http://place.map.kakao.com/8574469,,unknown,unknown,,1,5.0
17491261,주한콜롬비아대사관,"사회,공공기관 > 외국기관 > 대사관,영사관,외국공관",PO3,공공기관,02-720-1369,서울 종로구 세종로 119,서울 종로구 종로 1,126.977795326592,37.570905554569,http://place.map.kakao.com/17491261,,unknown,unknown,,4,4.0
8517556,주한오스트리아대사관,"사회,공공기관 > 외국기관 > 대사관,영사관,외국공관",PO3,공공기관,02-721-1700,서울 종로구 세종로 119,서울 종로구 종로 1,126.97803530896572,37.57088757955719,http://place.map.kakao.com/8517556,,unknown,unknown,,2,1.5
8621037,주한호주대사관 비자과,"사회,공공기관 > 외국기관 > 대사관,영사관,외국공관",PO3,공공기관,02-2003-0111,서울 종로구 세종로 119,서울 종로구 종로 1,126.977913001177,37.5710749637503,http://place.map.kakao.com/8621037,,unknown,unknown,,0,0
17186740,주한오스트리아대사관 상무부,"사회,공공기관 > 외국기관 > 대사관,영사관,외국공관",PO3,공공기관,,서울 종로구 종로1가 1,서울 종로구 종로 1,126.977949367656,37.5705884331004,http://place.map.kakao.com/17186740,,unknown,unknown,,0,0
12900023,주한호주대사관 무역투자대표부,"사회,공공기관 > 외국기관 > 대사관,영사관,외국공관",PO3,공공기관,02-398-2800,서울 종로구 세종로 119,서울 종로구 종로 1,126.97788135398,37.5709127786803,http://place.map.kakao.com/12900023,,unknown,unknown,,0,0
11399781,주한오스트리아대사관 무역대표부,"사회,공공기관 > 외국기관 > 대사관,영사관,외국공관",PO3,공공기관,02-732-7330,서울 종로구 세종로 119,서울 종로구 종로 1,126.977908491394,37.5710136952301,http://place.map.kakao.com/11399781,,unknown,unknown,,0,0
10870246,주한핀란드대사관 무역대표부,"사회,공공기관 > 외국기관 > 대사관,영사관,외국공관",PO3,공공기관,02-725-2076,서울 종로구 청진동 70,서울 종로구 종로 33,126.981494615626,37.5708269048115,http://place.map.kakao.com/10870246,,unknown,unknown,,1,5.0
12447722,주한에콰도르대사관,"사회,공공기관 > 외국기관 > 대사관,영사관,외국공관",PO3,공공기관,02-739-2401,서울 종로구 공평동 100,서울 종로구 종로 47,126.982436343805,37.5711153671552,http://place.map.kakao.com/12447722,,unknown,unknown,,1,5.0
23282153,세종로자치회관,"사회,공공기관 > 지방행정기관 > 행정복지센터 > 주민센터",PO3,공공기관,,서울 종로구 신문로2가 1-122,서울 종로구 경희궁1길 15,126.97060488742,37.5713688967025,http://place.map.kakao.com/23282153,,unknown,unknown,,0,0
8511135,주한호주대사관,"사회,공공기관 > 외국기관 > 대사관,영사관,외국공관",PO3,공공기관,02-2003-0100,서울 종로구 세종로 119,서울 종로구 종로 1,126.977894814031,37.571330842988,http://place.map.kakao.com/8511135,,unknown,unknown,,11,4.2
8092046,주한핀란드대사관,"사회,공공기관 > 외국기관 > 대사관,영사관,외국공관",PO3,공공기관,02-3701-0300,서울 종로구 세종로 119,서울 종로구 종로 1,126.978017089447,37.571255182223,http://place.map.kakao.com/8092046,,unknown,unknown,,4,3.0
18365849,미얀마관광청,"사회,공공기관 > 외국기관 > 대사관,영사관,외국공관",PO3,공공기관,,서울 종로구 청진동 6,서울 종로구 삼봉로 68,126.980883021333,37.5721278443989,http://place.map.kakao.com/18365849,,unknown,unknown,,3,2.3
9402325,이스라엘관광청 서울사무소,"사회,공공기관 > 외국기관 > 대사관,영사관,외국공관",PO3,공공기관,02-738-0882,서울 종로구 인사동 194-4,서울 종로구 인사동5길 25,126.985433613106,37.5720852458231,http://place.map.kakao.com/9402325,,unknown,unknown,,1,5.0
1598811212,종로구청 (2024년예정),"사회,공공기관 > 지방행정기관 > 구청",PO3,공공기관,02-2148-1114,서울 종로구 수송동 146-2,서울 종로구 삼봉로 43,126.979607142054,37.572608762249,http://place.map.kakao.com/1598811212,,unknown,unknown,,0,0
8071963,주한파푸아뉴기니대사관,"사회,공공기관 > 외국기관 > 대사관,영사관,외국공관",PO3,공공기관,,서울 종로구 수송동 58,서울 종로구 삼봉로 81,126.98157571857026,37.57244510479756,http://place.map.kakao.com/8071963,,unknown,unknown,,1,2.0
2046520435,주한마셜제도 공화국대사관,"사회,공공기관 > 외국기관 > 대사관,영사관,외국공관",PO3,공공기관,02-6951-3181,서울 종로구 수송동 58,서울 종로구 삼봉로 81,126.98181004941,37.5724091013347,http://place.map.kakao.com/2046520435,,unknown,unknown,,0,0
14657566,청진파출소,"사회,공공기관 > 행정기관 > 경찰서 > 파출소",PO3,공공기관,02-3701-4313,서울 종로구 견지동 110-39,서울 종로구 우정국로 45-3,126.98266909172013,37.5730056892576,http://place.map.kakao.com/14657566,,unknown,unknown,,1,5.0
14666665,주한세이셸 명예총영사관,"사회,공공기관 > 외국기관 > 대사관,영사관,외국공관",PO3,공공기관,02-737-3235,서울 종로구 수송동 58,서울 종로구 삼봉로 81,126.98211905428708,37.57252807988614,http://place.map.kakao.com/14666665,,unknown,unknown,,0,0
1733822882,주한파나마대사관,"사회,공공기관 > 외국기관 > 대사관,영사관,외국공관",PO3,공공기관,02-734-8610,서울 종로구 신문로2가 1-134,서울 종로구 경희궁길 49,126.968561972952,37.5733496584072,http://place.map.kakao.com/1733822882,,unknown,unknown,,1,3.0
24164019,서호주관광청,"사회,공공기관 > 외국기관 > 대사관,영사관,외국공관",PO3,공공기관,02-6351-5156,서울 종로구 내수동 75,서울 종로구 새문안로3길 36,126.973252973991,37.5734201910431,http://place.map.kakao.com/24164019,,unknown,unknown,,0,0
8072139,주한미국대사관,"사회,공공기관 > 외국기관 > 대사관,영사관,외국공관",PO3,공공기관,02-397-4114,서울 종로구 세종로 82-14,서울 종로구 세종대로 188,126.977830870133,37.5731976927514,http://place.map.kakao.com/8072139,,unknown,unknown,,111,4.1
12899811,주한미국대사관 영사과,"사회,공공기관 > 외국기관 > 대사관,영사관,외국공관",PO3,공공기관,02-397-4373,서울 종로구 세종로 82-14,서울 종로구 세종대로 188,126.977835398141,37.5731976936016,http://place.map.kakao.com/12899811,,unknown,unknown,,13,3.8
18618105,종로구청,"사회,공공기관 > 지방행정기관 > 구청",PO3,공공기관,02-2148-1114,서울 종로구 수송동 146-12,서울 종로구 종로1길 36,126.97898995418838,37.57350424298736,http://place.map.kakao.com/18618105,,unknown,unknown,,21,2.9
8070468,주한체코공화국대사관,"사회,공공기관 > 외국기관 > 대사관,영사관,외국공관",PO3,공공기관,02-725-6765,서울 종로구 중학동 19,서울 종로구 종로1길 50,126.97953637912202,37.57472608788464,http://place.map.kakao.com/8070468,,unknown,unknown,,2,2.5
11520998,주한아일랜드대사관,"사회,공공기관 > 외국기관 > 대사관,영사관,외국공관",PO3,공공기관,02-721-7200,서울 종로구 수송동 146-1,서울 종로구 종로1길 42,126.979084892573,37.5740412527618,http://place.map.kakao.com/11520998,,unknown,unknown,,3,4.3
8517048,"종로1,2,3,4가동 주민센터","사회,공공기관 > 지방행정기관 > 행정복지센터 > 주민센터",PO3,공공기관,02-2148-5243,서울 종로구 익선동 99,서울 종로구 삼일대로30길 47,126.990287260844,37.5744355396667,http://place.map.kakao.com/8517048,,unknown,unknown,,5,3.4
10499532,서울경찰청,"사회,공공기관 > 행정기관 > 경찰청 > 시도경찰청",PO3,공공기관,182,서울 종로구 내자동 201-11,서울 종로구 사직로8길 31,126.97206158328277,37.57481465499086,http://place.map.kakao.com/10499532,,unknown,unknown,,17,2.2
2125196158,서울경찰청 강력계,"사회,공공기관 > 행정기관 > 경찰청",PO3,공공기관,182,서울 종로구 내자동 201-11,서울 종로구 사직로8길 31,126.97206157991668,37.5748236649366,http://place.map.kakao.com/2125196158,,unknown,unknown,,0,0
26845182,주대한민국 일본국대사관,"사회,공공기관 > 외국기관 > 대사관,영사관,외국공관",PO3,공공기관,02-2170-5200,서울 종로구 중학동 14,서울 종로구 율곡로 6,126.97977051335752,37.57544692393916,http://place.map.kakao.com/26845182,,n,n,,152,2.4
8574466,주한멕시코대사관,"사회,공공기관 > 외국기관 > 대사관,영사관,외국공관",PO3,공공기관,02-798-1694,서울 종로구 중학동 14,서울 종로구 율곡로 6,126.980501799297,37.5754830867718,http://place.map.kakao.com/8574466,,unknown,unknown,,5,4.2
20316602,주한요르단대사관,"사회,공공기관 > 외국기관 > 대사관,영사관,외국공관",PO3,공공기관,02-318-2897,서울 종로구 중학동 14,서울 종로구 율곡로 6,126.98053800289804,37.57556598424544,http://place.map.kakao.com/20316602,,unknown,unknown,,1,2.0
26897435,주대한민국일본국대사관 영사부,"사회,공공기관 > 외국기관 > 대사관,영사관,외국공관",PO3,공공기관,02-739-7400,서울 종로구 중학동 14,서울 종로구 율곡로 6,126.979763757225,37.5753135755832,http://place.map.kakao.com/26897435,,unknown,unknown,,31,2.2
7935719,서울종로경찰서,"사회,공공기관 > 행정기관 > 경찰서",PO3,공공기관,182,서울 종로구 경운동 90-18,서울 종로구 율곡로 46,126.98489861889408,37.57553779077874,http://place.map.kakao.com/7935719,,unknown,unknown,,21,2.9
21268645,사직파출소,"사회,공공기관 > 행정기관 > 경찰서 > 파출소",PO3,공공기관,02-3701-4309,서울 종로구 사직동 1-28,서울 종로구 사직로9길 5,126.9686263920534,37.57629863102009,http://place.map.kakao.com/21268645,,unknown,unknown,,0,0
8347776,사직동주민센터,"사회,공공기관 > 지방행정기관 > 행정복지센터 > 주민센터",PO3,공공기관,02-2148-5033,서울 종로구 사직동 1-28,서울 종로구 사직로9길 1,126.968846056089,37.5761869658856,http://place.map.kakao.com/8347776,,unknown,unknown,,4,2.0
20058583,서울종로경찰서 민원봉사실,"사회,공공기관 > 행정기관 > 경찰서",PO3,공공기관,,서울 종로구 경운동 90-4,서울 종로구 율곡로 46,126.984885229469,37.57594567107308,http://place.map.kakao.com/20058583,,unknown,unknown,,0,0
21268069,통의파출소,"사회,공공기관 > 행정기관 > 경찰서 > 파출소",PO3,공공기관,02-3701-4304,서울 종로구 통의동 35-66,서울 종로구 효자로 9,126.973998928464,37.5767828695959,http://place.map.kakao.com/21268069,,unknown,unknown,,2,3.0
27562929,주대한민국일본국대사관 공보문화원,"사회,공공기관 > 외국기관 > 대사관,영사관,외국공관",PO3,공공기관,02-765-3011,서울 종로구 운니동 114-8,서울 종로구 율곡로 64,126.986641729437,37.5768102050815,http://place.map.kakao.com/27562929,,unknown,unknown,,32,3.2
23256271,종로소방서 임시청사,"사회,공공기관 > 행정기관 > 소방서",PO3,공공기관,02-6981-5674,서울 종로구 운니동 114-2,서울 종로구 율곡로 78,126.98770584209308,37.57693645990929,http://place.map.kakao.com/23256271,,unknown,unknown,,1,5.0
9406960,종로소방서 구조대,"사회,공공기관 > 행정기관 > 소방서 > 119지역대",PO3,공공기관,02-6981-5650,서울 종로구 운니동 114-2,서울 종로구 율곡로 78,126.9876492588008,37.57681752274723,http://place.map.kakao.com/9406960,,unknown,unknown,,0,0
1783276450,종로소방서 소방행정과,"사회,공공기관 > 행정기관 > 소방서",PO3,공공기관,02-6981-5673,서울 종로구 운니동 114-2,서울 종로구 율곡로 78,126.987616430642,37.5768085093644,http://place.map.kakao.com/1783276450,,unknown,unknown,,0,0
188152467,세종로119안전센터,"사회,공공기관 > 행정기관 > 소방서 > 119안전센터",PO3,공공기관,02-6981-5740,서울 종로구 운니동 114-2,서울 종로구 율곡로 78,126.987651522915,37.5768175229841,http://place.map.kakao.com/188152467,,unknown,unknown,,0,0
11520909,주한에스와티니대사관,"사회,공공기관 > 외국기관 > 대사관,영사관,외국공관",PO3,공공기관,,서울 종로구 운니동 98-78,서울 종로구 율곡로 84,126.98844391263007,37.57714196117664,http://place.map.kakao.com/11520909,,unknown,unknown,,0,0
12149765,주한폴란드대사관,"사회,공공기관 > 외국기관 > 대사관,영사관,외국공관",PO3,공공기관,02-723-9681,서울 종로구 사간동 70,서울 종로구 삼청로 20-1,126.979831026063,37.5777354600587,http://place.map.kakao.com/12149765,,unknown,unknown,,9,4.9
8070634,주한포르투갈대사관,"사회,공공기관 > 외국기관 > 대사관,영사관,외국공관",PO3,공공기관,02-3675-2251,서울 종로구 원서동 171,서울 종로구 창덕궁1길 13,126.988466242563,37.5791601902943,http://place.map.kakao.com/8070634,,unknown,unknown,,1,4.0
21442392,서울경찰청 202경비단,"사회,공공기관 > 행정기관 > 경찰청 > 시도경찰청",PO3,공공기관,182,서울 종로구 창성동 117-1,서울 종로구 효자로9길 27,126.972557688402,37.5802279447593,http://place.map.kakao.com/21442392,,unknown,unknown,,1,5.0
10117094,가회동주민센터,"사회,공공기관 > 지방행정기관 > 행정복지센터 > 주민센터",PO3,공공기관,02-2148-5213,서울 종로구 가회동 156,서울 종로구 북촌로 35,126.9847844874787,37.5800968068488,http://place.map.kakao.com/10117094,,unknown,unknown,,3,3.3
21264791,옥인파출소,"사회,공공기관 > 행정기관 > 경찰서 > 파출소",PO3,공공기관,02-3701-4306,서울 종로구 옥인동 45-16,서울 종로구 자하문로17길 24,126.969432560818,37.5814705482295,http://place.map.kakao.com/21264791,,unknown,unknown,,0,0
12003234,청운효자동자치회관,"사회,공공기관 > 지방행정기관 > 행정복지센터 > 주민센터",PO3,공공기관,,서울 종로구 옥인동 45-30,서울 종로구 자하문로19길 36,126.969224101056,37.581830891506,http://place.map.kakao.com/12003234,,unknown,unknown,,0,0
26817871,22경찰경호대,"사회,공공기관 > 행정기관 > 경찰청",PO3,공공기관,02-700-5657,서울 종로구 통인동 10,서울 종로구 자하문로17길 7,126.96995343638592,37.58122921566207,http://place.map.kakao.com/26817871,,unknown,unknown,,1,5.0
10789485,주한브라질대사관,"사회,공공기관 > 외국기관 > 대사관,영사관,외국공관",PO3,공공기관,02-738-4970,서울 종로구 팔판동 141,서울 종로구 청와대로 73,126.980427755678,37.5815701906623,http://place.map.kakao.com/10789485,,unknown,unknown,,10,4.6
21268162,삼청파출소,"사회,공공기관 > 행정기관 > 경찰서 > 파출소",PO3,공공기관,02-3701-4303,서울 종로구 소격동 1-1,서울 종로구 삼청로 66,126.981125188895,37.581404521408,http://place.map.kakao.com/21268162,,unknown,unknown,,4,3.0
